{"type":"FeatureCollection","features":[{"type":"Feature","geometry":{"type":"Point","coordinates":[128.08,42]},"properties":{"id":"hwanung","name":"Hwanung","mythologyId":"korean","type":"god","era":"MÖ 2333","eraBucket":"ancient","description":"Son of the Lord of Heaven who descended to Mount Baekdu. Father of Dangun. Brought wind, rain, and cloud ministers. Established laws and taught agriculture.","imageUrl":"","domains":"sky,civilization,laws,agriculture","color":"#3498DB"}},{"type":"Feature","geometry":{"type":"Point","coordinates":[125.75,39.02]},"properties":{"id":"dangun","name":"Dangun","mythologyId":"korean","type":"demigod","era":"MÖ 2333","eraBucket":"ancient","description":"Legendary founder of Gojoseon (first Korean kingdom, 2333 BCE). Son of Hwanung and a she-bear who became human. National ancestor of all Koreans.","imageUrl":"https://upload.wikimedia.org/wikipedia/commons/thumb/b/b8/Portrait_of_Dangun.jpg/960px-Portrait_of_Dangun.jpg","domains":"founding,civilization,divine-kingship","color":"#3498DB"}},{"type":"Feature","geometry":{"type":"Point","coordinates":[127.15,35.82]},"properties":{"id":"jangseung","name":"Jangseung","mythologyId":"korean","type":"spirit","era":"MS 500","eraBucket":"medieval","description":"Guardian spirit embodied in carved wooden poles at village entrances. Male and female pairs protect villages from evil spirits and disease.","imageUrl":"","domains":"protection,boundaries,village-safety","color":"#3498DB"}},{"type":"Feature","geometry":{"type":"Point","coordinates":[128.08,42]},"properties":{"id":"dangun-deity","name":"Ungnyeo","mythologyId":"korean","type":"spirit","era":"MÖ 2333","eraBucket":"ancient","description":"The she-bear who became human after 100 days of eating garlic and mugwort in a cave. Mother of Dangun, founder of Korea. Represents patience and endurance.","imageUrl":"","domains":"patience,transformation,motherhood","color":"#3498DB"}},{"type":"Feature","geometry":{"type":"Point","coordinates":[126.98,37.57]},"properties":{"id":"san-shin","name":"San-shin","mythologyId":"korean","type":"god","era":"ancient","eraBucket":"ancient","description":"Korean Mountain God, one of the most widely worshipped deities. Each mountain has its own San-shin. Often depicted with a tiger. Shrines exist at most Buddhist temples.","imageUrl":"https://upload.wikimedia.org/wikipedia/commons/8/8f/Brooklyn_Museum_-_Mountain_Spirit_%28Sanshin%29.jpg","domains":"mountains,protection,tigers,longevity","color":"#3498DB"}}]}
