{"type":"FeatureCollection","features":[{"type":"Feature","geometry":{"type":"Point","coordinates":[125.75,39.02]},"properties":{"id":"dangun","name":"Dangun — Founding of Korea","mythologyId":"korean","type":"creation","era":"MÖ 2333","eraBucket":"ancient","summary":"Hwanung, son of the Lord of Heaven, descended to Mount Baekdu. A bear and tiger wished to become human. Given garlic and mugwort in a cave for 100 days, only the bear persevered, becoming a woman. She married Hwanung and bore Dangun, who founded Gojoseon (Old Korea) in 2333 BCE.","imageUrl":"https://upload.wikimedia.org/wikipedia/commons/thumb/c/c3/Dangun_painting.jpg/440px-Dangun_painting.jpg","themes":"foundation,perseverance,transformation,divine-descent"}},{"type":"Feature","geometry":{"type":"Point","coordinates":[126.98,37.57]},"properties":{"id":"gumiho","name":"Gumiho — Nine-Tailed Fox","mythologyId":"korean","type":"transformation","era":"MS 800","eraBucket":"medieval","summary":"The gumiho is a fox that has lived a thousand years, gaining the ability to transform into a beautiful woman. Unlike Japanese kitsune, Korean gumiho are typically malevolent, consuming the livers or hearts of men. Some stories tell of gumiho who genuinely fall in love and seek to become fully human through restraint.","imageUrl":"https://upload.wikimedia.org/wikipedia/commons/8/8c/KUMIHO.jpg","themes":"transformation,danger,beauty,redemption,fox"}},{"type":"Feature","geometry":{"type":"Point","coordinates":[127.15,35.82]},"properties":{"id":"korean-chunhyang","name":"Tale of Chunhyang","mythologyId":"korean","type":"love","era":"MS 1700","eraBucket":"modern","summary":"Chunhyang, the daughter of a gisaeng (courtesan), secretly married the nobleman's son Mongryong. When Mongryong left for Seoul, the corrupt governor Byeon Hakdo tried to force Chunhyang to be his concubine. She refused and was tortured. Mongryong returned as a secret royal inspector and saved her. Their love transcended class.","imageUrl":"","themes":"love,class,resistance,justice,loyalty"}},{"type":"Feature","geometry":{"type":"Point","coordinates":[126.98,37.57]},"properties":{"id":"korean-ondal","name":"Princess Pyeonggang and the Fool Ondal","mythologyId":"korean","type":"love","era":"MS 500","eraBucket":"medieval","summary":"The spirited princess cried so much that her father promised her to the village fool Ondal. She left the palace and married him, training him in martial arts and scholarship. Ondal became the nation's greatest general, proving that talent and love transcend social status. He died in battle defending the kingdom.","imageUrl":"","themes":"love,transformation,class,heroism,potential"}},{"type":"Feature","geometry":{"type":"Point","coordinates":[126.98,37.57]},"properties":{"id":"korean-creation","name":"Changsega — Korean Creation Epic","mythologyId":"korean","type":"creation","era":"ancient","eraBucket":"ancient","summary":"In the beginning, the giant Mireuk separated heaven and earth and placed four bronze pillars at the corners. He created the sun, moon, and stars from hanging lamps. A rival, Seokga, challenged him to a flower-growing contest. Seokga cheated, but won power over the human world, explaining why evil exists.","imageUrl":"","themes":"creation,contest,cheating,imperfection,cosmic-order"}}]}
