{"type":"FeatureCollection","features":[{"type":"Feature","geometry":{"type":"Point","coordinates":[126.98,37.58]},"properties":{"id":"gyeongbokgung","name":"Gyeongbokgung Palace","mythologyId":"korean","mythologyName":"Korean Mythology","type":"temple","era":"MS 1395","eraBucket":"medieval","description":"Main royal palace of the Joseon dynasty, aligned with Confucian and geomantic principles. Backed by Bugaksan mountain for protection.","imageUrl":"https://upload.wikimedia.org/wikipedia/commons/thumb/6/63/%EA%B4%91%ED%99%94%EB%AC%B8_%EC%9B%94%EB%8C%80.jpg/960px-%EA%B4%91%ED%99%94%EB%AC%B8_%EC%9B%94%EB%8C%80.jpg","country":"South Korea","modernStatus":"National treasure, partially restored","tags":"palace,joseon,geomancy","color":"#3498DB"}},{"type":"Feature","geometry":{"type":"Point","coordinates":[129.21,35.84]},"properties":{"id":"gyeongju","name":"Gyeongju — Capital of Silla","mythologyId":"korean","mythologyName":"Korean Mythology","type":"city","era":"MÖ 57","eraBucket":"ancient","description":"Ancient capital of the Silla kingdom with royal tombs, Buddhist temples, and the astronomical observatory Cheomseongdae (632 CE).","imageUrl":"https://upload.wikimedia.org/wikipedia/commons/2/24/Gyeongju_montage.png","country":"South Korea","modernStatus":"UNESCO World Heritage Site, 'museum without walls'","tags":"city,silla,observatory","color":"#3498DB"}},{"type":"Feature","geometry":{"type":"Point","coordinates":[128.06,42]},"properties":{"id":"baekdu","name":"Mount Baekdu (Paektu/Changbai)","mythologyId":"korean","mythologyName":"Korean Mythology","type":"mountain","era":"MÖ 2333","eraBucket":"ancient","description":"Sacred volcano on the Korean-Chinese border where Hwanung descended from heaven. Contains the heavenly lake Cheonji in its caldera.","imageUrl":"https://upload.wikimedia.org/wikipedia/commons/thumb/3/3e/ISS030-E-5315_-_View_of_China.jpg/960px-ISS030-E-5315_-_View_of_China.jpg","country":"North Korea/China","modernStatus":"Natural reserve, politically sensitive (NK/China border)","tags":"mountain,volcano,origin","color":"#3498DB"}}]}
