{"type":"FeatureCollection","features":[{"type":"Feature","geometry":{"type":"Point","coordinates":[106.92,47.92]},"properties":{"id":"mongke-tengri","name":"Möngke Tengri","mythologyId":"mongolian","type":"god","era":"ancient","eraBucket":"ancient","description":"The supreme sky deity of Mongolian religion. Grants divine mandate to rulers. Not personified — an eternal, abstract cosmic force.","imageUrl":"","domains":"sky,fate,law,order","color":"#2C3E50"}},{"type":"Feature","geometry":{"type":"Point","coordinates":[106.92,47.92]},"properties":{"id":"erlik-deity","name":"Erlik Khan","mythologyId":"mongolian","type":"god","era":"ancient","eraBucket":"ancient","description":"Ruler of the Mongolian underworld. Judge of the dead. First being created who fell to evil. Shamans negotiate with him for souls of the sick.","imageUrl":"","domains":"underworld,death,judgment","color":"#2C3E50"}}]}
