{"type":"FeatureCollection","features":[{"type":"Feature","geometry":{"type":"Point","coordinates":[109.65,48.56]},"properties":{"id":"mongol-blue-wolf","name":"The Blue Wolf and the Fallow Doe","mythologyId":"mongolian","type":"creation","era":"MS 1240","eraBucket":"medieval","summary":"The Mongol people descended from Börte Chino (Blue Wolf) who mated with Gua Maral (Fallow Doe) after crossing the sea. Their offspring populated the steppe and eventually produced Genghis Khan, who united the Mongol tribes under Eternal Blue Heaven's mandate. The wolf remains a sacred ancestor symbol.","imageUrl":"","themes":"ancestry,divine-mandate,wolf,empire,origin"}},{"type":"Feature","geometry":{"type":"Point","coordinates":[106.92,47.92]},"properties":{"id":"mongol-creation","name":"Creation by Eternal Blue Heaven","mythologyId":"mongolian","type":"creation","era":"ancient","eraBucket":"ancient","summary":"Eternal Blue Heaven (Möngke Tengri) created the world from primordial waters. He sent a duck to dive for mud from the ocean floor; from this mud he shaped the earth. The devil figure Erlik created mountains and swamps as obstacles. Tengri breathed soul into humans, while Erlik gave them disease and death.","imageUrl":"","themes":"creation,sky-god,duality,earth-diver,breath"}},{"type":"Feature","geometry":{"type":"Point","coordinates":[107,48]},"properties":{"id":"mongol-shamanism","name":"The Shaman's Journey to the Sky","mythologyId":"mongolian","type":"cosmology","era":"ancient","eraBucket":"ancient","summary":"Mongolian shamans enter ecstatic trance, their soul traveling up the World Tree or riding spirit horses to reach the sky realms. They pass through nine or thirteen heavens to petition Tengri for healing, rain, or guidance. The shaman's drum is their spirit horse, and their costume represents the cosmos.","imageUrl":"","themes":"shamanism,journey,sky,healing,trance"}},{"type":"Feature","geometry":{"type":"Point","coordinates":[106.92,47.92]},"properties":{"id":"mongol-geser","name":"Epic of King Gesar","mythologyId":"mongolian","type":"hero","era":"MS 1100","eraBucket":"medieval","summary":"King Gesar was sent from heaven to combat the demons infecting the human world. He was born miraculously, endured exile, and united the fractured tribes of Ling. Through martial prowess and divine wisdom, he defeated demon kings in all four directions. The longest epic in world literature — over a million verses in some versions.","imageUrl":"https://upload.wikimedia.org/wikipedia/commons/thumb/6/62/Gesar_Gruschke.jpg/960px-Gesar_Gruschke.jpg","themes":"heroism,demon-slaying,kingship,divine-mission,unity"}}]}
