{"type":"FeatureCollection","features":[{"type":"Feature","id":"erdene-zuu","properties":{"id":"erdene-zuu","name":"Erdene Zuu Monastery","mythologyId":"mongolian","mythologyName":"Mongolian Mythology","type":"temple","era":"MS 1585","eraBucket":"modern","description":"Mongolia's oldest Buddhist monastery, built from stones of Karakorum (Mongol Empire capital). 108 stupas line its walls.","imageUrl":"https://upload.wikimedia.org/wikipedia/commons/thumb/e/e8/Steppe_of_western_Mongolia.jpg/1280px-Steppe_of_western_Mongolia.jpg","country":"Mongolia","modernStatus":"UNESCO buffer zone, active monastery","tags":"monastery,mongol,karakorum","color":"#2C3E50"},"geometry":{"type":"Point","coordinates":[102.84,47.2]}}]}