{"type":"FeatureCollection","features":[{"type":"Feature","id":"aramazd","properties":{"id":"aramazd","name":"Aramazd","mythologyId":"armenian","type":"god","era":"MÖ 1000","eraBucket":"ancient","description":"Supreme creator god of the Armenian pantheon. Cognate with Ahura Mazda. Father of all gods. Annual festival at Garni temple.","imageUrl":"https://upload.wikimedia.org/wikipedia/commons/thumb/5/55/Ararat_from_Yerevan.jpg/1280px-Ararat_from_Yerevan.jpg","domains":"sky,creation,abundance","color":"#AB47BC"},"geometry":{"type":"Point","coordinates":[44.51,40.18]}},{"type":"Feature","id":"vahagn","properties":{"id":"vahagn","name":"Vahagn","mythologyId":"armenian","type":"god","era":"MÖ 500","eraBucket":"ancient","description":"Armenian war god born from cosmic fire. Dragon-slayer (Vishapakagh). Stole straw from the Milky Way. Cognate with Vedic Vrtrahan.","imageUrl":"https://upload.wikimedia.org/wikipedia/commons/thumb/5/55/Ararat_from_Yerevan.jpg/1280px-Ararat_from_Yerevan.jpg","domains":"war,thunder,fire,dragon-slaying","color":"#AB47BC"},"geometry":{"type":"Point","coordinates":[44.51,40.18]}},{"type":"Feature","id":"anahit","properties":{"id":"anahit","name":"Anahit","mythologyId":"armenian","type":"goddess","era":"MÖ 1000","eraBucket":"ancient","description":"Great Lady of Armenia, goddess of fertility, healing, and wisdom. Her golden statue was Armenia's most revered religious object. Cognate with Persian Anahita.","imageUrl":"https://upload.wikimedia.org/wikipedia/commons/thumb/5/55/Ararat_from_Yerevan.jpg/1280px-Ararat_from_Yerevan.jpg","domains":"fertility,healing,wisdom,water","color":"#AB47BC"},"geometry":{"type":"Point","coordinates":[44.51,40.18]}},{"type":"Feature","id":"astghik","properties":{"id":"astghik","name":"Astghik","mythologyId":"armenian","type":"goddess","era":"MÖ 500","eraBucket":"ancient","description":"Armenian goddess of love, beauty, and water. Beloved of Vahagn. Her festival Vardavar (Rose Festival) involved water-splashing. Still celebrated today.","imageUrl":"https://upload.wikimedia.org/wikipedia/commons/thumb/5/55/Ararat_from_Yerevan.jpg/1280px-Ararat_from_Yerevan.jpg","domains":"love,beauty,water,fertility,stars","color":"#AB47BC"},"geometry":{"type":"Point","coordinates":[44.51,40.18]}}]}