{"type":"FeatureCollection","features":[{"type":"Feature","geometry":{"type":"Point","coordinates":[42.18,38.73]},"properties":{"id":"david-sassoun","name":"David of Sassoun","mythologyId":"armenian","type":"hero","era":"MS 900","eraBucket":"medieval","summary":"The Armenian national epic tells of four generations of heroes from Sassoun. David, the greatest, wielded a magical sword and rode a supernatural horse. He defeated the tyrannical Msra Melik and liberated his people. His grandson Mher was trapped inside a rock for eternity, emerging only when the world becomes worthy.","imageUrl":"https://upload.wikimedia.org/wikipedia/commons/thumb/e/e0/Sasuntsi_Davit_closeup3.jpg/960px-Sasuntsi_Davit_closeup3.jpg","themes":"heroism,liberation,legacy,imprisonment,generational"}},{"type":"Feature","geometry":{"type":"Point","coordinates":[44.51,40.18]},"properties":{"id":"armenian-vahagn","name":"Birth of Vahagn the Dragon-Slayer","mythologyId":"armenian","type":"hero","era":"MÖ 500","eraBucket":"ancient","summary":"Vahagn was born from cosmic fire — heaven and earth labored, the sea turned red, and from a reed stalk fire emerged, forming a golden-haired youth with eyes like suns. He slew dragons (vishaps) and stole hay from the Milky Way (the 'Straw-Thief's Way' in Armenian). He was Armenia's war god.","imageUrl":"","themes":"divine-birth,fire,dragon-slaying,cosmic,war"}}]}
