{"type":"FeatureCollection","features":[{"type":"Feature","id":"garni","properties":{"id":"garni","name":"Garni Temple","mythologyId":"armenian","mythologyName":"Armenian Mythology","type":"temple","era":"MÖ 77","eraBucket":"ancient","description":"Only surviving Greco-Roman colonnaded temple in the former Soviet Union. Dedicated to the sun god Mihr/Mithra. Overlooking a dramatic gorge.","imageUrl":"https://upload.wikimedia.org/wikipedia/commons/thumb/5/55/Ararat_from_Yerevan.jpg/1280px-Ararat_from_Yerevan.jpg","country":"Armenia","modernStatus":"National monument, fully restored","tags":"temple,roman,sun","color":"#AB47BC"},"geometry":{"type":"Point","coordinates":[44.73,40.11]}},{"type":"Feature","id":"mount-ararat","properties":{"id":"mount-ararat","name":"Mount Ararat (Ağrı Dağı)","mythologyId":"armenian","mythologyName":"Armenian Mythology","type":"mountain","era":"ancient","eraBucket":"ancient","description":"Armenia's national symbol though located in Turkey. Biblical landing place of Noah's Ark. Sacred mountain of Armenian identity.","imageUrl":"https://upload.wikimedia.org/wikipedia/commons/thumb/5/55/Ararat_from_Yerevan.jpg/1280px-Ararat_from_Yerevan.jpg","country":"Turkey","modernStatus":"National park in Turkey, visible from Yerevan","tags":"mountain,ararat,flood","color":"#AB47BC"},"geometry":{"type":"Point","coordinates":[44.3,39.7]}}]}