{"type":"FeatureCollection","features":[{"type":"Feature","geometry":{"type":"Point","coordinates":[-87.43,20.21]},"properties":{"id":"ixchel","name":"Ixchel","mythologyId":"maya","type":"goddess","era":"MÖ 250","eraBucket":"ancient","description":"Maya goddess of the moon, medicine, and weaving. Depicted as an old woman with a serpent on her head, pouring water. Patron of midwives.","imageUrl":"https://upload.wikimedia.org/wikipedia/commons/a/aa/Ixchel_Dresden.jpg","domains":"moon,medicine,weaving,fertility","color":"#16A085"}},{"type":"Feature","geometry":{"type":"Point","coordinates":[-88.57,20.68]},"properties":{"id":"kukulkan","name":"Kukulkan","mythologyId":"maya","type":"god","era":"MÖ 300","eraBucket":"ancient","description":"Maya Feathered Serpent deity, counterpart of Aztec Quetzalcoatl. During equinoxes, his shadow serpent descends El Castillo pyramid at Chichén Itzá.","imageUrl":"https://upload.wikimedia.org/wikipedia/commons/3/3e/Kukulkan_%28reconstructed%29.jpg","domains":"wind,rain,feathered-serpent,creation","color":"#16A085"}},{"type":"Feature","geometry":{"type":"Point","coordinates":[-88.57,20.68]},"properties":{"id":"chaac-deity","name":"Chaac","mythologyId":"maya","type":"god","era":"MÖ 600","eraBucket":"ancient","description":"Maya rain god with a lightning axe. Four Chaacs govern the four directions. His long nose represents rain clouds. Essential for maize agriculture.","imageUrl":"https://upload.wikimedia.org/wikipedia/commons/thumb/9/94/MyanRainGodChac0180Rot.jpg/960px-MyanRainGodChac0180Rot.jpg","domains":"rain,thunder,agriculture,water","color":"#16A085"}},{"type":"Feature","geometry":{"type":"Point","coordinates":[-87.43,20.21]},"properties":{"id":"ah-puch","name":"Ah Puch","mythologyId":"maya","type":"god","era":"MÖ 250","eraBucket":"ancient","description":"Skeletal Maya death god who ruled Mitnal (ninth level of Xibalba). Wore bells, owl feathers, and rotting flesh. Associated with war and sacrifice.","imageUrl":"https://upload.wikimedia.org/wikipedia/commons/0/04/Maize_God_and_Itzamn%C3%A1.JPG","domains":"death,underworld,decay","color":"#16A085"}}]}
