{"type":"FeatureCollection","features":[{"type":"Feature","geometry":{"type":"Point","coordinates":[-90.37,15.45]},"properties":{"id":"popol-vuh","name":"Popol Vuh — Hero Twins","mythologyId":"maya","type":"hero","era":"MS 1554","eraBucket":"modern","summary":"The Hero Twins, Hunahpu and Xbalanque, descended to the underworld Xibalba to avenge their father. Through cleverness they defeated the Lords of Death in ball games and trials. They were sacrificed, ground up, and thrown into a river, but regenerated. They tricked the lords into being sacrificed and rose as the sun and moon.","imageUrl":"https://upload.wikimedia.org/wikipedia/commons/thumb/3/39/Hero_Twins.jpg/440px-Hero_Twins.jpg","themes":"hero-journey,death,rebirth,trickster,ball-game"}},{"type":"Feature","geometry":{"type":"Point","coordinates":[-90.51,14.63]},"properties":{"id":"maya-creation","name":"Maya Creation — Maize People","mythologyId":"maya","type":"creation","era":"MS 1554","eraBucket":"modern","summary":"The creator gods tried three times to make humans. Mud people dissolved, wood people were hollow and soulless. Finally, Xmucane ground white and yellow maize into dough, creating humans with blood and maize flesh. These humans were perfect — too perfect, so the gods clouded their vision to maintain divine authority.","imageUrl":"","themes":"creation,maize,imperfection,divine-authority"}},{"type":"Feature","geometry":{"type":"Point","coordinates":[-90.51,14.63]},"properties":{"id":"maya-flood","name":"The Flood of the Wood People","mythologyId":"maya","type":"cosmology","era":"MS 1554","eraBucket":"modern","summary":"In the second creation, the gods made humans from wood. These people could speak but lacked hearts and minds, showing no gratitude to their creators. The gods sent a great flood of black rain and resin. Animals and even their own tools attacked the wood people. Their descendants became monkeys.","imageUrl":"","themes":"flood,creation,punishment,ingratitude,monkeys"}},{"type":"Feature","geometry":{"type":"Point","coordinates":[-90.37,15.45]},"properties":{"id":"maya-xibalba","name":"The Descent to Xibalba","mythologyId":"maya","type":"afterlife","era":"MS 1554","eraBucket":"modern","summary":"Hun Hunahpu and his twin descended to Xibalba, the underworld, summoned by the Lords of Death who were angered by their ball-playing. They failed the tests — the Dark House, Cold House, Jaguar House, Fire House, and Bat House. They were sacrificed, and Hun Hunahpu's head was placed in a calabash tree.","imageUrl":"","themes":"underworld,trial,death,ball-game,sacrifice"}}]}
