{"type":"FeatureCollection","features":[{"type":"Feature","id":"chichen-itza","properties":{"id":"chichen-itza","name":"Chichén Itzá — El Castillo","mythologyId":"maya","mythologyName":"Maya Mythology","type":"temple","era":"MS 600","eraBucket":"medieval","description":"Pyramid temple of Kukulkan where the feathered serpent's shadow descends the staircase during equinoxes. Contains 365 steps (one per day).","imageUrl":"https://upload.wikimedia.org/wikipedia/commons/thumb/1/10/Chichen_Itza_3.jpg/1280px-Chichen_Itza_3.jpg","country":"Mexico","modernStatus":"UNESCO World Heritage Site, New Seven Wonders of the World","tags":"pyramid,serpent,equinox","color":"#16A085"},"geometry":{"type":"Point","coordinates":[-88.57,20.68]}},{"type":"Feature","id":"tikal","properties":{"id":"tikal","name":"Tikal","mythologyId":"maya","mythologyName":"Maya Mythology","type":"city","era":"MÖ 400","eraBucket":"ancient","description":"Majestic Maya city-state with Temple I rising 47m above the jungle canopy. Royal tombs contained jade masks and offerings to the underworld.","imageUrl":"https://upload.wikimedia.org/wikipedia/commons/thumb/1/10/Chichen_Itza_3.jpg/1280px-Chichen_Itza_3.jpg","country":"Guatemala","modernStatus":"UNESCO World Heritage Site","tags":"pyramid,maya,jungle","color":"#16A085"},"geometry":{"type":"Point","coordinates":[-89.62,17.22]}},{"type":"Feature","id":"underground-rivers","properties":{"id":"underground-rivers","name":"Cenotes of Yucatán","mythologyId":"maya","mythologyName":"Maya Mythology","type":"natural","era":"MÖ 900","eraBucket":"ancient","description":"Sacred natural sinkholes that were portals to Xibalba (the Maya underworld). Bodies and offerings have been found in their depths.","imageUrl":"https://upload.wikimedia.org/wikipedia/commons/thumb/1/10/Chichen_Itza_3.jpg/1280px-Chichen_Itza_3.jpg","country":"Mexico","modernStatus":"Tourist and diving sites, some still sacred","tags":"cenote,underworld,water","color":"#16A085"},"geometry":{"type":"Point","coordinates":[-89,20.66]}},{"type":"Feature","id":"palenque","properties":{"id":"palenque","name":"Palenque — Temple of Inscriptions","mythologyId":"maya","mythologyName":"Maya Mythology","type":"temple","era":"MS 600","eraBucket":"medieval","description":"Contains the tomb of K'inich Janaab Pakal with its famous carved sarcophagus lid showing the king descending into Xibalba.","imageUrl":"https://upload.wikimedia.org/wikipedia/commons/thumb/1/10/Chichen_Itza_3.jpg/1280px-Chichen_Itza_3.jpg","country":"Mexico","modernStatus":"UNESCO World Heritage Site","tags":"tomb,pakal,underworld","color":"#16A085"},"geometry":{"type":"Point","coordinates":[-92.05,17.48]}}]}