{"type":"FeatureCollection","features":[{"type":"Feature","geometry":{"type":"Point","coordinates":[-71.98,-13.52]},"properties":{"id":"inti-deity","name":"Inti","mythologyId":"inca","type":"god","era":"MS 1200","eraBucket":"medieval","description":"Sun god and supreme deity of the Inca. Ancestor of the Sapa Inca. Source of warmth and agricultural abundance.","imageUrl":"https://upload.wikimedia.org/wikipedia/commons/1/1c/C%C3%A1pac_Inti_Raimi.jpg","domains":"sun,warmth,light,agriculture","color":"#2980B9"}},{"type":"Feature","geometry":{"type":"Point","coordinates":[-68.15,-16.5]},"properties":{"id":"pachamama-deity","name":"Pachamama","mythologyId":"inca","type":"goddess","era":"ancient","eraBucket":"ancient","description":"The living earth goddess. She IS the earth — conscious and aware. Demands respect and reciprocal offerings. Still actively worshipped.","imageUrl":"https://upload.wikimedia.org/wikipedia/commons/thumb/e/e8/Santa_Cruz_Pachacuti_Yamqui_Pachamama.jpg/960px-Santa_Cruz_Pachacuti_Yamqui_Pachamama.jpg","domains":"earth,fertility,agriculture,nature","color":"#2980B9"}},{"type":"Feature","geometry":{"type":"Point","coordinates":[-70.02,-15.84]},"properties":{"id":"viracocha-deity","name":"Viracocha","mythologyId":"inca","type":"god","era":"MS 1200","eraBucket":"medieval","description":"Supreme creator god of the Inca. Rose from Lake Titicaca. Created sun, moon, stars, and humanity. Departed over the Pacific.","imageUrl":"","domains":"creation,civilization,sun,storms","color":"#2980B9"}},{"type":"Feature","geometry":{"type":"Point","coordinates":[-71.98,-13.52]},"properties":{"id":"mama-quilla","name":"Mama Quilla","mythologyId":"inca","type":"goddess","era":"MS 1200","eraBucket":"medieval","description":"Moon goddess, wife of Inti. Protector of married women. Her tears were silver. Lunar eclipses were her being attacked by a cosmic serpent.","imageUrl":"","domains":"moon,calendar,fertility,time","color":"#2980B9"}},{"type":"Feature","geometry":{"type":"Point","coordinates":[-68.15,-16.5]},"properties":{"id":"supay","name":"Supay","mythologyId":"inca","type":"god","era":"MS 1200","eraBucket":"medieval","description":"Inca god of the underworld. After Spanish colonization, syncretized with the Devil. Mining communities offer sacrifices (tinka) to Supay for safety underground.","imageUrl":"https://upload.wikimedia.org/wikipedia/commons/2/26/Diablo_pune%C3%B1o.jpg","domains":"underworld,death,mining","color":"#2980B9"}}]}
