{"type":"FeatureCollection","features":[{"type":"Feature","geometry":{"type":"Point","coordinates":[-70.02,-15.84]},"properties":{"id":"inca-viracocha","name":"Viracocha Creates the World","mythologyId":"inca","type":"creation","era":"MS 1200","eraBucket":"medieval","summary":"Viracocha rose from Lake Titicaca and created the sun, moon, and stars. He fashioned humans from stone but was unsatisfied. He caused a great flood, then created humans again from clay, giving each nation its language, songs, and customs. He walked across the Pacific and vanished, promising to return.","imageUrl":"https://upload.wikimedia.org/wikipedia/commons/thumb/b/b8/Inca_Viracocha.jpg/440px-Inca_Viracocha.jpg","themes":"creation,flood,departure,divine-mandate,civilization"}},{"type":"Feature","geometry":{"type":"Point","coordinates":[-71.98,-13.52]},"properties":{"id":"inca-inti-raymi","name":"Inti Raymi — Festival of the Sun","mythologyId":"inca","type":"nature","era":"MS 1400","eraBucket":"medieval","summary":"Each winter solstice, the Inca held Inti Raymi, fearing the sun might not return. The Sapa Inca fasted, then led elaborate ceremonies with sacrifices, music, and feasting. Sacred flames were kindled with mirrors, and chicha (corn beer) was offered. The festival reinforced the Sapa Inca's divine solar lineage.","imageUrl":"https://upload.wikimedia.org/wikipedia/commons/thumb/f/fb/Inti_Raymi.jpg/960px-Inti_Raymi.jpg","themes":"sun,festival,kingship,renewal,sacrifice"}},{"type":"Feature","geometry":{"type":"Point","coordinates":[-68.15,-16.5]},"properties":{"id":"inca-pachamama","name":"Pachamama — Earth Mother","mythologyId":"inca","type":"nature","era":"MÖ 500","eraBucket":"ancient","summary":"Pachamama is the living earth, a nurturing goddess who provides food, water, and shelter. In return, she demands respect and offerings (despachos). She can cause earthquakes when angry. During planting and harvest, chicha and coca leaves are offered. She is not merely a nature goddess — she IS the earth, alive and conscious.","imageUrl":"https://upload.wikimedia.org/wikipedia/commons/thumb/e/e8/Santa_Cruz_Pachacuti_Yamqui_Pachamama.jpg/960px-Santa_Cruz_Pachacuti_Yamqui_Pachamama.jpg","themes":"earth,nature,reciprocity,agriculture,respect"}},{"type":"Feature","geometry":{"type":"Point","coordinates":[-71.98,-13.52]},"properties":{"id":"inca-ayar","name":"The Four Ayar Brothers","mythologyId":"inca","type":"hero","era":"MS 1200","eraBucket":"medieval","summary":"Four brothers and four sisters emerged from caves at Pacaritambo. The strongest brother, Ayar Cachi, was sealed in a cave by his jealous siblings because his sling could crumble mountains. One brother turned to stone as a boundary marker. Ayar Manco (Manco Capac) and Mama Ocllo finally founded Cusco.","imageUrl":"","themes":"foundation,sibling-rivalry,emergence,city-founding,stone"}}]}
