{"type":"FeatureCollection","features":[{"type":"Feature","id":"machu-picchu","properties":{"id":"machu-picchu","name":"Machu Picchu","mythologyId":"inca","mythologyName":"Inca Mythology","type":"temple","era":"MS 1450","eraBucket":"medieval","description":"Inca citadel at 2,430m in the Andes. Intihuatana stone ('hitching post of the sun') aligned with solstices. Sacred landscape architecture.","imageUrl":"https://upload.wikimedia.org/wikipedia/commons/thumb/1/13/Before_Machu_Picchu.jpg/1280px-Before_Machu_Picchu.jpg","country":"Peru","modernStatus":"UNESCO World Heritage Site, New Seven Wonders of the World","tags":"citadel,inca,mountain","color":"#2980B9"},"geometry":{"type":"Point","coordinates":[-72.55,-13.16]}},{"type":"Feature","id":"lake-titicaca","properties":{"id":"lake-titicaca","name":"Lake Titicaca — Birthplace of the Sun","mythologyId":"inca","mythologyName":"Inca Mythology","type":"natural","era":"ancient","eraBucket":"ancient","description":"The highest navigable lake (3,812m). Viracocha rose from its depths to create the sun, moon, and first humans on the Island of the Sun.","imageUrl":"https://upload.wikimedia.org/wikipedia/commons/thumb/1/13/Before_Machu_Picchu.jpg/1280px-Before_Machu_Picchu.jpg","country":"Peru/Bolivia","modernStatus":"Active pilgrimage and tourist site","tags":"lake,creation,sun","color":"#2980B9"},"geometry":{"type":"Point","coordinates":[-70.02,-15.84]}},{"type":"Feature","id":"cusco","properties":{"id":"cusco","name":"Cusco — Navel of the World","mythologyId":"inca","mythologyName":"Inca Mythology","type":"city","era":"MS 1100","eraBucket":"medieval","description":"Inca capital designed in the shape of a puma. Four roads led to the four quarters of the empire. Coricancha (Temple of the Sun) was covered in gold.","imageUrl":"https://upload.wikimedia.org/wikipedia/commons/thumb/1/13/Before_Machu_Picchu.jpg/1280px-Before_Machu_Picchu.jpg","country":"Peru","modernStatus":"UNESCO World Heritage Site, vibrant living city","tags":"city,navel,puma","color":"#2980B9"},"geometry":{"type":"Point","coordinates":[-71.98,-13.52]}},{"type":"Feature","id":"nazca-lines","properties":{"id":"nazca-lines","name":"Nazca Lines","mythologyId":"inca","mythologyName":"Inca Mythology","type":"natural","era":"MÖ 500","eraBucket":"ancient","description":"Massive geoglyphs visible only from the air — hummingbirds, monkeys, spiders — created by the Nazca culture. Aligned with water sources and celestial events.","imageUrl":"https://upload.wikimedia.org/wikipedia/commons/thumb/1/13/Before_Machu_Picchu.jpg/1280px-Before_Machu_Picchu.jpg","country":"Peru","modernStatus":"UNESCO World Heritage Site","tags":"geoglyphs,mystery,aerial","color":"#2980B9"},"geometry":{"type":"Point","coordinates":[-75.13,-14.74]}},{"type":"Feature","id":"tiwanaku","properties":{"id":"tiwanaku","name":"Tiwanaku","mythologyId":"inca","mythologyName":"Inca Mythology","type":"city","era":"MÖ 300","eraBucket":"ancient","description":"Pre-Inca civilization's capital near Lake Titicaca. Gateway of the Sun shows Viracocha surrounded by attendant figures.","imageUrl":"https://upload.wikimedia.org/wikipedia/commons/thumb/1/13/Before_Machu_Picchu.jpg/1280px-Before_Machu_Picchu.jpg","country":"Bolivia","modernStatus":"UNESCO World Heritage Site","tags":"gateway,viracocha,pre-inca","color":"#2980B9"},"geometry":{"type":"Point","coordinates":[-68.67,-16.55]}}]}