{"type":"FeatureCollection","features":[{"type":"Feature","id":"rainbow-serpent","properties":{"id":"rainbow-serpent","name":"Rainbow Serpent","mythologyId":"aboriginal","type":"spirit","era":"60,000+ years ago","eraBucket":"ancient","description":"The great creative spirit of Aboriginal Australian mythology. Shaped the landscape, created rivers and valleys. Enforces law and punishes transgressors.","imageUrl":"https://upload.wikimedia.org/wikipedia/commons/thumb/0/0e/Uluru%2C_helicopter_view%2C_cropped.jpg/1280px-Uluru%2C_helicopter_view%2C_cropped.jpg","domains":"creation,water,rain,law","color":"#FF5722"},"geometry":{"type":"Point","coordinates":[130.84,-12.46]}}]}