{"type":"FeatureCollection","features":[{"type":"Feature","id":"dreamtime-rainbow-serpent","properties":{"id":"dreamtime-rainbow-serpent","name":"The Rainbow Serpent","mythologyId":"aboriginal","type":"creation","era":"60,000+ years ago","eraBucket":"ancient","summary":"In the Dreamtime, the Rainbow Serpent slithered across the flat land, creating rivers, valleys, and ridges with its massive body. It established the laws of behavior and consequence. Those who obey prosper; those who break the law are turned to stone. It still sleeps in waterways, maintaining the natural order.","imageUrl":"https://upload.wikimedia.org/wikipedia/commons/thumb/0/0e/Uluru%2C_helicopter_view%2C_cropped.jpg/1280px-Uluru%2C_helicopter_view%2C_cropped.jpg","themes":"creation,land,law,water,cycle"},"geometry":{"type":"Point","coordinates":[130.84,-12.46]}},{"type":"Feature","id":"songline","properties":{"id":"songline","name":"The Songlines — Walking the Dreaming","mythologyId":"aboriginal","type":"cosmology","era":"60,000+ years ago","eraBucket":"ancient","summary":"During the Dreaming, Ancestor Beings walked across Australia singing the world into existence. Each feature — rock, waterhole, hill — was created by their songs. Aboriginal people maintain these songlines as navigational paths, spiritual practices, and legal codes. Walking a songline connects past creation with present reality.","imageUrl":"https://upload.wikimedia.org/wikipedia/commons/thumb/0/0e/Uluru%2C_helicopter_view%2C_cropped.jpg/1280px-Uluru%2C_helicopter_view%2C_cropped.jpg","themes":"creation,song,walking,law,connection"},"geometry":{"type":"Point","coordinates":[133.87,-23.7]}},{"type":"Feature","id":"aboriginal-fire","properties":{"id":"aboriginal-fire","name":"How Fire Was Stolen (Aboriginal)","mythologyId":"aboriginal","type":"trickster","era":"ancient","eraBucket":"ancient","summary":"In various Aboriginal traditions, fire was guarded by selfish keepers. Crow (or other clever animals) devised schemes to steal it for the people. In one version, Crow tricked the fire-keepers into opening their sacred box, grabbed a burning stick, and flew away, scorching his feathers permanently black.","imageUrl":"https://upload.wikimedia.org/wikipedia/commons/thumb/0/0e/Uluru%2C_helicopter_view%2C_cropped.jpg/1280px-Uluru%2C_helicopter_view%2C_cropped.jpg","themes":"fire,trickster,theft,sharing,transformation"},"geometry":{"type":"Point","coordinates":[151.21,-33.87]}},{"type":"Feature","id":"aborig-seven-sisters","properties":{"id":"aborig-seven-sisters","name":"The Seven Sisters (Pleiades)","mythologyId":"aboriginal","type":"cosmology","era":"40,000+ years ago","eraBucket":"ancient","summary":"Across Aboriginal Australia, the Pleiades are seven sisters fleeing a persistent hunter (Orion). They travel across the land, creating landmarks as they go. When he gets too close, they fly into the sky to escape. The hunter follows, forever chasing them across the heavens. The story maps onto real geography and star movements.","imageUrl":"https://upload.wikimedia.org/wikipedia/commons/thumb/0/0e/Uluru%2C_helicopter_view%2C_cropped.jpg/1280px-Uluru%2C_helicopter_view%2C_cropped.jpg","themes":"stars,pursuit,escape,landscape,astronomy"},"geometry":{"type":"Point","coordinates":[128,-26]}},{"type":"Feature","id":"aboriginal-crow-fire","properties":{"id":"aboriginal-crow-fire","name":"Crow and the Seven Emu Women","mythologyId":"aboriginal","type":"trickster","era":"ancient","eraBucket":"ancient","summary":"Crow was clever but hungry. He discovered the Emu Women had fire but wouldn't share. He prepared a fake wound full of ants and pretended to be injured. When the women came to help, he tricked them into gathering sticks. He stole their hidden firestick and flew away, but dropped embers across creation, giving fire to all.","imageUrl":"https://upload.wikimedia.org/wikipedia/commons/thumb/0/0e/Uluru%2C_helicopter_view%2C_cropped.jpg/1280px-Uluru%2C_helicopter_view%2C_cropped.jpg","themes":"fire,trickery,sharing,generosity,origin"},"geometry":{"type":"Point","coordinates":[144.96,-37.81]}}]}