{"type":"FeatureCollection","features":[{"type":"Feature","geometry":{"type":"Point","coordinates":[130.73,-25.3]},"properties":{"id":"kata-tjuta","name":"Kata Tjuta (The Olgas)","mythologyId":"aboriginal","mythologyName":"Aboriginal Australian Mythology","type":"natural","era":"ancient","eraBucket":"ancient","description":"36 domed rock formations sacred to men's initiation ceremonies. Many stories are restricted — only initiated men may know the full Dreaming.","imageUrl":"https://upload.wikimedia.org/wikipedia/commons/3/3a/Aerial_Kata_Tjuta_olgas4799.jpg","country":"Australia","modernStatus":"UNESCO World Heritage Site, parts restricted to public","tags":"domes,initiation,restricted","color":"#FF5722"}},{"type":"Feature","geometry":{"type":"Point","coordinates":[131.04,-25.34]},"properties":{"id":"uluru","name":"Uluru (Ayers Rock)","mythologyId":"aboriginal","mythologyName":"Aboriginal Australian Mythology","type":"natural","era":"60,000+ years","eraBucket":"ancient","description":"Sacred sandstone monolith central to Anangu Dreaming. Every crack, cave, and waterhole records ancestor stories. Rising 348m from the desert.","imageUrl":"https://upload.wikimedia.org/wikipedia/commons/thumb/a/a8/ULURU.jpg/960px-ULURU.jpg","country":"Australia","modernStatus":"UNESCO World Heritage Site, climbing banned since 2019","tags":"monolith,dreamtime,oldest","color":"#FF5722"}}]}
