{"type":"FeatureCollection","features":[{"type":"Feature","geometry":{"type":"Point","coordinates":[35,49]},"properties":{"id":"dyeus","name":"Dyeus","mythologyId":"proto-indo-european","type":"god","era":"Prehistory","eraBucket":"ancient","description":"Reconstructed Proto-Indo-European sky-father figure inferred from linguistic and comparative myth evidence.","imageUrl":"","domains":"sky,daylight,sovereignty","color":"#6c5c95"}},{"type":"Feature","geometry":{"type":"Point","coordinates":[18,52]},"properties":{"id":"tiwaz","name":"Tiwaz","mythologyId":"proto-indo-european","type":"god","era":"Comparative reconstruction","eraBucket":"ancient","description":"Comparative form linked to later Germanic Tyr traditions in Indo-European reconstructions.","imageUrl":"https://upload.wikimedia.org/wikipedia/commons/5/53/Tyr_and_Fenrir-John_Bauer_%28cropped%29.jpg","domains":"law,oath,war","color":"#6c5c95"}}]}
