{"type":"FeatureCollection","features":[{"type":"Feature","id":"baal-deity","properties":{"id":"baal-deity","name":"Baal","mythologyId":"phoenician","type":"god","era":"MÖ 1400","eraBucket":"ancient","description":"Storm god of the Canaanites. Defeated Sea (Yamm) and Death (Mot). Central to Levantine agriculture and kingship.","imageUrl":"https://upload.wikimedia.org/wikipedia/commons/thumb/b/b0/Baalbek_-_temple_of_Bacchus.jpg/1280px-Baalbek_-_temple_of_Bacchus.jpg","domains":"storm,rain,fertility,kingship","color":"#FF7043"},"geometry":{"type":"Point","coordinates":[35.94,35.6]}},{"type":"Feature","id":"el-deity","properties":{"id":"el-deity","name":"El","mythologyId":"phoenician","type":"god","era":"MÖ 3000","eraBucket":"ancient","description":"Father of the gods in Canaanite religion. Wise and ancient. Presided over the divine council. His name became the Hebrew word for God.","imageUrl":"https://upload.wikimedia.org/wikipedia/commons/thumb/b/b0/Baalbek_-_temple_of_Bacchus.jpg/1280px-Baalbek_-_temple_of_Bacchus.jpg","domains":"supreme-creator,father,wisdom","color":"#FF7043"},"geometry":{"type":"Point","coordinates":[35.94,35.6]}},{"type":"Feature","id":"astarte","properties":{"id":"astarte","name":"Astarte","mythologyId":"phoenician","type":"goddess","era":"MÖ 1400","eraBucket":"ancient","description":"Great goddess of the Phoenicians. Queen of Heaven. Combined love and war aspects. Worshipped across the Mediterranean through Phoenician colonies.","imageUrl":"https://upload.wikimedia.org/wikipedia/commons/thumb/b/b0/Baalbek_-_temple_of_Bacchus.jpg/1280px-Baalbek_-_temple_of_Bacchus.jpg","domains":"love,war,fertility,sea","color":"#FF7043"},"geometry":{"type":"Point","coordinates":[35.5,33.89]}},{"type":"Feature","id":"amathaunta","properties":{"id":"amathaunta","name":"Eshmun","mythologyId":"phoenician","type":"god","era":"MÖ 1200","eraBucket":"ancient","description":"Phoenician god of healing. Died and was resurrected. Major cult center at Sidon. Later identified with Greek Asclepius.","imageUrl":"https://upload.wikimedia.org/wikipedia/commons/thumb/b/b0/Baalbek_-_temple_of_Bacchus.jpg/1280px-Baalbek_-_temple_of_Bacchus.jpg","domains":"healing,rebirth,vegetation","color":"#FF7043"},"geometry":{"type":"Point","coordinates":[35.4,33.57]}}]}