{"type":"FeatureCollection","features":[{"type":"Feature","geometry":{"type":"Point","coordinates":[35.94,35.6]},"properties":{"id":"baal-cycle","name":"Baal Cycle — Storm vs Sea vs Death","mythologyId":"phoenician","type":"cosmology","era":"MÖ 1400","eraBucket":"ancient","summary":"Baal, storm god of the Canaanites, defeated Yamm (Sea) to establish order. He then confronted Mot (Death) and was killed, descending to the underworld. His sister-consort Anat defeated Mot, and Baal was resurrected. The cycle repeats with the seasons, ensuring agriculture and cosmic balance.","imageUrl":"https://upload.wikimedia.org/wikipedia/commons/thumb/d/d1/P1180250_Louvre_Langue_ougaritique_Tablette_poeme_mythologique_AO16641_et_16642_rwk.jpg/960px-P1180250_Louvre_Langue_ougaritique_Tablette_poeme_mythologique_AO16641_et_16642_rwk.jpg","themes":"cosmic-battle,death,resurrection,seasons,storm"}},{"type":"Feature","geometry":{"type":"Point","coordinates":[35.5,33.89]},"properties":{"id":"phoenician-creation","name":"Phoenician Cosmogony","mythologyId":"phoenician","type":"creation","era":"MÖ 1200","eraBucket":"ancient","summary":"From primordial dark wind and chaos, Mot (a cosmic egg of mud) cracked open. Sun, moon, and stars emerged. Animals and then humans appeared on the shores of Phoenicia. El, the father of gods, established divine order. The craftsman god Kothar-wa-Khasis fashioned divine tools and temples.","imageUrl":"","themes":"creation,cosmic-egg,emergence,divine-craftsmanship"}}]}
