{"type":"FeatureCollection","features":[{"type":"Feature","id":"baalbek","properties":{"id":"baalbek","name":"Baalbek","mythologyId":"phoenician","mythologyName":"Phoenician / Canaanite Mythology","type":"temple","era":"MÖ 2500","eraBucket":"ancient","description":"Temple complex with the largest stone blocks ever quarried (1,000+ tons). Temple of Jupiter Baal ranks among the grandest Roman temples.","imageUrl":"https://upload.wikimedia.org/wikipedia/commons/thumb/b/b0/Baalbek_-_temple_of_Bacchus.jpg/1280px-Baalbek_-_temple_of_Bacchus.jpg","country":"Lebanon","modernStatus":"UNESCO World Heritage Site","tags":"temple,megaliths,roman","color":"#FF7043"},"geometry":{"type":"Point","coordinates":[36.21,34.01]}},{"type":"Feature","id":"byblos","properties":{"id":"byblos","name":"Byblos (Jbeil)","mythologyId":"phoenician","mythologyName":"Phoenician / Canaanite Mythology","type":"city","era":"MÖ 5000","eraBucket":"ancient","description":"One of the world's oldest continuously inhabited cities. Sacred to Astarte and Adonis. The word 'Bible' derives from Byblos (Greek for 'book').","imageUrl":"https://upload.wikimedia.org/wikipedia/commons/thumb/b/b0/Baalbek_-_temple_of_Bacchus.jpg/1280px-Baalbek_-_temple_of_Bacchus.jpg","country":"Lebanon","modernStatus":"UNESCO World Heritage Site","tags":"city,alphabet,oldest","color":"#FF7043"},"geometry":{"type":"Point","coordinates":[35.65,34.12]}},{"type":"Feature","id":"petra","properties":{"id":"petra","name":"Petra — City of the Nabataeans","mythologyId":"phoenician","mythologyName":"Phoenician / Canaanite Mythology","type":"city","era":"MÖ 300","eraBucket":"ancient","description":"City carved from rose-red sandstone by the Nabataeans. Al-Khazneh (Treasury) may be a royal tomb. High Place of Sacrifice offers mountain-top rituals.","imageUrl":"https://upload.wikimedia.org/wikipedia/commons/thumb/b/b0/Baalbek_-_temple_of_Bacchus.jpg/1280px-Baalbek_-_temple_of_Bacchus.jpg","country":"Jordan","modernStatus":"UNESCO World Heritage Site, New Seven Wonders of the World","tags":"rock-cut,treasury,nabataean","color":"#FF7043"},"geometry":{"type":"Point","coordinates":[35.44,30.33]}}]}