{"type":"FeatureCollection","features":[{"type":"Feature","id":"apedemak","properties":{"id":"apedemak","name":"Apedemak","mythologyId":"nubian","type":"god","era":"MÖ 700","eraBucket":"ancient","description":"Lion-headed war god of Kush. Supreme warrior deity unique to Nubian religion. Depicted with three heads or four arms. Worshipped at Naqa and Musawwarat.","imageUrl":"https://upload.wikimedia.org/wikipedia/commons/thumb/d/d3/Nubian_pyramids_2.jpg/1280px-Nubian_pyramids_2.jpg","domains":"war,sun,lions","color":"#795548"},"geometry":{"type":"Point","coordinates":[33.74,16.83]}},{"type":"Feature","id":"amun","properties":{"id":"amun","name":"Amun of Napata","mythologyId":"nubian","type":"god","era":"MÖ 1500","eraBucket":"ancient","description":"Nubian version of Amun, centered at Jebel Barkal. Legitimized Kushite kings as true pharaohs. His oracle at Napata influenced politics for centuries.","imageUrl":"https://upload.wikimedia.org/wikipedia/commons/thumb/d/d3/Nubian_pyramids_2.jpg/1280px-Nubian_pyramids_2.jpg","domains":"creation,kingship,wind,hidden-power","color":"#795548"},"geometry":{"type":"Point","coordinates":[31.82,18.53]}},{"type":"Feature","id":"yemaya-nubian","properties":{"id":"yemaya-nubian","name":"Amesemi","mythologyId":"nubian","type":"goddess","era":"MÖ 300","eraBucket":"ancient","description":"Consort of Apedemak and protector of Kushite royalty. Depicted with falcon headdress. One of the few uniquely Nubian goddesses without Egyptian origin.","imageUrl":"https://upload.wikimedia.org/wikipedia/commons/thumb/d/d3/Nubian_pyramids_2.jpg/1280px-Nubian_pyramids_2.jpg","domains":"protection,queenship,divine-consort","color":"#795548"},"geometry":{"type":"Point","coordinates":[33.73,16.93]}}]}