{"type":"FeatureCollection","features":[{"type":"Feature","id":"nubian-apedemak","properties":{"id":"nubian-apedemak","name":"Apedemak the Lion God","mythologyId":"nubian","type":"war","era":"MÖ 300","eraBucket":"ancient","summary":"Apedemak, the lion-headed warrior god of Kush, was worshipped as the supreme war deity. His temple at Naqa features him dispensing prisoners to the Meroitic king. The warrior queen Amanirenas invoked Apedemak when she led Kushite armies against Roman Egypt, famously losing an eye in battle but winning favorable terms.","imageUrl":"https://upload.wikimedia.org/wikipedia/commons/thumb/d/d3/Nubian_pyramids_2.jpg/1280px-Nubian_pyramids_2.jpg","themes":"war,lion,queenship,resistance,divine-power"},"geometry":{"type":"Point","coordinates":[33.74,16.83]}},{"type":"Feature","id":"nubian-creation","properties":{"id":"nubian-creation","name":"Jebel Barkal — Sacred Mountain of Creation","mythologyId":"nubian","type":"creation","era":"MÖ 1500","eraBucket":"ancient","summary":"The Nubians believed Jebel Barkal was the primordial mound of creation where the god Amun dwelt inside the mountain. A natural rock pinnacle resembled a uraeus (royal cobra), confirming divine presence. This sacred geography legitimized Kushite kings as true pharaohs, heirs to the original creation.","imageUrl":"https://upload.wikimedia.org/wikipedia/commons/thumb/d/d3/Nubian_pyramids_2.jpg/1280px-Nubian_pyramids_2.jpg","themes":"creation,mountain,sacred-geography,kingship,divine-presence"},"geometry":{"type":"Point","coordinates":[31.82,18.53]}},{"type":"Feature","id":"nubian-kandake","properties":{"id":"nubian-kandake","name":"The Warrior Queens (Kandakes)","mythologyId":"nubian","type":"hero","era":"MÖ 200","eraBucket":"ancient","summary":"The Kandakes (warrior queens) of Kush were both political rulers and living goddesses. Amanirenas led armies against Augustus's Rome, blinding herself in battle. Amanishakheto accumulated enormous treasure. They ruled with divine authority from Apedemak, building pyramids and temples that rivaled Egypt's achievements.","imageUrl":"https://upload.wikimedia.org/wikipedia/commons/thumb/d/d3/Nubian_pyramids_2.jpg/1280px-Nubian_pyramids_2.jpg","themes":"queenship,war,divine-authority,resistance,power"},"geometry":{"type":"Point","coordinates":[33.73,16.93]}}]}