{"type":"FeatureCollection","features":[{"type":"Feature","geometry":{"type":"Point","coordinates":[31.82,18.53]},"properties":{"id":"jebel-barkal","name":"Jebel Barkal","mythologyId":"nubian","mythologyName":"Nubian / Kushite Mythology","type":"mountain","era":"MÖ 1500","eraBucket":"ancient","description":"Sacred mountain of Kush where Amun was believed to dwell. A natural rock pinnacle resembles the uraeus (royal cobra), confirming divine presence.","imageUrl":"https://upload.wikimedia.org/wikipedia/commons/thumb/4/4e/Gebel_Barkal.jpg/960px-Gebel_Barkal.jpg","country":"Sudan","modernStatus":"UNESCO World Heritage Site","tags":"mountain,nubian,amun","color":"#795548"}},{"type":"Feature","geometry":{"type":"Point","coordinates":[33.75,16.94]},"properties":{"id":"meroe-pyramids","name":"Pyramids of Meroë","mythologyId":"nubian","mythologyName":"Nubian / Kushite Mythology","type":"temple","era":"MÖ 700","eraBucket":"ancient","description":"Over 200 pyramids of the Kushite kings and queens, smaller but steeper than Egyptian ones. Each housed a burial chamber with rich grave goods.","imageUrl":"https://upload.wikimedia.org/wikipedia/commons/e/e6/NubianMeroePyramids30sep2005%282%29.jpg","country":"Sudan","modernStatus":"UNESCO World Heritage Site","tags":"pyramids,kush,queens","color":"#795548"}}]}
