{"type":"FeatureCollection","features":[{"type":"Feature","id":"avalokiteshvara-deity","properties":{"id":"avalokiteshvara-deity","name":"Avalokiteshvara","mythologyId":"buddhist","type":"spirit","era":"MÖ 200","eraBucket":"ancient","description":"Bodhisattva of infinite compassion. Vowed not to enter nirvana until all beings are free from suffering. Thousand arms to help all.","imageUrl":"https://upload.wikimedia.org/wikipedia/commons/thumb/f/fd/Boudhanath-2016.jpg/1280px-Boudhanath-2016.jpg","domains":"compassion,mercy,suffering","color":"#F1C40F"},"geometry":{"type":"Point","coordinates":[91.17,29.65]}},{"type":"Feature","id":"buddha","properties":{"id":"buddha","name":"Siddhartha Gautama (Buddha)","mythologyId":"buddhist","type":"spirit","era":"MÖ 500","eraBucket":"ancient","description":"The historical Buddha, born a prince. Achieved enlightenment under the Bodhi tree. Not a god but a fully awakened being. Taught the Middle Way.","imageUrl":"https://upload.wikimedia.org/wikipedia/commons/thumb/f/fd/Boudhanath-2016.jpg/1280px-Boudhanath-2016.jpg","domains":"enlightenment,compassion,wisdom,liberation","color":"#F1C40F"},"geometry":{"type":"Point","coordinates":[83.28,27.47]}},{"type":"Feature","id":"mara-deity","properties":{"id":"mara-deity","name":"Mara","mythologyId":"buddhist","type":"spirit","era":"MÖ 500","eraBucket":"ancient","description":"Lord of illusion and death. Tempted the Buddha before enlightenment. Represents the internal obstacles to awakening — desire, fear, and ego.","imageUrl":"https://upload.wikimedia.org/wikipedia/commons/thumb/f/fd/Boudhanath-2016.jpg/1280px-Boudhanath-2016.jpg","domains":"illusion,desire,death,temptation","color":"#F1C40F"},"geometry":{"type":"Point","coordinates":[84.99,24.7]}},{"type":"Feature","id":"maitreya","properties":{"id":"maitreya","name":"Maitreya","mythologyId":"buddhist","type":"spirit","era":"MÖ 300","eraBucket":"ancient","description":"The future Buddha who will appear when dharma has been forgotten. Currently resides in Tushita heaven. Represents eternal hope for renewal.","imageUrl":"https://upload.wikimedia.org/wikipedia/commons/thumb/f/fd/Boudhanath-2016.jpg/1280px-Boudhanath-2016.jpg","domains":"future,hope,compassion,teaching","color":"#F1C40F"},"geometry":{"type":"Point","coordinates":[84.99,24.7]}},{"type":"Feature","id":"green-tara","properties":{"id":"green-tara","name":"Green Tara","mythologyId":"buddhist","type":"goddess","era":"MS 400","eraBucket":"ancient","description":"Female bodhisattva of swift compassionate action. Born from Avalokiteshvara's tears. Her right foot is extended, ready to spring into action to help.","imageUrl":"https://upload.wikimedia.org/wikipedia/commons/thumb/f/fd/Boudhanath-2016.jpg/1280px-Boudhanath-2016.jpg","domains":"compassion,protection,speed,action","color":"#F1C40F"},"geometry":{"type":"Point","coordinates":[91.17,29.65]}},{"type":"Feature","id":"yamantaka","properties":{"id":"yamantaka","name":"Yamantaka","mythologyId":"buddhist","type":"spirit","era":"MS 700","eraBucket":"medieval","description":"Wrathful form of Manjushri who conquered the death god Yama. Bull-headed with multiple faces and arms. Represents wisdom conquering death itself.","imageUrl":"https://upload.wikimedia.org/wikipedia/commons/thumb/f/fd/Boudhanath-2016.jpg/1280px-Boudhanath-2016.jpg","domains":"death-destroyer,wrathful-wisdom","color":"#F1C40F"},"geometry":{"type":"Point","coordinates":[91.17,29.65]}}]}