{"type":"FeatureCollection","features":[{"type":"Feature","geometry":{"type":"Point","coordinates":[84.99,24.7]},"properties":{"id":"buddhist-jataka","name":"Jataka Tales — Buddha's Past Lives","mythologyId":"buddhist","type":"transformation","era":"MÖ 300","eraBucket":"ancient","summary":"The Jataka tales recount over 500 previous lives of the Buddha as he accumulated merit toward enlightenment. In various incarnations as animals, kings, and ordinary people, the Bodhisattva demonstrated compassion, generosity, and wisdom. The stories teach moral lessons through allegory and adventure.","imageUrl":"https://upload.wikimedia.org/wikipedia/commons/thumb/4/4c/Southern_India%2C_Andhra_Pradesh%2C_possibly_Amaravati%2C_Satavahana_period_-_Buddha%27s_Previous_Life_as_a_Woodpecker-_Javasakunda_Jataka_-_1970.350_-_Cleveland_Museum_of_Art_%28cropped%29.tif/lossy-page1-960px-thumbnail.tif.jpg","themes":"compassion,transformation,karma,wisdom,sacrifice"}},{"type":"Feature","geometry":{"type":"Point","coordinates":[84.99,24.7]},"properties":{"id":"buddhist-mara","name":"Buddha's Enlightenment — Temptation by Mara","mythologyId":"buddhist","type":"transformation","era":"MÖ 500","eraBucket":"ancient","summary":"Under the Bodhi tree, Siddhartha meditated for 49 days seeking enlightenment. Mara, lord of illusion, attacked him with armies, tempted him with beautiful daughters, and challenged his right to awaken. Siddhartha touched the earth, calling it as witness. Mara fled, and Siddhartha became the Buddha — the Awakened One.","imageUrl":"","themes":"enlightenment,temptation,meditation,truth,awakening"}},{"type":"Feature","geometry":{"type":"Point","coordinates":[91.17,29.65]},"properties":{"id":"buddhist-avalokiteshvara","name":"Avalokiteshvara and the Thousand Arms","mythologyId":"buddhist","type":"transformation","era":"MS 200","eraBucket":"ancient","summary":"The bodhisattva Avalokiteshvara vowed to free all beings from suffering. Looking upon the world, seeing endless pain, his head split into pieces from grief. Amitabha restored him with eleven heads to hear all cries and a thousand arms to reach all who suffer. In East Asia, Avalokiteshvara became Guanyin/Kannon.","imageUrl":"","themes":"compassion,transformation,suffering,vow,infinite-reach"}}]}
