{"type":"FeatureCollection","features":[{"type":"Feature","geometry":{"type":"Point","coordinates":[80.5,6.81]},"properties":{"id":"sri-pada","name":"Adam's Peak (Sri Pada)","mythologyId":"buddhist","mythologyName":"Buddhist Mythology","type":"mountain","era":"ancient","eraBucket":"ancient","description":"Mountain with a rock formation resembling a footprint — claimed by Buddhists (Buddha), Hindus (Shiva), Muslims (Adam), and Christians (St. Thomas).","imageUrl":"https://upload.wikimedia.org/wikipedia/commons/thumb/a/a2/Sri_Pada.JPG/960px-Sri_Pada.JPG","country":"Sri Lanka","modernStatus":"Active pilgrimage site for all four religions","tags":"footprint,four-religions,pilgrimage","color":"#F1C40F"}},{"type":"Feature","geometry":{"type":"Point","coordinates":[94.86,21.17]},"properties":{"id":"bagan","name":"Bagan — City of Temples","mythologyId":"buddhist","mythologyName":"Buddhist Mythology","type":"city","era":"MS 849","eraBucket":"medieval","description":"Over 2,200 surviving temples and pagodas across the Bagan plain. At its peak, over 10,000 Buddhist structures covered this landscape.","imageUrl":"https://upload.wikimedia.org/wikipedia/commons/thumb/8/89/Bagan%2C_Burma.jpg/960px-Bagan%2C_Burma.jpg","country":"Myanmar","modernStatus":"UNESCO World Heritage Site","tags":"temples,pagodas,plain","color":"#F1C40F"}},{"type":"Feature","geometry":{"type":"Point","coordinates":[84.99,24.7]},"properties":{"id":"bodhi-tree","name":"Bodhi Tree — Bodhgaya","mythologyId":"buddhist","mythologyName":"Buddhist Mythology","type":"natural","era":"MÖ 528","eraBucket":"ancient","description":"The sacred fig tree under which Siddhartha Gautama achieved enlightenment. The current tree is a descendant of the original.","imageUrl":"https://upload.wikimedia.org/wikipedia/commons/thumb/e/e4/Bodhgaya_3639641913_f4c5f73689_t.jpg/960px-Bodhgaya_3639641913_f4c5f73689_t.jpg","country":"India","modernStatus":"UNESCO World Heritage Site, active pilgrimage center","tags":"tree,enlightenment,buddhism","color":"#F1C40F"}},{"type":"Feature","geometry":{"type":"Point","coordinates":[110.2,-7.61]},"properties":{"id":"borobudur","name":"Borobudur","mythologyId":"buddhist","mythologyName":"Buddhist Mythology","type":"temple","era":"MS 800","eraBucket":"medieval","description":"World's largest Buddhist temple — a massive mandala in stone with 504 Buddha statues and 2,672 relief panels telling the journey to enlightenment.","imageUrl":"https://upload.wikimedia.org/wikipedia/commons/thumb/2/25/Pradaksina.jpg/960px-Pradaksina.jpg","country":"Indonesia","modernStatus":"UNESCO World Heritage Site, New Seven Wonders candidate","tags":"mandala,largest,reliefs","color":"#F1C40F"}},{"type":"Feature","geometry":{"type":"Point","coordinates":[85.36,27.72]},"properties":{"id":"boudhanath","name":"Boudhanath Stupa","mythologyId":"buddhist","mythologyName":"Buddhist Mythology","type":"temple","era":"MS 600","eraBucket":"medieval","description":"One of the largest stupas in the world. Its all-seeing eyes of Buddha gaze in all four directions. Center of Tibetan Buddhism in Nepal.","imageUrl":"","country":"Nepal","modernStatus":"UNESCO World Heritage Site, active Buddhist center","tags":"stupa,eyes,tibetan","color":"#F1C40F"}},{"type":"Feature","geometry":{"type":"Point","coordinates":[83.28,27.47]},"properties":{"id":"lumbini","name":"Lumbini — Birthplace of Buddha","mythologyId":"buddhist","mythologyName":"Buddhist Mythology","type":"natural","era":"MÖ 563","eraBucket":"ancient","description":"Garden where Queen Maya gave birth to Siddhartha Gautama. Ashoka's pillar (249 BCE) marks the exact spot of Buddha's birth.","imageUrl":"https://upload.wikimedia.org/wikipedia/commons/thumb/1/18/BRP_Lumbini_Mayadevi_temple.jpg/960px-BRP_Lumbini_Mayadevi_temple.jpg","country":"Nepal","modernStatus":"UNESCO World Heritage Site","tags":"birthplace,garden,ashoka","color":"#F1C40F"}},{"type":"Feature","geometry":{"type":"Point","coordinates":[91.12,29.66]},"properties":{"id":"potala-palace","name":"Potala Palace","mythologyId":"buddhist","mythologyName":"Buddhist Mythology","type":"temple","era":"MS 637","eraBucket":"medieval","description":"Former winter residence of the Dalai Lama in Lhasa. 1,000 rooms rising 117m on the Red Hill. Seat of Tibetan Buddhist spiritual authority.","imageUrl":"https://upload.wikimedia.org/wikipedia/commons/thumb/b/b6/Potala_Palace_HQ.jpg/960px-Potala_Palace_HQ.jpg","country":"China (Tibet)","modernStatus":"UNESCO World Heritage Site, museum","tags":"palace,dalai-lama,compassion","color":"#F1C40F"}},{"type":"Feature","geometry":{"type":"Point","coordinates":[83.02,25.38]},"properties":{"id":"sarnath","name":"Sarnath — First Sermon","mythologyId":"buddhist","mythologyName":"Buddhist Mythology","type":"temple","era":"MÖ 528","eraBucket":"ancient","description":"Where the Buddha delivered his first sermon, 'Setting the Wheel of Dharma in Motion,' to five ascetics. Ashoka's lion capital stands here.","imageUrl":"https://upload.wikimedia.org/wikipedia/commons/thumb/d/d9/Ancient_Buddhist_monasteries_near_Dhamekh_Stupa_Monument_Site%2C_Sarnath.jpg/960px-Ancient_Buddhist_monasteries_near_Dhamekh_Stupa_Monument_Site%2C_Sarnath.jpg","country":"India","modernStatus":"Archaeological site, pilgrimage center","tags":"sermon,dharma,ashoka","color":"#F1C40F"}},{"type":"Feature","geometry":{"type":"Point","coordinates":[96.15,16.87]},"properties":{"id":"shwedagon","name":"Shwedagon Pagoda","mythologyId":"buddhist","mythologyName":"Buddhist Mythology","type":"temple","era":"MÖ 600","eraBucket":"ancient","description":"Golden stupa in Yangon rising 99m, covered in 60 tons of gold leaf and topped with thousands of diamonds. Contains relics of four Buddhas.","imageUrl":"https://upload.wikimedia.org/wikipedia/commons/thumb/c/c4/Shwedagon_Pagoda_2017.jpg/960px-Shwedagon_Pagoda_2017.jpg","country":"Myanmar","modernStatus":"Active pagoda, most sacred Buddhist site in Myanmar","tags":"golden,stupa,relics","color":"#F1C40F"}},{"type":"Feature","geometry":{"type":"Point","coordinates":[80.76,7.96]},"properties":{"id":"sigiriya","name":"Sigiriya — Lion Rock","mythologyId":"buddhist","mythologyName":"Buddhist Mythology","type":"temple","era":"MS 477","eraBucket":"ancient","description":"Ancient rock fortress rising 200m with frescoes of celestial maidens, mirror wall, and lion gateway. Built by King Kashyapa as his citadel.","imageUrl":"https://upload.wikimedia.org/wikipedia/commons/thumb/e/e6/Sigiriya_%28141688197%29.jpeg/960px-Sigiriya_%28141688197%29.jpeg","country":"Sri Lanka","modernStatus":"UNESCO World Heritage Site","tags":"fortress,lion,frescoes","color":"#F1C40F"}},{"type":"Feature","geometry":{"type":"Point","coordinates":[89.36,27.49]},"properties":{"id":"taktsang","name":"Taktsang (Tiger's Nest) Monastery","mythologyId":"buddhist","mythologyName":"Buddhist Mythology","type":"temple","era":"MS 1692","eraBucket":"modern","description":"Buddhist monastery clinging to a cliff 900m above the Paro Valley. Guru Rinpoche flew here on a tiger's back to meditate in the cave.","imageUrl":"","country":"Bhutan","modernStatus":"Active monastery, Bhutan's most iconic site","tags":"cliff,monastery,tiger","color":"#F1C40F"}}]}
