{"type":"FeatureCollection","features":[{"type":"Feature","id":"maui-deity","properties":{"id":"maui-deity","name":"Maui","mythologyId":"polynesian","type":"demigod","era":"MS 300","eraBucket":"ancient","description":"Polynesian trickster demigod. Fished up islands, snared the sun, stole fire, and died trying to win immortality for humanity.","imageUrl":"https://upload.wikimedia.org/wikipedia/commons/thumb/1/14/Milford_Sound_%28New_Zealand%29.jpg/1280px-Milford_Sound_%28New_Zealand%29.jpg","domains":"trickster,fire,fishing,sun","color":"#00BCD4"},"geometry":{"type":"Point","coordinates":[174.76,-36.85]}},{"type":"Feature","id":"pele-deity","properties":{"id":"pele-deity","name":"Pele","mythologyId":"polynesian","type":"goddess","era":"MS 1000","eraBucket":"medieval","description":"Hawaiian goddess of fire and volcanoes. Lives in Kīlauea crater. Both creator and destroyer — lava forms new land.","imageUrl":"https://upload.wikimedia.org/wikipedia/commons/thumb/1/14/Milford_Sound_%28New_Zealand%29.jpg/1280px-Milford_Sound_%28New_Zealand%29.jpg","domains":"fire,volcano,creation,destruction","color":"#00BCD4"},"geometry":{"type":"Point","coordinates":[-155.6,19.48]}},{"type":"Feature","id":"tane-mahuta","properties":{"id":"tane-mahuta","name":"Tāne Mahuta","mythologyId":"polynesian","type":"god","era":"MS 1200","eraBucket":"medieval","description":"God of forests and birds. Separated his parents Rangi (Sky) and Papa (Earth) to bring light. Created the first woman from clay.","imageUrl":"https://upload.wikimedia.org/wikipedia/commons/thumb/1/14/Milford_Sound_%28New_Zealand%29.jpg/1280px-Milford_Sound_%28New_Zealand%29.jpg","domains":"forests,birds,light,creation","color":"#00BCD4"},"geometry":{"type":"Point","coordinates":[174.76,-36.85]}},{"type":"Feature","id":"tangaroa","properties":{"id":"tangaroa","name":"Tangaroa","mythologyId":"polynesian","type":"god","era":"MS 300","eraBucket":"ancient","description":"God of the sea throughout Polynesia. Father of fish and reptiles. His domain was the vast Pacific that Polynesian navigators mastered.","imageUrl":"https://upload.wikimedia.org/wikipedia/commons/thumb/1/14/Milford_Sound_%28New_Zealand%29.jpg/1280px-Milford_Sound_%28New_Zealand%29.jpg","domains":"ocean,fish,sea-creatures","color":"#00BCD4"},"geometry":{"type":"Point","coordinates":[-149.57,-17.73]}},{"type":"Feature","id":"tane-deity","properties":{"id":"tane-deity","name":"Tū","mythologyId":"polynesian","type":"god","era":"MS 300","eraBucket":"ancient","description":"Polynesian god of war and hunting. Only sibling who wanted to fight Rangi and Papa to separate them. Patron of warriors and fishermen.","imageUrl":"https://upload.wikimedia.org/wikipedia/commons/thumb/1/14/Milford_Sound_%28New_Zealand%29.jpg/1280px-Milford_Sound_%28New_Zealand%29.jpg","domains":"war,hunting,fishing,cooking","color":"#00BCD4"},"geometry":{"type":"Point","coordinates":[174.76,-36.85]}}]}