{"type":"FeatureCollection","features":[{"type":"Feature","geometry":{"type":"Point","coordinates":[174.76,-36.85]},"properties":{"id":"maui-fire","name":"Maui Fishes Up Islands & Snares the Sun","mythologyId":"polynesian","type":"trickster","era":"MS 1300","eraBucket":"medieval","summary":"The demigod Maui was a supreme trickster. He fished up the North Island of New Zealand using his grandmother's jawbone as a hook. He snared the sun with ropes to slow its journey and give people more daylight. He stole fire from the underworld goddess Mahuika. He died attempting to win immortality by crawling through the goddess of death.","imageUrl":"","themes":"trickster,fire,creation,mortality,cleverness"}},{"type":"Feature","geometry":{"type":"Point","coordinates":[174.76,-36.85]},"properties":{"id":"polynesian-creation","name":"Separation of Rangi and Papa","mythologyId":"polynesian","type":"creation","era":"MS 1200","eraBucket":"medieval","summary":"Sky Father Rangi and Earth Mother Papa lay locked in eternal embrace, trapping their children in darkness. The children debated how to separate them. Tane Mahuta, god of forests, pushed them apart with his legs. Tawhirimatea, god of storms, was furious and attacked his brothers. Rangi's tears became rain.","imageUrl":"","themes":"creation,separation,family-conflict,light,nature"}},{"type":"Feature","geometry":{"type":"Point","coordinates":[-155.6,19.48]},"properties":{"id":"polynesian-pele","name":"Pele — Goddess of Volcanoes","mythologyId":"polynesian","type":"nature","era":"MS 1000","eraBucket":"medieval","summary":"Pele traveled across the Pacific creating volcanic islands until she settled in Hawaii's Kīlauea. She is both creator and destroyer — lava from her anger forms new land. Her rivalry with the pig god Kamapua'a and her love for the mortal Lohiau drive dramatic narratives. She is a living deity still honored today.","imageUrl":"","themes":"fire,creation,destruction,rivalry,nature"}},{"type":"Feature","geometry":{"type":"Point","coordinates":[-155.25,19.9]},"properties":{"id":"polynesian-creation-chant","name":"Kumulipo — Hawaiian Creation Chant","mythologyId":"polynesian","type":"creation","era":"MS 1700","eraBucket":"modern","summary":"The Kumulipo is a 2,100-line creation chant linking the Hawaiian royal family to the origin of the cosmos. Creation proceeds from darkness to light, from coral and shellfish through fish, reptiles, birds, and finally humans. Each phase pairs male and female creative forces. The chant was performed at royal births.","imageUrl":"","themes":"creation,evolution,genealogy,chant,birth"}}]}
