{"type":"FeatureCollection","features":[{"type":"Feature","id":"rapa-nui","properties":{"id":"rapa-nui","name":"Rapa Nui (Easter Island) — Moai","mythologyId":"polynesian","mythologyName":"Maori / Polynesian Mythology","type":"temple","era":"MS 1250","eraBucket":"medieval","description":"887 monolithic moai statues carved by the Rapa Nui people. The statues represent deified ancestors, their backs to the sea, watching over the living.","imageUrl":"https://upload.wikimedia.org/wikipedia/commons/thumb/1/14/Milford_Sound_%28New_Zealand%29.jpg/1280px-Milford_Sound_%28New_Zealand%29.jpg","country":"Chile","modernStatus":"UNESCO World Heritage Site","tags":"moai,ancestors,remote","color":"#00BCD4"},"geometry":{"type":"Point","coordinates":[-109.37,-27.12]}},{"type":"Feature","id":"hawaii-volcanoes","properties":{"id":"hawaii-volcanoes","name":"Kīlauea — Home of Pele","mythologyId":"polynesian","mythologyName":"Maori / Polynesian Mythology","type":"natural","era":"ancient","eraBucket":"ancient","description":"World's most active volcano and home of the goddess Pele. Halemaʻumaʻu crater is her sacred fire pit. Lava flows are her divine body.","imageUrl":"https://upload.wikimedia.org/wikipedia/commons/thumb/1/14/Milford_Sound_%28New_Zealand%29.jpg/1280px-Milford_Sound_%28New_Zealand%29.jpg","country":"USA (Hawaii)","modernStatus":"Hawaii Volcanoes National Park, UNESCO World Heritage Site","tags":"volcano,pele,living","color":"#00BCD4"},"geometry":{"type":"Point","coordinates":[-155.29,19.42]}}]}