{"type":"FeatureCollection","features":[{"type":"Feature","id":"zeus","properties":{"id":"zeus","name":"Zeus","mythologyId":"greek","type":"god","era":"MÖ 800","eraBucket":"ancient","description":"King of the Olympian gods, ruler of Mount Olympus, and god of sky and thunder. Known for his affairs that produced demigods.","imageUrl":"https://upload.wikimedia.org/wikipedia/commons/thumb/c/c8/Jupiter_Smyrna_Louvre_Ma13.jpg/220px-Jupiter_Smyrna_Louvre_Ma13.jpg","domains":"sky,thunder,king","color":"#4A90D9"},"geometry":{"type":"Point","coordinates":[22.35,39.08]}},{"type":"Feature","id":"athena","properties":{"id":"athena","name":"Athena","mythologyId":"greek","type":"goddess","era":"MÖ 800","eraBucket":"ancient","description":"Goddess of wisdom, strategic warfare, and crafts. Born fully armored from Zeus's head. Patron of Athens, protector of heroes.","imageUrl":"https://upload.wikimedia.org/wikipedia/commons/thumb/a/a7/Mattei_Athena_Louvre_Ma530_n2.jpg/220px-Mattei_Athena_Louvre_Ma530_n2.jpg","domains":"wisdom,war,craft","color":"#4A90D9"},"geometry":{"type":"Point","coordinates":[23.72,37.97]}},{"type":"Feature","id":"poseidon","properties":{"id":"poseidon","name":"Poseidon","mythologyId":"greek","type":"god","era":"MÖ 800","eraBucket":"ancient","description":"God of the sea, earthquakes, and horses. Brother of Zeus. His anger caused storms and earthquakes. Creator of horses.","imageUrl":"https://upload.wikimedia.org/wikipedia/commons/thumb/5/54/Poseidon_sculpture_Copenhagen_2005.jpg/220px-Poseidon_sculpture_Copenhagen_2005.jpg","domains":"sea,earthquakes,horses","color":"#4A90D9"},"geometry":{"type":"Point","coordinates":[23.45,37.5]}},{"type":"Feature","id":"hades-god","properties":{"id":"hades-god","name":"Hades","mythologyId":"greek","type":"god","era":"MÖ 800","eraBucket":"ancient","description":"God of the underworld and the dead. Not evil but stern and just. Abducted Persephone. Rich from underground metals and gems.","imageUrl":"https://upload.wikimedia.org/wikipedia/commons/thumb/d/da/The_Parthenon_in_Athens.jpg/1280px-The_Parthenon_in_Athens.jpg","domains":"underworld,death,wealth","color":"#4A90D9"},"geometry":{"type":"Point","coordinates":[22.43,37.07]}},{"type":"Feature","id":"apollo","properties":{"id":"apollo","name":"Apollo","mythologyId":"greek","type":"god","era":"MÖ 800","eraBucket":"ancient","description":"God of sun, music, poetry, prophecy, and healing. Twin brother of Artemis. Leader of the Muses. Oracle at Delphi was his.","imageUrl":"https://upload.wikimedia.org/wikipedia/commons/thumb/d/da/The_Parthenon_in_Athens.jpg/1280px-The_Parthenon_in_Athens.jpg","domains":"sun,music,prophecy,healing","color":"#4A90D9"},"geometry":{"type":"Point","coordinates":[25.27,37.4]}},{"type":"Feature","id":"ares","properties":{"id":"ares","name":"Ares","mythologyId":"greek","type":"god","era":"MÖ 800","eraBucket":"ancient","description":"God of war and violence, unpopular among gods and mortals. Lover of Aphrodite. Represented the brutal aspect of warfare.","imageUrl":"https://upload.wikimedia.org/wikipedia/commons/thumb/d/da/The_Parthenon_in_Athens.jpg/1280px-The_Parthenon_in_Athens.jpg","domains":"war,violence,bloodlust","color":"#4A90D9"},"geometry":{"type":"Point","coordinates":[24.24,41.76]}},{"type":"Feature","id":"aphrodite","properties":{"id":"aphrodite","name":"Aphrodite","mythologyId":"greek","type":"goddess","era":"MÖ 800","eraBucket":"ancient","description":"Goddess of love, beauty, and desire. Born from sea foam. Her powers could overwhelm gods and mortals alike. Started the Trojan War.","imageUrl":"https://upload.wikimedia.org/wikipedia/commons/thumb/d/da/The_Parthenon_in_Athens.jpg/1280px-The_Parthenon_in_Athens.jpg","domains":"love,beauty,desire","color":"#4A90D9"},"geometry":{"type":"Point","coordinates":[32.42,34.74]}},{"type":"Feature","id":"hermes","properties":{"id":"hermes","name":"Hermes","mythologyId":"greek","type":"god","era":"MÖ 800","eraBucket":"ancient","description":"Messenger of the gods, guide of souls to the underworld. Patron of travelers, thieves, and merchants. Invented the lyre on his first day.","imageUrl":"https://upload.wikimedia.org/wikipedia/commons/thumb/d/da/The_Parthenon_in_Athens.jpg/1280px-The_Parthenon_in_Athens.jpg","domains":"messengers,thieves,travelers,trade","color":"#4A90D9"},"geometry":{"type":"Point","coordinates":[22.13,37.59]}},{"type":"Feature","id":"artemis","properties":{"id":"artemis","name":"Artemis","mythologyId":"greek","type":"goddess","era":"MÖ 800","eraBucket":"ancient","description":"Virgin goddess of the hunt, moon, and wilderness. Twin sister of Apollo. Protector of young girls and animals.","imageUrl":"https://upload.wikimedia.org/wikipedia/commons/thumb/d/da/The_Parthenon_in_Athens.jpg/1280px-The_Parthenon_in_Athens.jpg","domains":"hunt,moon,wilderness,childbirth","color":"#4A90D9"},"geometry":{"type":"Point","coordinates":[27.36,37.95]}},{"type":"Feature","id":"hephaestus","properties":{"id":"hephaestus","name":"Hephaestus","mythologyId":"greek","type":"god","era":"MÖ 800","eraBucket":"ancient","description":"God of the forge and fire. Lame smith who created divine weapons and automata. Husband of Aphrodite. Built the palaces of Olympus.","imageUrl":"https://upload.wikimedia.org/wikipedia/commons/thumb/d/da/The_Parthenon_in_Athens.jpg/1280px-The_Parthenon_in_Athens.jpg","domains":"forge,fire,craftsmanship,metalwork","color":"#4A90D9"},"geometry":{"type":"Point","coordinates":[25.4,36.4]}},{"type":"Feature","id":"demeter","properties":{"id":"demeter","name":"Demeter","mythologyId":"greek","type":"goddess","era":"MÖ 800","eraBucket":"ancient","description":"Goddess of the harvest and agriculture. Her grief over Persephone's abduction caused winter. Central to the Eleusinian Mysteries.","imageUrl":"https://upload.wikimedia.org/wikipedia/commons/thumb/d/da/The_Parthenon_in_Athens.jpg/1280px-The_Parthenon_in_Athens.jpg","domains":"harvest,agriculture,seasons,fertility","color":"#4A90D9"},"geometry":{"type":"Point","coordinates":[22.43,37.07]}},{"type":"Feature","id":"dionysus","properties":{"id":"dionysus","name":"Dionysus","mythologyId":"greek","type":"god","era":"MÖ 700","eraBucket":"ancient","description":"God of wine, ecstasy, and theater. Born twice — once from his mother and once from Zeus's thigh. His cult involved ecstatic ritual.","imageUrl":"https://upload.wikimedia.org/wikipedia/commons/thumb/d/da/The_Parthenon_in_Athens.jpg/1280px-The_Parthenon_in_Athens.jpg","domains":"wine,ecstasy,theater,rebirth","color":"#4A90D9"},"geometry":{"type":"Point","coordinates":[24.88,41.12]}},{"type":"Feature","id":"prometheus-deity","properties":{"id":"prometheus-deity","name":"Prometheus","mythologyId":"greek","type":"titan","era":"MÖ 800","eraBucket":"ancient","description":"Titan who stole fire from the gods and gave it to humanity, enabling civilization. Punished by Zeus — chained to a rock where an eagle ate his liver daily.","imageUrl":"https://upload.wikimedia.org/wikipedia/commons/thumb/5/5a/Peter_Paul_Rubens_-_Prometheus_Bound.jpg/800px-Peter_Paul_Rubens_-_Prometheus_Bound.jpg","domains":"fire,foresight,civilization,rebellion","color":"#4A90D9"},"geometry":{"type":"Point","coordinates":[22.5,38.47]}},{"type":"Feature","id":"heracles","properties":{"id":"heracles","name":"Heracles","mythologyId":"greek","type":"demigod","era":"MÖ 700","eraBucket":"ancient","description":"Greatest hero of Greek mythology. Son of Zeus and Alcmene. Completed twelve impossible labors. Achieved immortality through suffering.","imageUrl":"https://upload.wikimedia.org/wikipedia/commons/thumb/a/a1/Antonio_del_Pollaiuolo_-_Hercules_and_the_Hydra_-_Google_Art_Project.jpg/800px-Antonio_del_Pollaiuolo_-_Hercules_and_the_Hydra_-_Google_Art_Project.jpg","domains":"strength,heroism,protection,endurance","color":"#4A90D9"},"geometry":{"type":"Point","coordinates":[22.8,37.63]}},{"type":"Feature","id":"achilles-deity","properties":{"id":"achilles-deity","name":"Achilles","mythologyId":"greek","type":"demigod","era":"MÖ 750","eraBucket":"ancient","description":"Greatest warrior of the Trojan War. Son of Peleus and Thetis. Nearly invulnerable except his heel. Chose glory and short life over obscurity and long life.","imageUrl":"https://upload.wikimedia.org/wikipedia/commons/thumb/b/b3/The_Triumph_of_Achilles.jpg/800px-The_Triumph_of_Achilles.jpg","domains":"war,speed,heroism","color":"#4A90D9"},"geometry":{"type":"Point","coordinates":[26.24,39.96]}},{"type":"Feature","id":"odysseus-deity","properties":{"id":"odysseus-deity","name":"Odysseus","mythologyId":"greek","type":"demigod","era":"MÖ 800","eraBucket":"ancient","description":"King of Ithaca, cleverest of the Greeks. Conceived the Trojan Horse. Spent ten years returning home. Master of deception and survival.","imageUrl":"https://upload.wikimedia.org/wikipedia/commons/thumb/0/0c/Odysseus_And_The_Sirens_by_H.J._Draper.jpg/800px-Odysseus_And_The_Sirens_by_H.J._Draper.jpg","domains":"cunning,journey,endurance","color":"#4A90D9"},"geometry":{"type":"Point","coordinates":[20.49,38.37]}},{"type":"Feature","id":"hera","properties":{"id":"hera","name":"Hera","mythologyId":"greek","type":"goddess","era":"MÖ 800","eraBucket":"ancient","description":"Queen of the Olympian gods, wife of Zeus. Goddess of marriage and childbirth. Known for her jealous rage against Zeus's lovers and their children.","imageUrl":"https://upload.wikimedia.org/wikipedia/commons/thumb/d/da/The_Parthenon_in_Athens.jpg/1280px-The_Parthenon_in_Athens.jpg","domains":"marriage,women,childbirth,queens","color":"#4A90D9"},"geometry":{"type":"Point","coordinates":[22.88,37.72]}},{"type":"Feature","id":"persephone","properties":{"id":"persephone","name":"Persephone","mythologyId":"greek","type":"goddess","era":"MÖ 800","eraBucket":"ancient","description":"Queen of the Underworld and goddess of spring. Daughter of Demeter. Her annual return causes spring; her descent brings winter.","imageUrl":"https://upload.wikimedia.org/wikipedia/commons/thumb/d/da/The_Parthenon_in_Athens.jpg/1280px-The_Parthenon_in_Athens.jpg","domains":"spring,underworld,rebirth,grain","color":"#4A90D9"},"geometry":{"type":"Point","coordinates":[22.43,37.07]}},{"type":"Feature","id":"pan","properties":{"id":"pan","name":"Pan","mythologyId":"greek","type":"god","era":"MÖ 800","eraBucket":"ancient","description":"God of the wild, shepherds, and rustic music. Half-goat, half-man. His shout caused 'panic' in enemies. Played reed pipes in Arcadian mountains.","imageUrl":"https://upload.wikimedia.org/wikipedia/commons/thumb/d/da/The_Parthenon_in_Athens.jpg/1280px-The_Parthenon_in_Athens.jpg","domains":"wild,nature,shepherds,panic","color":"#4A90D9"},"geometry":{"type":"Point","coordinates":[22.2,37.63]}},{"type":"Feature","id":"hecate","properties":{"id":"hecate","name":"Hecate","mythologyId":"greek","type":"goddess","era":"MÖ 700","eraBucket":"ancient","description":"Triple-formed goddess of magic, crossroads, and the night. Guardian of thresholds. Aided Demeter in searching for Persephone.","imageUrl":"https://upload.wikimedia.org/wikipedia/commons/thumb/d/da/The_Parthenon_in_Athens.jpg/1280px-The_Parthenon_in_Athens.jpg","domains":"magic,crossroads,ghosts,witchcraft,moon","color":"#4A90D9"},"geometry":{"type":"Point","coordinates":[27.36,37.95]}},{"type":"Feature","id":"eros","properties":{"id":"eros","name":"Eros","mythologyId":"greek","type":"god","era":"MÖ 700","eraBucket":"ancient","description":"God of desire and erotic love. In early tradition, a primordial force that emerged from Chaos. Later depicted as Aphrodite's mischievous son with bow and arrows.","imageUrl":"https://upload.wikimedia.org/wikipedia/commons/thumb/d/da/The_Parthenon_in_Athens.jpg/1280px-The_Parthenon_in_Athens.jpg","domains":"desire,attraction,love","color":"#4A90D9"},"geometry":{"type":"Point","coordinates":[23.72,37.97]}},{"type":"Feature","id":"nike","properties":{"id":"nike","name":"Nike","mythologyId":"greek","type":"goddess","era":"MÖ 600","eraBucket":"ancient","description":"Winged goddess of victory. Companion of Athena and Zeus. Inspired the famous statue Winged Victory of Samothrace and the modern brand.","imageUrl":"https://upload.wikimedia.org/wikipedia/commons/thumb/d/da/The_Parthenon_in_Athens.jpg/1280px-The_Parthenon_in_Athens.jpg","domains":"victory,speed,triumph","color":"#4A90D9"},"geometry":{"type":"Point","coordinates":[23.72,37.97]}},{"type":"Feature","id":"kronos","properties":{"id":"kronos","name":"Kronos","mythologyId":"greek","type":"titan","era":"MÖ 800","eraBucket":"ancient","description":"Titan king who devoured his children to prevent prophecy. Zeus escaped and overthrew him. In Roman tradition (as Saturn), ruled a lost Golden Age.","imageUrl":"https://upload.wikimedia.org/wikipedia/commons/thumb/d/da/The_Parthenon_in_Athens.jpg/1280px-The_Parthenon_in_Athens.jpg","domains":"time,harvest,golden-age","color":"#4A90D9"},"geometry":{"type":"Point","coordinates":[23.72,37.97]}}]}