{"type":"FeatureCollection","features":[{"type":"Feature","id":"prometheus-fire","properties":{"id":"prometheus-fire","name":"Prometheus Steals Fire","mythologyId":"greek","type":"quest","era":"MÖ 800","eraBucket":"ancient","summary":"Prometheus, a Titan, stole fire from Mount Olympus and gave it to humanity, enabling civilization. Zeus punished him by chaining him to a rock where an eagle ate his liver daily, only for it to regenerate each night. Heracles eventually freed him. The myth symbolizes the price of knowledge and defiance of divine authority.","imageUrl":"https://upload.wikimedia.org/wikipedia/commons/thumb/5/5a/Peter_Paul_Rubens_-_Prometheus_Bound.jpg/800px-Peter_Paul_Rubens_-_Prometheus_Bound.jpg","themes":"fire,sacrifice,defiance,knowledge,punishment"},"geometry":{"type":"Point","coordinates":[22.5,38.47]}},{"type":"Feature","id":"odyssey","properties":{"id":"odyssey","name":"The Odyssey","mythologyId":"greek","type":"quest","era":"MÖ 800","eraBucket":"ancient","summary":"After the Trojan War, Odysseus spent ten years trying to return home to Ithaca. He faced the Cyclops, Sirens, Scylla and Charybdis, and the enchantress Circe. Meanwhile, his wife Penelope fended off suitors. The epic explores nostos (homecoming), cunning over brute force, and the costs of hubris.","imageUrl":"https://upload.wikimedia.org/wikipedia/commons/thumb/0/0c/Odysseus_And_The_Sirens_by_H.J._Draper.jpg/800px-Odysseus_And_The_Sirens_by_H.J._Draper.jpg","themes":"journey,cunning,loyalty,homecoming,temptation"},"geometry":{"type":"Point","coordinates":[20.49,38.37]}},{"type":"Feature","id":"iliad-achilles","properties":{"id":"iliad-achilles","name":"Wrath of Achilles (Iliad)","mythologyId":"greek","type":"war","era":"MÖ 750","eraBucket":"ancient","summary":"The Iliad focuses on a few weeks during the tenth year of the Trojan War. Achilles withdraws from battle after Agamemnon takes his war prize. When Patroclus is killed by Hector, Achilles returns in devastating fury, slaying Hector and dragging his body around Troy. The poem ends with Hector's funeral.","imageUrl":"https://upload.wikimedia.org/wikipedia/commons/thumb/b/b3/The_Triumph_of_Achilles.jpg/800px-The_Triumph_of_Achilles.jpg","themes":"honor,wrath,mortality,war,grief"},"geometry":{"type":"Point","coordinates":[26.24,39.96]}},{"type":"Feature","id":"heracles-labors","properties":{"id":"heracles-labors","name":"Twelve Labors of Heracles","mythologyId":"greek","type":"hero","era":"MÖ 700","eraBucket":"ancient","summary":"Driven mad by Hera, Heracles killed his family. As penance, he completed twelve impossible labors: slaying the Nemean Lion, killing the Lernaean Hydra, capturing the Ceryneian Hind, and more. The final labor required him to bring Cerberus from the underworld. These trials earned him immortality.","imageUrl":"https://upload.wikimedia.org/wikipedia/commons/thumb/a/a1/Antonio_del_Pollaiuolo_-_Hercules_and_the_Hydra_-_Google_Art_Project.jpg/800px-Antonio_del_Pollaiuolo_-_Hercules_and_the_Hydra_-_Google_Art_Project.jpg","themes":"redemption,strength,perseverance,heroism,divine-trial"},"geometry":{"type":"Point","coordinates":[22.8,37.63]}},{"type":"Feature","id":"orpheus-eurydice","properties":{"id":"orpheus-eurydice","name":"Orpheus and Eurydice","mythologyId":"greek","type":"love","era":"MÖ 600","eraBucket":"ancient","summary":"The musician Orpheus descended to the underworld to retrieve his dead wife Eurydice. His music moved Hades, who agreed to release her if Orpheus did not look back. At the last moment, Orpheus glanced back, losing Eurydice forever. The myth explores the power and limits of art and love.","imageUrl":"https://upload.wikimedia.org/wikipedia/commons/thumb/6/64/Christian_Gottlieb_Kratzenstein%2C_Orpheus_and_Eurydice%2C_1806%2C_Ny_Carlsberg_Glyptotek%2C_Copenhagen_%2836420346045%29.jpg/440px-Christian_Gottlieb_Kratzenstein%2C_Orpheus_and_Eurydice%2C_1806%2C_Ny_Carlsberg_Glyptotek%2C_Copenhagen_%2836420346045%29.jpg","themes":"love,death,music,loss,forbidden-glance"},"geometry":{"type":"Point","coordinates":[24.88,41.12]}},{"type":"Feature","id":"greek-creation","properties":{"id":"greek-creation","name":"Greek Creation (Chaos to Olympians)","mythologyId":"greek","type":"creation","era":"MÖ 800","eraBucket":"ancient","summary":"From primordial Chaos emerged Gaia (Earth), Tartarus (Abyss), and Eros (Love). Gaia bore Uranus (Sky), whose children the Titans were imprisoned until Kronos castrated his father. Zeus then overthrew Kronos, establishing the Olympian order. This succession myth mirrors Near Eastern creation patterns.","imageUrl":"https://upload.wikimedia.org/wikipedia/commons/thumb/6/64/Cornelis_van_Haarlem_-_The_Fall_of_the_Titans_-_Google_Art_Project.jpg/800px-Cornelis_van_Haarlem_-_The_Fall_of_the_Titans_-_Google_Art_Project.jpg","themes":"creation,succession,cosmic-order,generational-conflict"},"geometry":{"type":"Point","coordinates":[22.35,40.08]}},{"type":"Feature","id":"persephone-seasons","properties":{"id":"persephone-seasons","name":"Persephone and the Seasons","mythologyId":"greek","type":"nature","era":"MÖ 700","eraBucket":"ancient","summary":"Hades abducted Persephone to the underworld. Her mother Demeter, goddess of harvest, caused the earth to become barren in grief. Zeus brokered a compromise: Persephone would spend part of the year below and part above. Her return brings spring; her descent brings winter.","imageUrl":"https://upload.wikimedia.org/wikipedia/commons/thumb/0/0b/Frederic_Leighton_-_The_Return_of_Persephone_%281891%29.jpg/440px-Frederic_Leighton_-_The_Return_of_Persephone_%281891%29.jpg","themes":"seasons,abduction,grief,rebirth,nature"},"geometry":{"type":"Point","coordinates":[22.43,37.07]}},{"type":"Feature","id":"deucalion-flood","properties":{"id":"deucalion-flood","name":"Deucalion's Flood","mythologyId":"greek","type":"cosmology","era":"MÖ 700","eraBucket":"ancient","summary":"Zeus sent a flood to destroy corrupt humanity. Deucalion and Pyrrha survived on a chest, landing on Mount Parnassus. They repopulated the earth by throwing stones over their shoulders — stones became people. This Greek flood narrative parallels the older Mesopotamian version closely.","imageUrl":"https://upload.wikimedia.org/wikipedia/commons/thumb/d/da/The_Parthenon_in_Athens.jpg/1280px-The_Parthenon_in_Athens.jpg","themes":"flood,survival,renewal,divine-judgment"},"geometry":{"type":"Point","coordinates":[22.43,39.07]}},{"type":"Feature","id":"theseus-minotaur","properties":{"id":"theseus-minotaur","name":"Theseus and the Minotaur","mythologyId":"greek","type":"hero","era":"MÖ 700","eraBucket":"ancient","summary":"Athens was forced to send seven youths and seven maidens to Crete to feed the Minotaur in the Labyrinth. Prince Theseus volunteered, aided by Ariadne's thread to navigate the maze. He slew the beast and freed Athens from the tribute. He abandoned Ariadne on Naxos.","imageUrl":"https://upload.wikimedia.org/wikipedia/commons/thumb/2/2a/Theseus_Minotaur_BM_GR1843.11-3.28.jpg/440px-Theseus_Minotaur_BM_GR1843.11-3.28.jpg","themes":"monster-slaying,labyrinth,sacrifice,betrayal"},"geometry":{"type":"Point","coordinates":[24.9,35.3]}},{"type":"Feature","id":"perseus-medusa","properties":{"id":"perseus-medusa","name":"Perseus and Medusa","mythologyId":"greek","type":"hero","era":"MÖ 700","eraBucket":"ancient","summary":"Perseus was sent to kill Medusa, the Gorgon whose gaze turned people to stone. Aided by Athena's mirror shield, Hermes' winged sandals, and Hades' cap of invisibility, he beheaded Medusa while looking at her reflection. He used her head to rescue Andromeda from a sea monster.","imageUrl":"https://upload.wikimedia.org/wikipedia/commons/thumb/d/da/The_Parthenon_in_Athens.jpg/1280px-The_Parthenon_in_Athens.jpg","themes":"monster-slaying,divine-aid,rescue,heroism"},"geometry":{"type":"Point","coordinates":[22.8,37.63]}},{"type":"Feature","id":"jason-argonauts","properties":{"id":"jason-argonauts","name":"Jason and the Golden Fleece","mythologyId":"greek","type":"quest","era":"MÖ 700","eraBucket":"ancient","summary":"Jason assembled the Argonauts to retrieve the Golden Fleece from Colchis. They faced clashing rocks, harpies, and fire-breathing bulls. Medea, the sorceress princess, helped Jason succeed out of love. Their return and tragic aftermath — Medea's revenge — remains one of mythology's darkest tales.","imageUrl":"https://upload.wikimedia.org/wikipedia/commons/thumb/d/da/The_Parthenon_in_Athens.jpg/1280px-The_Parthenon_in_Athens.jpg","themes":"quest,teamwork,love,betrayal,magic"},"geometry":{"type":"Point","coordinates":[19.92,39.62]}},{"type":"Feature","id":"oedipus","properties":{"id":"oedipus","name":"Oedipus and the Sphinx","mythologyId":"greek","type":"hero","era":"MÖ 430","eraBucket":"ancient","summary":"Oedipus unknowingly fulfilled a prophecy by killing his father and marrying his mother. He first proved his wisdom by solving the Sphinx's riddle. When the truth was revealed, Jocasta hanged herself and Oedipus blinded himself. Fate proved inescapable despite every human effort.","imageUrl":"https://upload.wikimedia.org/wikipedia/commons/thumb/d/da/The_Parthenon_in_Athens.jpg/1280px-The_Parthenon_in_Athens.jpg","themes":"fate,prophecy,incest,blindness,tragedy"},"geometry":{"type":"Point","coordinates":[23.32,38.32]}},{"type":"Feature","id":"pandora-box","properties":{"id":"pandora-box","name":"Pandora's Box","mythologyId":"greek","type":"cosmology","era":"MÖ 700","eraBucket":"ancient","summary":"Zeus created Pandora, the first woman, as punishment for Prometheus's theft of fire. Each god gave her gifts — beauty, cunning, curiosity. She was given a jar (pithos) and told never to open it. Curiosity overwhelmed her, releasing all evils into the world. Only Hope remained inside.","imageUrl":"https://upload.wikimedia.org/wikipedia/commons/thumb/d/da/The_Parthenon_in_Athens.jpg/1280px-The_Parthenon_in_Athens.jpg","themes":"curiosity,punishment,evil,hope,women"},"geometry":{"type":"Point","coordinates":[22.5,38.47]}},{"type":"Feature","id":"narcissus","properties":{"id":"narcissus","name":"Echo and Narcissus","mythologyId":"greek","type":"love","era":"MÖ 700","eraBucket":"ancient","summary":"The beautiful Narcissus rejected all lovers, including the nymph Echo who faded to only a voice. Nemesis cursed him to fall in love with his own reflection. Unable to look away from the pool, Narcissus wasted away and was transformed into the flower bearing his name.","imageUrl":"https://upload.wikimedia.org/wikipedia/commons/thumb/d/da/The_Parthenon_in_Athens.jpg/1280px-The_Parthenon_in_Athens.jpg","themes":"vanity,transformation,love,punishment,reflection"},"geometry":{"type":"Point","coordinates":[23.32,38.36]}},{"type":"Feature","id":"trojan-horse","properties":{"id":"trojan-horse","name":"The Trojan Horse","mythologyId":"greek","type":"war","era":"MÖ 700","eraBucket":"ancient","summary":"After ten years besieging Troy, the Greeks built a hollow wooden horse and hid warriors inside. They feigned retreat. Despite Laocoön's warning, the Trojans brought the horse inside their walls. At night, Greek soldiers emerged and opened the gates. Troy burned in a single devastating night.","imageUrl":"https://upload.wikimedia.org/wikipedia/commons/thumb/d/da/The_Parthenon_in_Athens.jpg/1280px-The_Parthenon_in_Athens.jpg","themes":"deception,war,fall,strategy,hubris"},"geometry":{"type":"Point","coordinates":[26.24,39.96]}},{"type":"Feature","id":"greek-daedalus","properties":{"id":"greek-daedalus","name":"Daedalus and Icarus","mythologyId":"greek","type":"quest","era":"MÖ 700","eraBucket":"ancient","summary":"The master craftsman Daedalus built the Labyrinth for King Minos, then was imprisoned with his son Icarus. He crafted wings from feathers and wax. He warned Icarus not to fly too high or too low. Icarus, exhilarated, soared toward the sun. The wax melted and he fell into the sea.","imageUrl":"https://upload.wikimedia.org/wikipedia/commons/thumb/d/da/The_Parthenon_in_Athens.jpg/1280px-The_Parthenon_in_Athens.jpg","themes":"hubris,flight,warning,technology,fall"},"geometry":{"type":"Point","coordinates":[24.9,35.3]}},{"type":"Feature","id":"greek-antigone","properties":{"id":"greek-antigone","name":"Antigone's Defiance","mythologyId":"greek","type":"hero","era":"MÖ 441","eraBucket":"ancient","summary":"Antigone defied King Creon's edict by burying her brother Polynices, choosing divine law over human law. Creon sentenced her to death. She hanged herself, Creon's son Haemon killed himself at her tomb, and Creon's wife followed. Creon was left destroyed, learning too late that justice cannot be separated from mercy.","imageUrl":"https://upload.wikimedia.org/wikipedia/commons/thumb/d/da/The_Parthenon_in_Athens.jpg/1280px-The_Parthenon_in_Athens.jpg","themes":"defiance,duty,law,tragedy,conscience"},"geometry":{"type":"Point","coordinates":[23.32,38.32]}}]}