{"type":"FeatureCollection","features":[{"type":"Feature","id":"olympus","properties":{"id":"olympus","name":"Mount Olympus","mythologyId":"greek","mythologyName":"Greek Mythology","type":"mountain","era":"MÖ 2000","eraBucket":"ancient","description":"Home of the twelve Olympian gods. Greece's highest peak (2,917m). Zeus held court at the summit above the clouds.","imageUrl":"https://upload.wikimedia.org/wikipedia/commons/thumb/d/da/The_Parthenon_in_Athens.jpg/1280px-The_Parthenon_in_Athens.jpg","country":"Greece","modernStatus":"UNESCO Biosphere Reserve, national park","tags":"mountain,gods,olympian","color":"#4A90D9"},"geometry":{"type":"Point","coordinates":[22.35,40.09]}},{"type":"Feature","id":"delphi","properties":{"id":"delphi","name":"Delphi — Oracle of Apollo","mythologyId":"greek","mythologyName":"Greek Mythology","type":"temple","era":"MÖ 800","eraBucket":"ancient","description":"Sacred site of Apollo's oracle, where the Pythia delivered prophecies. Considered the navel (omphalos) of the world.","imageUrl":"https://upload.wikimedia.org/wikipedia/commons/thumb/d/da/The_Parthenon_in_Athens.jpg/1280px-The_Parthenon_in_Athens.jpg","country":"Greece","modernStatus":"UNESCO World Heritage Site, archaeological museum","tags":"oracle,temple,prophecy","color":"#4A90D9"},"geometry":{"type":"Point","coordinates":[22.5,38.48]}},{"type":"Feature","id":"parthenon","properties":{"id":"parthenon","name":"Parthenon — Temple of Athena","mythologyId":"greek","mythologyName":"Greek Mythology","type":"temple","era":"MÖ 447","eraBucket":"ancient","description":"Temple dedicated to Athena Parthenos on the Acropolis of Athens. The finest example of classical Greek architecture.","imageUrl":"https://upload.wikimedia.org/wikipedia/commons/thumb/d/da/The_Parthenon_in_Athens.jpg/1280px-The_Parthenon_in_Athens.jpg","country":"Greece","modernStatus":"UNESCO World Heritage Site, most visited site in Greece","tags":"temple,acropolis,classical","color":"#4A90D9"},"geometry":{"type":"Point","coordinates":[23.73,37.97]}},{"type":"Feature","id":"ephesus","properties":{"id":"ephesus","name":"Temple of Artemis at Ephesus","mythologyId":"greek","mythologyName":"Greek Mythology","type":"temple","era":"MÖ 550","eraBucket":"ancient","description":"One of the Seven Wonders of the Ancient World. Temple of Artemis rebuilt three times, the final version four times the size of the Parthenon.","imageUrl":"https://upload.wikimedia.org/wikipedia/commons/thumb/d/da/The_Parthenon_in_Athens.jpg/1280px-The_Parthenon_in_Athens.jpg","country":"Turkey","modernStatus":"Single column remains, archaeological site","tags":"wonder,artemis,temple","color":"#4A90D9"},"geometry":{"type":"Point","coordinates":[27.36,37.95]}},{"type":"Feature","id":"troy","properties":{"id":"troy","name":"Troy (Hisarlik)","mythologyId":"greek","mythologyName":"Greek Mythology","type":"city","era":"MÖ 3000","eraBucket":"ancient","description":"The legendary city of the Trojan War, besieged for ten years by the Greeks. Excavated by Schliemann in 1870. Nine cities stacked on this mound.","imageUrl":"https://upload.wikimedia.org/wikipedia/commons/thumb/d/da/The_Parthenon_in_Athens.jpg/1280px-The_Parthenon_in_Athens.jpg","country":"Turkey","modernStatus":"UNESCO World Heritage Site","tags":"troy,war,homer","color":"#4A90D9"},"geometry":{"type":"Point","coordinates":[26.24,39.96]}},{"type":"Feature","id":"epidaurus","properties":{"id":"epidaurus","name":"Epidaurus — Sanctuary of Asclepius","mythologyId":"greek","mythologyName":"Greek Mythology","type":"temple","era":"MÖ 600","eraBucket":"ancient","description":"Healing sanctuary with the world's best-preserved ancient theater (14,000 seats). Patients slept in the abaton hoping for divine healing dreams.","imageUrl":"https://upload.wikimedia.org/wikipedia/commons/thumb/d/da/The_Parthenon_in_Athens.jpg/1280px-The_Parthenon_in_Athens.jpg","country":"Greece","modernStatus":"UNESCO World Heritage Site","tags":"theater,healing,dreams","color":"#4A90D9"},"geometry":{"type":"Point","coordinates":[23.08,37.6]}},{"type":"Feature","id":"knossos","properties":{"id":"knossos","name":"Knossos — Palace of Minos","mythologyId":"greek","mythologyName":"Greek Mythology","type":"temple","era":"MÖ 2000","eraBucket":"ancient","description":"Bronze Age palace complex associated with the Labyrinth of the Minotaur. Frescoes depict bull-leaping rituals and the double axe (labrys).","imageUrl":"https://upload.wikimedia.org/wikipedia/commons/thumb/d/da/The_Parthenon_in_Athens.jpg/1280px-The_Parthenon_in_Athens.jpg","country":"Greece (Crete)","modernStatus":"Archaeological site, partially reconstructed by Evans","tags":"palace,labyrinth,minoan","color":"#4A90D9"},"geometry":{"type":"Point","coordinates":[25.16,35.3]}}]}