{"type":"FeatureCollection","features":[{"type":"Feature","geometry":{"type":"Polygon","coordinates":[[[19,34],[30,34],[30,42],[19,42],[19,34]]]},"properties":{"id":"greek","name":"Greek Mythology","region":"Greece & Aegean","era":"MÖ 2000 – MS 400","eraBucket":"ancient","color":"#4A90D9","bbox":"19,34,30,42"}},{"type":"Feature","geometry":{"type":"Polygon","coordinates":[[[6,36],[18,36],[18,47],[6,47],[6,36]]]},"properties":{"id":"roman","name":"Roman Mythology","region":"Italian Peninsula & Roman Empire","era":"MÖ 800 – MS 500","eraBucket":"ancient","color":"#C0392B","bbox":"6,36,18,47"}},{"type":"Feature","geometry":{"type":"Polygon","coordinates":[[[-25,55],[30,55],[30,72],[-25,72],[-25,55]]]},"properties":{"id":"norse","name":"Norse Mythology","region":"Scandinavia & Iceland","era":"MS 200 – MS 1100","eraBucket":"medieval","color":"#2ECC71","bbox":"-25,55,30,72"}},{"type":"Feature","geometry":{"type":"Polygon","coordinates":[[[-11,46],[3,46],[3,59],[-11,59],[-11,46]]]},"properties":{"id":"celtic","name":"Celtic Mythology","region":"British Isles & Western Europe","era":"MÖ 500 – MS 400","eraBucket":"ancient","color":"#27AE60","bbox":"-11,46,3,59"}},{"type":"Feature","geometry":{"type":"Polygon","coordinates":[[[24,22],[37,22],[37,32],[24,32],[24,22]]]},"properties":{"id":"egyptian","name":"Egyptian Mythology","region":"Nile Valley & North Africa","era":"MÖ 3100 – MS 400","eraBucket":"ancient","color":"#F39C12","bbox":"24,22,37,32"}},{"type":"Feature","geometry":{"type":"Polygon","coordinates":[[[38,29],[49,29],[49,38],[38,38],[38,29]]]},"properties":{"id":"mesopotamian","name":"Mesopotamian Mythology","region":"Fertile Crescent / Iraq","era":"MÖ 3500 – MÖ 500","eraBucket":"ancient","color":"#D35400","bbox":"38,29,49,38"}},{"type":"Feature","geometry":{"type":"Polygon","coordinates":[[[44,25],[63,25],[63,40],[44,40],[44,25]]]},"properties":{"id":"persian","name":"Persian / Zoroastrian Mythology","region":"Iran & Central Asia","era":"MÖ 1500 – MS 700","eraBucket":"ancient","color":"#9B59B6","bbox":"44,25,63,40"}},{"type":"Feature","geometry":{"type":"Polygon","coordinates":[[[68,6],[97,6],[97,36],[68,36],[68,6]]]},"properties":{"id":"hindu","name":"Hindu Mythology","region":"Indian Subcontinent","era":"MÖ 1500 – present","eraBucket":"ancient","color":"#E74C3C","bbox":"68,6,97,36"}},{"type":"Feature","geometry":{"type":"Polygon","coordinates":[[[68,5],[145,5],[145,50],[68,50],[68,5]]]},"properties":{"id":"buddhist","name":"Buddhist Mythology","region":"South & East Asia","era":"MÖ 500 – present","eraBucket":"ancient","color":"#F1C40F","bbox":"68,5,145,50"}},{"type":"Feature","geometry":{"type":"Polygon","coordinates":[[[73,18],[135,18],[135,54],[73,54],[73,18]]]},"properties":{"id":"chinese","name":"Chinese Mythology","region":"China & East Asia","era":"MÖ 2000 – present","eraBucket":"ancient","color":"#E67E22","bbox":"73,18,135,54"}},{"type":"Feature","geometry":{"type":"Polygon","coordinates":[[[128,30],[146,30],[146,46],[128,46],[128,30]]]},"properties":{"id":"japanese","name":"Japanese Mythology","region":"Japan","era":"MS 700 – present","eraBucket":"modern","color":"#E74C3C","bbox":"128,30,146,46"}},{"type":"Feature","geometry":{"type":"Polygon","coordinates":[[[124,33],[132,33],[132,43],[124,43],[124,33]]]},"properties":{"id":"korean","name":"Korean Mythology","region":"Korean Peninsula","era":"MÖ 2333 – present","eraBucket":"ancient","color":"#3498DB","bbox":"124,33,132,43"}},{"type":"Feature","geometry":{"type":"Polygon","coordinates":[[[-105,14],[-96,14],[-96,22],[-105,22],[-105,14]]]},"properties":{"id":"aztec","name":"Aztec Mythology","region":"Central Mexico","era":"MS 1300 – MS 1521","eraBucket":"modern","color":"#1ABC9C","bbox":"-105,14,-96,22"}},{"type":"Feature","geometry":{"type":"Polygon","coordinates":[[[-92,13],[-86,13],[-86,22],[-92,22],[-92,13]]]},"properties":{"id":"maya","name":"Maya Mythology","region":"Central America & Yucatan","era":"MÖ 2000 – MS 1500","eraBucket":"ancient","color":"#16A085","bbox":"-92,13,-86,22"}},{"type":"Feature","geometry":{"type":"Polygon","coordinates":[[[-82,-22],[-68,-22],[-68,-1],[-82,-1],[-82,-22]]]},"properties":{"id":"inca","name":"Inca Mythology","region":"Andes / South America","era":"MS 1200 – MS 1533","eraBucket":"modern","color":"#2980B9","bbox":"-82,-22,-68,-1"}},{"type":"Feature","geometry":{"type":"Polygon","coordinates":[[[14,42],[40,42],[40,60],[14,60],[14,42]]]},"properties":{"id":"slavic","name":"Slavic Mythology","region":"Eastern Europe","era":"MÖ 500 – MS 1200","eraBucket":"ancient","color":"#8E44AD","bbox":"14,42,40,60"}},{"type":"Feature","geometry":{"type":"Polygon","coordinates":[[[26,35],[120,35],[120,55],[26,55],[26,35]]]},"properties":{"id":"turkic","name":"Turkish / Tengrist Mythology","region":"Central Asia & Anatolia","era":"MÖ 1000 – MS 1500","eraBucket":"ancient","color":"#C0392B","bbox":"26,35,120,55"}},{"type":"Feature","geometry":{"type":"Polygon","coordinates":[[[87,41],[120,41],[120,52],[87,52],[87,41]]]},"properties":{"id":"mongolian","name":"Mongolian Mythology","region":"Mongolia & Central Asia","era":"MÖ 500 – present","eraBucket":"ancient","color":"#2C3E50","bbox":"87,41,120,52"}},{"type":"Feature","geometry":{"type":"Polygon","coordinates":[[[2,4],[6,4],[6,10],[2,10],[2,4]]]},"properties":{"id":"yoruba","name":"Yoruba Mythology","region":"West Africa (Nigeria / Benin)","era":"MÖ 500 – present","eraBucket":"ancient","color":"#E91E63","bbox":"2,4,6,10"}},{"type":"Feature","geometry":{"type":"Polygon","coordinates":[[[28,15],[38,15],[38,23],[28,23],[28,15]]]},"properties":{"id":"nubian","name":"Nubian / Kushite Mythology","region":"Sudan & Upper Nile","era":"MÖ 2500 – MS 500","eraBucket":"ancient","color":"#795548","bbox":"28,15,38,23"}},{"type":"Feature","geometry":{"type":"Polygon","coordinates":[[[112,-44],[154,-44],[154,-10],[112,-10],[112,-44]]]},"properties":{"id":"aboriginal","name":"Aboriginal Australian Mythology","region":"Australia","era":"60,000+ years ago – present","eraBucket":"modern","color":"#FF5722","bbox":"112,-44,154,-10"}},{"type":"Feature","geometry":{"type":"Polygon","coordinates":[[[-180,-50],[-130,-50],[-130,30],[-180,30],[-180,-50]]]},"properties":{"id":"polynesian","name":"Maori / Polynesian Mythology","region":"Pacific Islands & New Zealand","era":"MS 300 – present","eraBucket":"modern","color":"#00BCD4","bbox":"-180,-50,-130,30"}},{"type":"Feature","geometry":{"type":"Polygon","coordinates":[[[-170,24],[-52,24],[-52,72],[-170,72],[-170,24]]]},"properties":{"id":"native-american","name":"Native American Mythology","region":"North America","era":"12,000+ years ago – present","eraBucket":"modern","color":"#8D6E63","bbox":"-170,24,-52,72"}},{"type":"Feature","geometry":{"type":"Polygon","coordinates":[[[19,57],[32,57],[32,70],[19,70],[19,57]]]},"properties":{"id":"finnish","name":"Finnish / Kalevala Mythology","region":"Finland & Estonia","era":"MÖ 1000 – MS 1800","eraBucket":"ancient","color":"#5C6BC0","bbox":"19,57,32,70"}},{"type":"Feature","geometry":{"type":"Polygon","coordinates":[[[38,37],[47,37],[47,42],[38,42],[38,37]]]},"properties":{"id":"armenian","name":"Armenian Mythology","region":"Armenian Highlands","era":"MÖ 3000 – MS 400","eraBucket":"ancient","color":"#AB47BC","bbox":"38,37,47,42"}},{"type":"Feature","geometry":{"type":"Polygon","coordinates":[[[40,41],[47,41],[47,44],[40,44],[40,41]]]},"properties":{"id":"georgian","name":"Georgian Mythology","region":"Caucasus / Georgia","era":"MÖ 2000 – MS 400","eraBucket":"ancient","color":"#26A69A","bbox":"40,41,47,44"}},{"type":"Feature","geometry":{"type":"Polygon","coordinates":[[[34,31],[37,31],[37,35],[34,35],[34,31]]]},"properties":{"id":"phoenician","name":"Phoenician / Canaanite Mythology","region":"Levant / Eastern Mediterranean","era":"MÖ 3000 – MÖ 300","eraBucket":"ancient","color":"#FF7043","bbox":"34,31,37,35"}},{"type":"Feature","geometry":{"type":"Polygon","coordinates":[[[26,36],[44,36],[44,42],[26,42],[26,36]]]},"properties":{"id":"hittite","name":"Hittite Mythology","region":"Anatolia / Central Turkey","era":"MÖ 1700 – MÖ 1180","eraBucket":"ancient","color":"#FF9800","bbox":"26,36,44,42"}},{"type":"Feature","geometry":{"type":"Polygon","coordinates":[[[10,41],[14,41],[14,44],[10,44],[10,41]]]},"properties":{"id":"etruscan","name":"Etruscan Mythology","region":"Central Italy / Tuscany","era":"MÖ 900 – MÖ 100","eraBucket":"ancient","color":"#607D8B","bbox":"10,41,14,44"}},{"type":"Feature","geometry":{"type":"Polygon","coordinates":[[[43,29],[49,29],[49,34],[43,34],[43,29]]]},"properties":{"id":"sumerian","name":"Sumerian Mythology","region":"Southern Mesopotamia","era":"c. 3500-1900 BCE","eraBucket":"ancient","color":"#b9894a","bbox":"43,29,49,34"}},{"type":"Feature","geometry":{"type":"Polygon","coordinates":[[[41,30],[48,30],[48,35],[41,35],[41,30]]]},"properties":{"id":"babylonian","name":"Babylonian Mythology","region":"Central Mesopotamia","era":"c. 2000-500 BCE","eraBucket":"ancient","color":"#7a4f28","bbox":"41,30,48,35"}},{"type":"Feature","geometry":{"type":"Polygon","coordinates":[[[34,29],[37,29],[37,34],[34,34],[34,29]]]},"properties":{"id":"biblical-hebrew","name":"Biblical/Hebrew Tradition","region":"Levant","era":"c. 1200-200 BCE","eraBucket":"ancient","color":"#8f7a52","bbox":"34,29,37,34"}},{"type":"Feature","geometry":{"type":"Polygon","coordinates":[[[25,42],[52,42],[52,57],[25,57],[25,42]]]},"properties":{"id":"proto-indo-european","name":"Proto-Indo-European Tradition","region":"Pontic-Caspian Steppe","era":"Prehistory","eraBucket":"ancient","color":"#6c5c95","bbox":"25,42,52,57"}},{"type":"Feature","geometry":{"type":"Polygon","coordinates":[[[18,23],[38,23],[38,41],[18,41],[18,23]]]},"properties":{"id":"hellenistic-syncretic","name":"Hellenistic Syncretic Cults","region":"Eastern Mediterranean","era":"c. 330 BCE-300 CE","eraBucket":"ancient","color":"#7c3aed","bbox":"18,23,38,41"}},{"type":"Feature","geometry":{"type":"Polygon","coordinates":[[[94,-11],[141,-11],[141,25],[94,25],[94,-11]]]},"properties":{"id":"southeast-asian","name":"Southeast Asian Mythologies","region":"Southeast Asia","era":"c. 200 BCE-1900 CE","eraBucket":"ancient","color":"#4b9f74","bbox":"94,-11,141,25"}},{"type":"Feature","geometry":{"type":"Polygon","coordinates":[[[21,57],[29,57],[29,60.5],[21,60.5],[21,57]]]},"properties":{"id":"estonian","name":"Estonian Mythology","region":"Baltic Region","era":"c. 500 BCE-1800 CE","eraBucket":"ancient","color":"#3b82f6","bbox":"21,57,29,60.5"}}]}
