{"type":"FeatureCollection","features":[{"type":"Feature","id":"marduk","properties":{"id":"marduk","name":"Marduk","mythologyId":"mesopotamian","type":"god","era":"MÖ 1800","eraBucket":"ancient","description":"Supreme god of Babylon. Slew Tiamat and created the world from her body. Patron deity of Babylon and king of the gods.","imageUrl":"https://upload.wikimedia.org/wikipedia/commons/thumb/4/4e/Marduk_and_pet.jpg/440px-Marduk_and_pet.jpg","domains":"creation,magic,water,vegetation,judgment","color":"#D35400"},"geometry":{"type":"Point","coordinates":[44.42,32.54]}},{"type":"Feature","id":"ishtar-deity","properties":{"id":"ishtar-deity","name":"Ishtar","mythologyId":"mesopotamian","type":"goddess","era":"MÖ 3500","eraBucket":"ancient","description":"Goddess of love, war, and fertility. Queen of Heaven. Descended to the underworld and returned. Most important Mesopotamian goddess.","imageUrl":"https://upload.wikimedia.org/wikipedia/commons/thumb/8/80/British_Museum_Queen_of_the_Night.jpg/440px-British_Museum_Queen_of_the_Night.jpg","domains":"love,war,fertility,sex","color":"#D35400"},"geometry":{"type":"Point","coordinates":[44.37,33.31]}},{"type":"Feature","id":"enki","properties":{"id":"enki","name":"Enki","mythologyId":"mesopotamian","type":"god","era":"MÖ 3500","eraBucket":"ancient","description":"God of wisdom, freshwater, and magic. Saved humanity from the flood. Cunning and benevolent artificer who often sided with humans.","imageUrl":"https://upload.wikimedia.org/wikipedia/commons/thumb/3/3e/Pergamonmuseum_Ischtar-Tor_01.jpg/800px-Pergamonmuseum_Ischtar-Tor_01.jpg","domains":"wisdom,water,magic,crafts","color":"#D35400"},"geometry":{"type":"Point","coordinates":[46.1,30.96]}},{"type":"Feature","id":"enlil","properties":{"id":"enlil","name":"Enlil","mythologyId":"mesopotamian","type":"god","era":"MÖ 3500","eraBucket":"ancient","description":"King of the gods before Marduk's rise. God of wind, air, and authority. Decreed the great flood. Temple at Nippur was the most sacred in Mesopotamia.","imageUrl":"https://upload.wikimedia.org/wikipedia/commons/thumb/3/3e/Pergamonmuseum_Ischtar-Tor_01.jpg/800px-Pergamonmuseum_Ischtar-Tor_01.jpg","domains":"wind,air,storms,authority","color":"#D35400"},"geometry":{"type":"Point","coordinates":[45.24,32.2]}},{"type":"Feature","id":"tiamat","properties":{"id":"tiamat","name":"Tiamat","mythologyId":"mesopotamian","type":"monster","era":"MÖ 1800","eraBucket":"ancient","description":"Primordial salt-water goddess. Mother of the first gods. Raised an army of monsters when her children threatened her. Slain by Marduk — her body became heaven and earth.","imageUrl":"https://upload.wikimedia.org/wikipedia/commons/thumb/3/3e/Pergamonmuseum_Ischtar-Tor_01.jpg/800px-Pergamonmuseum_Ischtar-Tor_01.jpg","domains":"primordial-ocean,chaos,creation","color":"#D35400"},"geometry":{"type":"Point","coordinates":[44.42,32.54]}},{"type":"Feature","id":"gilgamesh-deity","properties":{"id":"gilgamesh-deity","name":"Gilgamesh","mythologyId":"mesopotamian","type":"demigod","era":"MÖ 2700","eraBucket":"ancient","description":"Semi-divine king of Uruk, two-thirds god. Protagonist of the world's oldest epic. Sought but failed to achieve immortality, finding legacy instead.","imageUrl":"https://upload.wikimedia.org/wikipedia/commons/thumb/5/52/Hero_lion_Dur-Sharrukin_Louvre_AO19862.jpg/440px-Hero_lion_Dur-Sharrukin_Louvre_AO19862.jpg","domains":"kingship,strength,quest,mortality","color":"#D35400"},"geometry":{"type":"Point","coordinates":[45.64,31.32]}},{"type":"Feature","id":"ereshkigal","properties":{"id":"ereshkigal","name":"Ereshkigal","mythologyId":"mesopotamian","type":"goddess","era":"MÖ 3000","eraBucket":"ancient","description":"Queen of the Underworld. Sister and mirror of Ishtar. Rules the Land of No Return. All who enter her domain are stripped of power.","imageUrl":"https://upload.wikimedia.org/wikipedia/commons/thumb/3/3e/Pergamonmuseum_Ischtar-Tor_01.jpg/800px-Pergamonmuseum_Ischtar-Tor_01.jpg","domains":"underworld,death,darkness","color":"#D35400"},"geometry":{"type":"Point","coordinates":[44.42,32.54]}},{"type":"Feature","id":"shamash","properties":{"id":"shamash","name":"Shamash","mythologyId":"mesopotamian","type":"god","era":"MÖ 3500","eraBucket":"ancient","description":"Sun god and god of justice. Gave laws to Hammurabi. Sees all things from his daily journey across the sky. Twin of Ishtar.","imageUrl":"https://upload.wikimedia.org/wikipedia/commons/thumb/3/3e/Pergamonmuseum_Ischtar-Tor_01.jpg/800px-Pergamonmuseum_Ischtar-Tor_01.jpg","domains":"sun,justice,truth,divination","color":"#D35400"},"geometry":{"type":"Point","coordinates":[44.42,32.54]}},{"type":"Feature","id":"sin-deity","properties":{"id":"sin-deity","name":"Sin","mythologyId":"mesopotamian","type":"god","era":"MÖ 3500","eraBucket":"ancient","description":"Moon god of Ur. Father of Shamash and Ishtar. Drove the crescent moon as a boat across the night sky. Patron of timekeeping.","imageUrl":"https://upload.wikimedia.org/wikipedia/commons/thumb/3/3e/Pergamonmuseum_Ischtar-Tor_01.jpg/800px-Pergamonmuseum_Ischtar-Tor_01.jpg","domains":"moon,time,wisdom,fertility","color":"#D35400"},"geometry":{"type":"Point","coordinates":[46.1,30.96]}},{"type":"Feature","id":"anu","properties":{"id":"anu","name":"Anu","mythologyId":"mesopotamian","type":"god","era":"MÖ 3500","eraBucket":"ancient","description":"Sky father and supreme authority among the Mesopotamian gods. Father of Enlil. His throne was the heavens. Distant and rarely intervened directly.","imageUrl":"https://upload.wikimedia.org/wikipedia/commons/thumb/3/3e/Pergamonmuseum_Ischtar-Tor_01.jpg/800px-Pergamonmuseum_Ischtar-Tor_01.jpg","domains":"sky,kingship,divine-authority","color":"#D35400"},"geometry":{"type":"Point","coordinates":[45.64,31.32]}}]}