{"type":"FeatureCollection","features":[{"type":"Feature","geometry":{"type":"Point","coordinates":[45.64,31.32]},"properties":{"id":"gilgamesh-quest","name":"Epic of Gilgamesh","mythologyId":"mesopotamian","type":"quest","era":"MÖ 2100","eraBucket":"ancient","summary":"King Gilgamesh of Uruk, two-thirds god, befriended the wild man Enkidu. Together they slew Humbaba and the Bull of Heaven. When Enkidu died, Gilgamesh sought immortality from flood-survivor Utnapishtim. He found the plant of youth but a serpent stole it. He returned home accepting mortality, his legacy being the walls of Uruk.","imageUrl":"https://upload.wikimedia.org/wikipedia/commons/thumb/7/7a/British_Museum_Flood_Tablet.jpg/960px-British_Museum_Flood_Tablet.jpg","themes":"immortality,friendship,mortality,quest,civilization"}},{"type":"Feature","geometry":{"type":"Point","coordinates":[44.42,32.54]},"properties":{"id":"enuma-elish","name":"Enuma Elish — Babylonian Creation","mythologyId":"mesopotamian","type":"creation","era":"MÖ 1750","eraBucket":"ancient","summary":"From the mixing of sweet water (Apsu) and salt water (Tiamat) came the first gods. When Apsu plotted to destroy them, Enki killed him. Tiamat raised an army of monsters. Marduk slew Tiamat, splitting her body to form heaven and earth. Humans were created from Kingu's blood to serve the gods.","imageUrl":"https://upload.wikimedia.org/wikipedia/commons/thumb/c/c3/Chaos_Monster_and_Sun_God.png/960px-Chaos_Monster_and_Sun_God.png","themes":"creation,cosmic-battle,divine-kingship,primordial-waters"}},{"type":"Feature","geometry":{"type":"Point","coordinates":[44.37,33.31]},"properties":{"id":"ishtar-descent","name":"Ishtar's Descent to the Underworld","mythologyId":"mesopotamian","type":"afterlife","era":"MÖ 1900","eraBucket":"ancient","summary":"Ishtar descended through the seven gates of the underworld, removing one garment at each gate until she stood naked before her sister Ereshkigal, queen of the dead. The world above withered without her. She was rescued but had to send a substitute — her lover Tammuz, who would spend half the year below.","imageUrl":"","themes":"descent,death,rebirth,sacrifice,seasons"}},{"type":"Feature","geometry":{"type":"Point","coordinates":[45.64,31.32]},"properties":{"id":"mesopotamian-flood","name":"The Great Flood (Utnapishtim)","mythologyId":"mesopotamian","type":"cosmology","era":"MÖ 2100","eraBucket":"ancient","summary":"The gods decided to destroy humanity with a flood. Enki warned Utnapishtim, who built a great boat and loaded it with animals and craftsmen. After seven days the flood subsided. Utnapishtim released a dove, swallow, and raven. The gods granted him immortality. This predates the biblical Noah story.","imageUrl":"https://upload.wikimedia.org/wikipedia/commons/thumb/7/7a/British_Museum_Flood_Tablet.jpg/440px-British_Museum_Flood_Tablet.jpg","themes":"flood,divine-judgment,survival,renewal,obedience"}},{"type":"Feature","geometry":{"type":"Point","coordinates":[45,32]},"properties":{"id":"mesopotamian-etana","name":"Etana — The King Who Flew to Heaven","mythologyId":"mesopotamian","type":"quest","era":"MÖ 2000","eraBucket":"ancient","summary":"King Etana of Kish had no heir. An eagle, punished for betraying a serpent, was rescued by Etana in exchange for carrying him to heaven to find the Plant of Birth. Riding the eagle ever higher, Etana looked down and the earth shrank to nothing. Whether he succeeded remains unknown — the tablet is broken.","imageUrl":"https://upload.wikimedia.org/wikipedia/commons/thumb/3/32/Fragment_of_the_Epic_of_Etana%2C_Akkadian%2C_Mesopotamia%2C_First_Dynasty_of_Babylon%2C_c._1895-1595_BC%2C_clay_-_Morgan_Library_%26_Museum_-_New_York_City_-_DSC06599.jpg/960px-Fragment_of_the_Epic_of_Etana%2C_Akkadian%2C_Mesopotamia%2C_First_Dynasty_of_Babylon%2C_c._1895-1595_BC%2C_clay_-_Morgan_Library_%26_Museum_-_New_York_City_-_DSC06599.jpg","themes":"flight,quest,kingship,partnership,heaven"}},{"type":"Feature","geometry":{"type":"Point","coordinates":[45.64,31.32]},"properties":{"id":"mesopotamian-adapa","name":"Adapa and Immortality Lost","mythologyId":"mesopotamian","type":"quest","era":"MÖ 1400","eraBucket":"ancient","summary":"Adapa, a wise priest of Enki, broke the wing of the South Wind. Summoned before Anu in heaven, Enki warned him not to eat or drink anything offered. Anu, impressed by Adapa's wisdom, offered the food and water of immortality. Following Enki's advice, Adapa refused — and humanity lost its chance at eternal life.","imageUrl":"","themes":"immortality,trickery,lost-opportunity,wisdom,divine-counsel"}}]}
