{"type":"FeatureCollection","features":[{"type":"Feature","id":"babylon","properties":{"id":"babylon","name":"Babylon — Gate of the Gods","mythologyId":"mesopotamian","mythologyName":"Mesopotamian Mythology","type":"city","era":"MÖ 1800","eraBucket":"ancient","description":"Sacred city of Marduk with the Ishtar Gate, Hanging Gardens, and the ziggurat Etemenanki ('Tower of Babel'). Center of the known world.","imageUrl":"https://upload.wikimedia.org/wikipedia/commons/thumb/3/3e/Pergamonmuseum_Ischtar-Tor_01.jpg/800px-Pergamonmuseum_Ischtar-Tor_01.jpg","country":"Iraq","modernStatus":"UNESCO World Heritage Site, partially reconstructed","tags":"city,ishtar-gate,tower","color":"#D35400"},"geometry":{"type":"Point","coordinates":[44.42,32.54]}},{"type":"Feature","id":"ur-ziggurat","properties":{"id":"ur-ziggurat","name":"Great Ziggurat of Ur","mythologyId":"mesopotamian","mythologyName":"Mesopotamian Mythology","type":"temple","era":"MÖ 2100","eraBucket":"ancient","description":"Massive stepped pyramid dedicated to the moon god Nanna/Sin. Originally covered in blue-glazed brick shining like the moon.","imageUrl":"https://upload.wikimedia.org/wikipedia/commons/thumb/3/3e/Pergamonmuseum_Ischtar-Tor_01.jpg/800px-Pergamonmuseum_Ischtar-Tor_01.jpg","country":"Iraq","modernStatus":"Partially restored, near Nasiriyah air base","tags":"ziggurat,moon,sumerian","color":"#D35400"},"geometry":{"type":"Point","coordinates":[46.1,30.96]}},{"type":"Feature","id":"nineveh","properties":{"id":"nineveh","name":"Nineveh — Library of Ashurbanipal","mythologyId":"mesopotamian","mythologyName":"Mesopotamian Mythology","type":"city","era":"MÖ 2500","eraBucket":"ancient","description":"Assyrian capital where the Library of Ashurbanipal preserved 30,000+ clay tablets, including the Epic of Gilgamesh and Enuma Elish.","imageUrl":"https://upload.wikimedia.org/wikipedia/commons/thumb/3/3e/Pergamonmuseum_Ischtar-Tor_01.jpg/800px-Pergamonmuseum_Ischtar-Tor_01.jpg","country":"Iraq","modernStatus":"Archaeological site, severely damaged by ISIS in 2015","tags":"library,tablets,gilgamesh","color":"#D35400"},"geometry":{"type":"Point","coordinates":[43.15,36.36]}}]}