{"type":"FeatureCollection","features":[{"type":"Feature","geometry":{"type":"Point","coordinates":[30.52,50.45]},"properties":{"id":"perun","name":"Perun","mythologyId":"slavic","type":"god","era":"MÖ 500","eraBucket":"ancient","description":"Supreme god of the Slavic pantheon. Thunder god who battles the serpent Veles in an eternal cosmic struggle. Associated with oak trees.","imageUrl":"https://upload.wikimedia.org/wikipedia/commons/8/8b/Saint_George_slays_the_dragon%2C_Croatia%2C_8th_century.jpg","domains":"thunder,lightning,war,oak,justice","color":"#8E44AD"}},{"type":"Feature","geometry":{"type":"Point","coordinates":[30.52,50.45]},"properties":{"id":"veles","name":"Veles","mythologyId":"slavic","type":"god","era":"MÖ 500","eraBucket":"ancient","description":"God of the underworld, cattle, and magic. Eternal adversary of Perun. Associated with serpents, wealth, and poetry.","imageUrl":"https://upload.wikimedia.org/wikipedia/commons/thumb/0/07/Symbol_of_Veles.svg/960px-Symbol_of_Veles.svg.png","domains":"underworld,cattle,magic,water,music","color":"#8E44AD"}},{"type":"Feature","geometry":{"type":"Point","coordinates":[37.62,55.75]},"properties":{"id":"svarog","name":"Svarog","mythologyId":"slavic","type":"god","era":"MÖ 500","eraBucket":"ancient","description":"Slavic sky-smith god who forged the sun. Father of the sun god Dazhbog and fire god Svarozhich. Created law and civilization through the forge.","imageUrl":"","domains":"sky,fire,forge,sun","color":"#8E44AD"}},{"type":"Feature","geometry":{"type":"Point","coordinates":[30.52,50.45]},"properties":{"id":"mokosh","name":"Mokosh","mythologyId":"slavic","type":"goddess","era":"MÖ 500","eraBucket":"ancient","description":"Mother Earth goddess. Protector of women, spinning, and weaving. Last pagan deity worshipped in Eastern Europe. Connected to moisture and fertility.","imageUrl":"https://upload.wikimedia.org/wikipedia/commons/thumb/8/82/%D0%94%D0%B2%D0%B0%D0%B4%D1%86%D0%B0%D1%82%D1%8C_%D0%BF%D1%8F%D1%82%D1%8B%D0%B9_%D0%BB%D0%B8%D1%81%D1%82_%D0%9B%D0%B0%D0%B2%D1%80%D0%B5%D0%BD%D1%82%D1%8C%D0%B5%D0%B2%D1%81%D0%BA%D0%BE%D0%B9_%D0%BB%D0%B5%D1%82%D0%BE%D0%BF%D0%B8%D1%81%D0%B8_%28%D0%9C%D0%BE%D0%BA%D0%BE%D1%88%D1%8C%29.jpg/960px-%D0%94%D0%B2%D0%B0%D0%B4%D1%86%D0%B0%D1%82%D1%8C_%D0%BF%D1%8F%D1%82%D1%8B%D0%B9_%D0%BB%D0%B8%D1%81%D1%82_%D0%9B%D0%B0%D0%B2%D1%80%D0%B5%D0%BD%D1%82%D1%8C%D0%B5%D0%B2%D1%81%D0%BA%D0%BE%D0%B9_%D0%BB%D0%B5%D1%82%D0%BE%D0%BF%D0%B8%D1%81%D0%B8_%28%D0%9C%D0%BE%D0%BA%D0%BE%D1%88%D1%8C%29.jpg","domains":"earth,fertility,spinning,women","color":"#8E44AD"}},{"type":"Feature","geometry":{"type":"Point","coordinates":[37.62,55.75]},"properties":{"id":"baba-yaga-deity","name":"Baba Yaga","mythologyId":"slavic","type":"spirit","era":"ancient","eraBucket":"ancient","description":"Ancient forest witch living in a hut on chicken legs. Both terrifying and helpful. Tests heroes with impossible tasks. Mortar and pestle are her vehicle.","imageUrl":"https://upload.wikimedia.org/wikipedia/commons/6/6c/%D0%A1%D0%BA%D0%B0%D0%B7%D0%BA%D0%B0_%D0%91%D0%B0%D0%B1%D0%B0-%D1%8F%D0%B3%D0%B0_3.jpg","domains":"witchcraft,forest,death,wisdom","color":"#8E44AD"}},{"type":"Feature","geometry":{"type":"Point","coordinates":[30.52,50.45]},"properties":{"id":"dazhbog","name":"Dazhbog","mythologyId":"slavic","type":"god","era":"MÖ 500","eraBucket":"ancient","description":"Slavic sun god, son of Svarog the sky-smith. Giver of wealth and abundance. Ancestor of all Slavic people according to the Tale of Igor's Campaign.","imageUrl":"","domains":"sun,fire,rain,abundance","color":"#8E44AD"}},{"type":"Feature","geometry":{"type":"Point","coordinates":[30.52,50.45]},"properties":{"id":"stribog","name":"Stribog","mythologyId":"slavic","type":"god","era":"MÖ 500","eraBucket":"ancient","description":"Slavic god of wind, air, and storms. Grandfather of the winds. Winds were called his grandchildren in the Tale of Igor's Campaign.","imageUrl":"","domains":"wind,air,storms","color":"#8E44AD"}},{"type":"Feature","geometry":{"type":"Point","coordinates":[30.52,50.45]},"properties":{"id":"rod-deity","name":"Rod","mythologyId":"slavic","type":"god","era":"MÖ 500","eraBucket":"ancient","description":"Supreme creator god of Slavic religion. Broke the cosmic egg to create the universe. Father of all beings and cosmic order.","imageUrl":"","domains":"creation,fate,ancestors,cosmos","color":"#8E44AD"}}]}
