{"type":"FeatureCollection","features":[{"type":"Feature","id":"perun-veles","properties":{"id":"perun-veles","name":"Perun vs Veles","mythologyId":"slavic","type":"cosmology","era":"MÖ 500","eraBucket":"ancient","summary":"The thunder god Perun eternally battles the chthonic serpent-god Veles, who steals cattle, water, or Perun's wife from the heavens. Perun hurls lightning to strike Veles, who hides in trees, animals, or water. The cycle of theft and retribution mirrors the seasonal cycle and the cosmic order.","imageUrl":"https://upload.wikimedia.org/wikipedia/commons/thumb/b/b2/St_Basils_Cathedral-500px.jpg/500px-St_Basils_Cathedral-500px.jpg","themes":"cosmic-battle,thunder,serpent,cycles,divine-conflict"},"geometry":{"type":"Point","coordinates":[30.52,50.45]}},{"type":"Feature","id":"baba-yaga","properties":{"id":"baba-yaga","name":"Baba Yaga and Vasilisa","mythologyId":"slavic","type":"quest","era":"MS 1600","eraBucket":"modern","summary":"Orphaned Vasilisa was sent by her stepmother to fetch fire from Baba Yaga, the fearsome witch who lives in a hut on chicken legs, surrounded by a fence of bones. Using her dead mother's magical doll for guidance, Vasilisa completed impossible tasks and obtained fire that burned her cruel stepfamily.","imageUrl":"https://upload.wikimedia.org/wikipedia/commons/thumb/b/b2/St_Basils_Cathedral-500px.jpg/500px-St_Basils_Cathedral-500px.jpg","themes":"quest,witch,cleverness,fire,maternal-protection"},"geometry":{"type":"Point","coordinates":[37.62,55.75]}},{"type":"Feature","id":"slavic-creation","properties":{"id":"slavic-creation","name":"Rod Creates the Universe","mythologyId":"slavic","type":"creation","era":"MÖ 500","eraBucket":"ancient","summary":"Rod, the supreme creator, broke the cosmic egg to create the universe. Light and darkness, earth and sky separated. He created Svarog the sky-smith who forged the sun. The Rozhanitsy (Rod's daughters) wove the fates of all living beings. Rod breathed life into everything and retired to the highest heaven.","imageUrl":"https://upload.wikimedia.org/wikipedia/commons/thumb/b/b2/St_Basils_Cathedral-500px.jpg/500px-St_Basils_Cathedral-500px.jpg","themes":"creation,cosmic-egg,light-dark,fate,smith"},"geometry":{"type":"Point","coordinates":[30.52,50.45]}},{"type":"Feature","id":"slavic-rusalki","properties":{"id":"slavic-rusalki","name":"The Rusalki — Water Spirits","mythologyId":"slavic","type":"nature","era":"MÖ 500","eraBucket":"ancient","summary":"Rusalki are water spirits — souls of young women who died violently near water. They emerge during Rusalka Week in early summer, dancing in moonlit meadows and forests. Their beauty enchants young men, whom they lure into rivers to drown. Green wreaths and garlic protect against them.","imageUrl":"https://upload.wikimedia.org/wikipedia/commons/thumb/b/b2/St_Basils_Cathedral-500px.jpg/500px-St_Basils_Cathedral-500px.jpg","themes":"water,death,seduction,spirits,seasonal"},"geometry":{"type":"Point","coordinates":[30.52,50.45]}},{"type":"Feature","id":"slavic-firebird","properties":{"id":"slavic-firebird","name":"The Firebird (Zhar-Ptitsa)","mythologyId":"slavic","type":"quest","era":"MS 1600","eraBucket":"modern","summary":"Prince Ivan pursued the Firebird that was stealing golden apples. Guided by a grey wolf, he endured trials — capturing the bird, stealing a golden horse, and rescuing a princess. His jealous brothers killed him, but the wolf brought him back to life. Ivan married the princess and claimed the kingdom.","imageUrl":"https://upload.wikimedia.org/wikipedia/commons/thumb/b/b2/St_Basils_Cathedral-500px.jpg/500px-St_Basils_Cathedral-500px.jpg","themes":"quest,firebird,wolf-helper,betrayal,resurrection"},"geometry":{"type":"Point","coordinates":[37.62,55.75]}}]}