{"type":"FeatureCollection","features":[{"type":"Feature","id":"kremlin-moscow","properties":{"id":"kremlin-moscow","name":"Moscow Kremlin — Fortress of the Tsars","mythologyId":"slavic","mythologyName":"Slavic Mythology","type":"city","era":"MS 1156","eraBucket":"medieval","description":"Fortified complex built on a hill sacred since Slavic pagan times. Contains cathedrals, palaces, and the Tsar Bell. Political and spiritual heart of Russia.","imageUrl":"https://upload.wikimedia.org/wikipedia/commons/thumb/b/b2/St_Basils_Cathedral-500px.jpg/500px-St_Basils_Cathedral-500px.jpg","country":"Russia","modernStatus":"UNESCO World Heritage Site, seat of Russian government","tags":"fortress,kremlin,capital","color":"#8E44AD"},"geometry":{"type":"Point","coordinates":[37.62,55.75]}}]}