{"type":"FeatureCollection","features":[{"type":"Feature","id":"tengri","properties":{"id":"tengri","name":"Tengri","mythologyId":"turkic","type":"god","era":"MÖ 1000","eraBucket":"ancient","description":"Supreme sky god of the Turkic peoples. Eternal Blue Heaven. Source of all power and destiny. Not depicted in human form.","imageUrl":"https://upload.wikimedia.org/wikipedia/commons/thumb/4/4f/Orkhon.jpg/1280px-Orkhon.jpg","domains":"sky,fate,cosmic-order","color":"#C0392B"},"geometry":{"type":"Point","coordinates":[106.91,47.91]}},{"type":"Feature","id":"umay","properties":{"id":"umay","name":"Umay","mythologyId":"turkic","type":"goddess","era":"MÖ 1000","eraBucket":"ancient","description":"Mother goddess of the Turkic peoples. Protector of children and pregnant women. Embodiment of the creative feminine principle.","imageUrl":"https://upload.wikimedia.org/wikipedia/commons/thumb/4/4f/Orkhon.jpg/1280px-Orkhon.jpg","domains":"fertility,motherhood,children,protection","color":"#C0392B"},"geometry":{"type":"Point","coordinates":[106.91,47.91]}},{"type":"Feature","id":"erlik","properties":{"id":"erlik","name":"Erlik","mythologyId":"turkic","type":"god","era":"MÖ 1000","eraBucket":"ancient","description":"Lord of the underworld in Turkic-Mongol mythology. First being created but fell into evil. Rules the lower world. Shamans must placate him.","imageUrl":"https://upload.wikimedia.org/wikipedia/commons/thumb/4/4f/Orkhon.jpg/1280px-Orkhon.jpg","domains":"underworld,death,evil,disease","color":"#C0392B"},"geometry":{"type":"Point","coordinates":[106.91,47.91]}}]}