{"type":"FeatureCollection","features":[{"type":"Feature","geometry":{"type":"Point","coordinates":[106.91,47.91]},"properties":{"id":"ergenekon","name":"Ergenekon — Birth of the Turks","mythologyId":"turkic","type":"hero","era":"MS 600","eraBucket":"medieval","summary":"After a devastating defeat, the last surviving Turks fled to the mythical Ergenekon valley, surrounded by impassable mountains. For generations they lived in isolation. When they grew too numerous, a blacksmith melted the iron mountain with a great fire, and a grey wolf (Bozkurt) led them out to conquer the steppe.","imageUrl":"","themes":"rebirth,wolf-totem,escape,forge,national-identity"}},{"type":"Feature","geometry":{"type":"Point","coordinates":[43.88,39.77]},"properties":{"id":"dede-korkut","name":"Book of Dede Korkut","mythologyId":"turkic","type":"hero","era":"MS 1400","eraBucket":"medieval","summary":"The epic tales of Dede Korkut recount the adventures of Oghuz Turkish heroes. Bamsi Beyrek endures trials to marry his beloved. Kan Turali fights monsters to win a warrior princess. The wise bard Dede Korkut advises and narrates, his songs shaping destiny. Each tale upholds honor, bravery, and loyalty.","imageUrl":"https://upload.wikimedia.org/wikipedia/commons/f/fb/Kitab-%C4%B1_Dede_Korkut_ala-lisan-i_Ta%27ife-i_O%C4%9Fuzhan%2C_Dresden.jpg","themes":"heroism,honor,love,wisdom,warrior-culture"}},{"type":"Feature","geometry":{"type":"Point","coordinates":[106.91,47.91]},"properties":{"id":"turkic-creation","name":"Tengri and the World Tree","mythologyId":"turkic","type":"cosmology","era":"MÖ 500","eraBucket":"ancient","summary":"The Turkic cosmos is organized around a great World Tree connecting three realms: the upper sky-realm of Tengri, the middle world of humans, and the lower realm of Erlik. Shamans climb the tree in trance to communicate between worlds. Sixteen-layered heavens and seven-layered underworld contain various spirits.","imageUrl":"","themes":"cosmos,world-tree,shamanism,three-realms,spirits"}},{"type":"Feature","geometry":{"type":"Point","coordinates":[74.59,42.87]},"properties":{"id":"turkic-alp-er-tunga","name":"Alp Er Tunga — The Great King","mythologyId":"turkic","type":"hero","era":"MÖ 600","eraBucket":"ancient","summary":"Alp Er Tunga (identified with the Persian Afrasiyab) was a legendary Turkic king who waged wars against Iran. His death was sung in elegies across the Turkic world. Mahmud of Kashgar recorded mourning poems in the Divan. He represented the ideal Turkic ruler — brave, just, and fierce in battle.","imageUrl":"","themes":"heroism,death,mourning,kingship,warfare"}}]}
