{"type":"FeatureCollection","features":[{"type":"Feature","geometry":{"type":"Point","coordinates":[38.92,37.22]},"properties":{"id":"gobekli-tepe","name":"Göbekli Tepe","mythologyId":"turkic","mythologyName":"Turkish / Tengrist Mythology","type":"temple","era":"MÖ 9600","eraBucket":"ancient","description":"World's oldest known temple (11,600 years old), predating agriculture. Massive carved pillars depicting animals in ritual context.","imageUrl":"https://upload.wikimedia.org/wikipedia/commons/thumb/d/d5/G%C3%B6bekli_Tepe%2C_Urfa.jpg/960px-G%C3%B6bekli_Tepe%2C_Urfa.jpg","country":"Turkey","modernStatus":"UNESCO World Heritage Site, ongoing excavation","tags":"oldest-temple,neolithic,pillars","color":"#C0392B"}},{"type":"Feature","geometry":{"type":"Point","coordinates":[102.83,47.55]},"properties":{"id":"orkhon-valley","name":"Orkhon Valley","mythologyId":"turkic","mythologyName":"Turkish / Tengrist Mythology","type":"natural","era":"MS 735","eraBucket":"medieval","description":"Sacred valley of the ancient Turks and Mongols. Contains the Orkhon inscriptions — oldest known Turkic writing. Capital of the Göktürk, Uighur, and Mongol empires.","imageUrl":"https://upload.wikimedia.org/wikipedia/commons/thumb/6/63/Orchon-mongolei.JPG/960px-Orchon-mongolei.JPG","country":"Mongolia","modernStatus":"UNESCO World Heritage Site","tags":"valley,inscriptions,turkic","color":"#C0392B"}},{"type":"Feature","geometry":{"type":"Point","coordinates":[26.56,41.68]},"properties":{"id":"selimiye","name":"Selimiye Mosque (Edirne)","mythologyId":"turkic","mythologyName":"Turkish / Tengrist Mythology","type":"temple","era":"MS 1575","eraBucket":"modern","description":"Mimar Sinan's masterpiece, the pinnacle of Ottoman architecture. Dome surpasses Hagia Sophia. Represents celestial harmony in form.","imageUrl":"https://upload.wikimedia.org/wikipedia/commons/thumb/0/0f/Selimiye_Mosque_%2815051985908%29_%28cropped%29.jpg/960px-Selimiye_Mosque_%2815051985908%29_%28cropped%29.jpg","country":"Turkey","modernStatus":"UNESCO World Heritage Site, active mosque","tags":"mosque,masterpiece,dome","color":"#C0392B"}}]}
