{"type":"FeatureCollection","features":[{"type":"Feature","geometry":{"type":"Point","coordinates":[32.85,39.93]},"properties":{"id":"attis","name":"Attis","mythologyId":"hellenistic-syncretic","type":"god","era":"c. 300 BCE","eraBucket":"ancient","description":"Anatolian-Hellenistic deity linked to cyclical death-rebirth cult motifs and mystery traditions.","imageUrl":"https://upload.wikimedia.org/wikipedia/commons/thumb/5/5e/Statue_of_Attis%2C_2nd_half_of_2nd_century_AD%2C_from_the_Hierapolis_Agora%2C_Hierapolis_Archaeology_Museum%2C_Turkey_%2817234601835%29.jpg/960px-Statue_of_Attis%2C_2nd_half_of_2nd_century_AD%2C_from_the_Hierapolis_Agora%2C_Hierapolis_Archaeology_Museum%2C_Turkey_%2817234601835%29.jpg","domains":"vegetation,rebirth,initiation","color":"#7c3aed"}}]}
