{"type":"FeatureCollection","features":[{"type":"Feature","id":"vishnu","properties":{"id":"vishnu","name":"Vishnu","mythologyId":"hindu","type":"god","era":"MÖ 1500","eraBucket":"ancient","description":"The Preserver in the Hindu trinity. Incarnates as avatars whenever dharma declines. Ten avatars include Rama, Krishna, and Buddha.","imageUrl":"https://upload.wikimedia.org/wikipedia/commons/thumb/5/5f/Taj_Mahal_2012.jpg/1280px-Taj_Mahal_2012.jpg","domains":"preservation,protection,order","color":"#E74C3C"},"geometry":{"type":"Point","coordinates":[77.21,28.61]}},{"type":"Feature","id":"shiva","properties":{"id":"shiva","name":"Shiva","mythologyId":"hindu","type":"god","era":"MÖ 1500","eraBucket":"ancient","description":"The Destroyer and Transformer. Meditates on Mount Kailash. Performs the cosmic dance (Tandava). Third eye unleashes destructive fire.","imageUrl":"https://upload.wikimedia.org/wikipedia/commons/thumb/5/5f/Taj_Mahal_2012.jpg/1280px-Taj_Mahal_2012.jpg","domains":"destruction,dance,meditation,yoga","color":"#E74C3C"},"geometry":{"type":"Point","coordinates":[79.07,30.08]}},{"type":"Feature","id":"brahma","properties":{"id":"brahma","name":"Brahma","mythologyId":"hindu","type":"god","era":"MÖ 1500","eraBucket":"ancient","description":"The Creator in the Hindu trinity. Born from Vishnu's navel on a lotus. Created the universe and all living beings. Has four faces.","imageUrl":"https://upload.wikimedia.org/wikipedia/commons/thumb/5/5f/Taj_Mahal_2012.jpg/1280px-Taj_Mahal_2012.jpg","domains":"creation,knowledge,vedas","color":"#E74C3C"},"geometry":{"type":"Point","coordinates":[74.56,26.47]}},{"type":"Feature","id":"ganesha","properties":{"id":"ganesha","name":"Ganesha","mythologyId":"hindu","type":"god","era":"MS 400","eraBucket":"ancient","description":"Elephant-headed god of beginnings, wisdom, and obstacle removal. Son of Shiva and Parvati. Invoked at the start of every new venture.","imageUrl":"https://upload.wikimedia.org/wikipedia/commons/thumb/5/5f/Taj_Mahal_2012.jpg/1280px-Taj_Mahal_2012.jpg","domains":"beginnings,wisdom,obstacles,learning","color":"#E74C3C"},"geometry":{"type":"Point","coordinates":[72.88,19.08]}},{"type":"Feature","id":"hanuman-deity","properties":{"id":"hanuman-deity","name":"Hanuman","mythologyId":"hindu","type":"god","era":"MÖ 500","eraBucket":"ancient","description":"Monkey god of devotion and strength. Son of Vayu (wind). Supreme devotee of Rama. Can change size and fly across oceans.","imageUrl":"https://upload.wikimedia.org/wikipedia/commons/thumb/5/5f/Taj_Mahal_2012.jpg/1280px-Taj_Mahal_2012.jpg","domains":"devotion,strength,courage,wind","color":"#E74C3C"},"geometry":{"type":"Point","coordinates":[80.33,26.45]}},{"type":"Feature","id":"durga","properties":{"id":"durga","name":"Durga","mythologyId":"hindu","type":"goddess","era":"MS 400","eraBucket":"ancient","description":"The supreme goddess created from the combined energies of all gods. Rides a lion/tiger. Slayer of the buffalo demon Mahishasura.","imageUrl":"https://upload.wikimedia.org/wikipedia/commons/thumb/5/5f/Taj_Mahal_2012.jpg/1280px-Taj_Mahal_2012.jpg","domains":"war,protection,feminine-power,demon-slaying","color":"#E74C3C"},"geometry":{"type":"Point","coordinates":[88.36,22.57]}},{"type":"Feature","id":"krishna","properties":{"id":"krishna","name":"Krishna","mythologyId":"hindu","type":"god","era":"MÖ 400","eraBucket":"ancient","description":"Eighth avatar of Vishnu. Divine child, lover, warrior, and philosopher. Delivered the Bhagavad Gita. Played enchanting flute.","imageUrl":"https://upload.wikimedia.org/wikipedia/commons/thumb/5/5f/Taj_Mahal_2012.jpg/1280px-Taj_Mahal_2012.jpg","domains":"love,protection,wisdom,divine-play","color":"#E74C3C"},"geometry":{"type":"Point","coordinates":[77.68,27.49]}},{"type":"Feature","id":"rama","properties":{"id":"rama","name":"Rama","mythologyId":"hindu","type":"god","era":"MÖ 500","eraBucket":"ancient","description":"Seventh avatar of Vishnu. Ideal king (maryada purushottam). His story is the Ramayana. Embodiment of dharma and righteous rule.","imageUrl":"https://upload.wikimedia.org/wikipedia/commons/thumb/6/6b/Rama_with_Sita.jpg/440px-Rama_with_Sita.jpg","domains":"righteousness,kingship,virtue,archery","color":"#E74C3C"},"geometry":{"type":"Point","coordinates":[80.33,26.45]}},{"type":"Feature","id":"parvati","properties":{"id":"parvati","name":"Parvati","mythologyId":"hindu","type":"goddess","era":"MÖ 500","eraBucket":"ancient","description":"Goddess of love, fertility, and devotion. Wife of Shiva. Mother of Ganesha and Kartikeya. Gentle form of Shakti (divine feminine power).","imageUrl":"https://upload.wikimedia.org/wikipedia/commons/thumb/5/5f/Taj_Mahal_2012.jpg/1280px-Taj_Mahal_2012.jpg","domains":"love,fertility,devotion,power","color":"#E74C3C"},"geometry":{"type":"Point","coordinates":[79.07,30.08]}},{"type":"Feature","id":"lakshmi","properties":{"id":"lakshmi","name":"Lakshmi","mythologyId":"hindu","type":"goddess","era":"MÖ 500","eraBucket":"ancient","description":"Goddess of wealth, fortune, and beauty. Wife of Vishnu. Emerged from the churning of the cosmic ocean. Worshipped during Diwali.","imageUrl":"https://upload.wikimedia.org/wikipedia/commons/thumb/5/5f/Taj_Mahal_2012.jpg/1280px-Taj_Mahal_2012.jpg","domains":"wealth,fortune,love,beauty","color":"#E74C3C"},"geometry":{"type":"Point","coordinates":[77.21,28.61]}},{"type":"Feature","id":"saraswati","properties":{"id":"saraswati","name":"Saraswati","mythologyId":"hindu","type":"goddess","era":"MÖ 1000","eraBucket":"ancient","description":"Goddess of knowledge, music, and the arts. Wife of Brahma. Sits on a white lotus playing the veena. Her blessings are sought before study.","imageUrl":"https://upload.wikimedia.org/wikipedia/commons/thumb/5/5f/Taj_Mahal_2012.jpg/1280px-Taj_Mahal_2012.jpg","domains":"knowledge,music,arts,learning,speech","color":"#E74C3C"},"geometry":{"type":"Point","coordinates":[77.21,28.61]}},{"type":"Feature","id":"indra","properties":{"id":"indra","name":"Indra","mythologyId":"hindu","type":"god","era":"MÖ 1500","eraBucket":"ancient","description":"King of the Vedic gods. Thunder god who slew the dragon Vritra to release the waters. Most prominent deity in the Rig Veda.","imageUrl":"https://upload.wikimedia.org/wikipedia/commons/thumb/5/5f/Taj_Mahal_2012.jpg/1280px-Taj_Mahal_2012.jpg","domains":"thunder,rain,war,heaven","color":"#E74C3C"},"geometry":{"type":"Point","coordinates":[77.21,28.61]}},{"type":"Feature","id":"kali","properties":{"id":"kali","name":"Kali","mythologyId":"hindu","type":"goddess","era":"MS 600","eraBucket":"medieval","description":"Fierce goddess of destruction and time. Dark-skinned, garlanded with skulls. Destroys evil and ego. Dances on Shiva. Liberator of souls.","imageUrl":"https://upload.wikimedia.org/wikipedia/commons/thumb/5/5f/Taj_Mahal_2012.jpg/1280px-Taj_Mahal_2012.jpg","domains":"destruction,time,death,liberation","color":"#E74C3C"},"geometry":{"type":"Point","coordinates":[88.36,22.57]}},{"type":"Feature","id":"yama-deity","properties":{"id":"yama-deity","name":"Yama","mythologyId":"hindu","type":"god","era":"MÖ 1500","eraBucket":"ancient","description":"God of death and justice. First mortal to die, he became ruler of the dead. Rides a buffalo. Weighs deeds with perfect dharmic balance.","imageUrl":"https://upload.wikimedia.org/wikipedia/commons/thumb/5/5f/Taj_Mahal_2012.jpg/1280px-Taj_Mahal_2012.jpg","domains":"death,justice,dharma,ancestors","color":"#E74C3C"},"geometry":{"type":"Point","coordinates":[77.21,28.61]}},{"type":"Feature","id":"agni","properties":{"id":"agni","name":"Agni","mythologyId":"hindu","type":"god","era":"MÖ 1500","eraBucket":"ancient","description":"God of fire and the divine messenger. Present in every sacrificial fire, carrying offerings to the gods. Second most mentioned deity in the Rig Veda after Indra.","imageUrl":"https://upload.wikimedia.org/wikipedia/commons/thumb/5/5f/Taj_Mahal_2012.jpg/1280px-Taj_Mahal_2012.jpg","domains":"fire,sacrifice,messenger","color":"#E74C3C"},"geometry":{"type":"Point","coordinates":[77.21,28.61]}},{"type":"Feature","id":"surya","properties":{"id":"surya","name":"Surya","mythologyId":"hindu","type":"god","era":"MÖ 1500","eraBucket":"ancient","description":"Sun god who rides a chariot drawn by seven horses across the sky. Father of Yama and the Ashvins. Konark Sun Temple is dedicated to him.","imageUrl":"https://upload.wikimedia.org/wikipedia/commons/thumb/5/5f/Taj_Mahal_2012.jpg/1280px-Taj_Mahal_2012.jpg","domains":"sun,light,health,time","color":"#E74C3C"},"geometry":{"type":"Point","coordinates":[75.79,26.92]}},{"type":"Feature","id":"vayu","properties":{"id":"vayu","name":"Vayu","mythologyId":"hindu","type":"god","era":"MÖ 1500","eraBucket":"ancient","description":"God of wind and breath. Father of Hanuman and Bhima. Represents the life-force (prana). One of the oldest Vedic deities.","imageUrl":"https://upload.wikimedia.org/wikipedia/commons/thumb/5/5f/Taj_Mahal_2012.jpg/1280px-Taj_Mahal_2012.jpg","domains":"wind,breath,life-force","color":"#E74C3C"},"geometry":{"type":"Point","coordinates":[77.21,28.61]}},{"type":"Feature","id":"sita","properties":{"id":"sita","name":"Sita","mythologyId":"hindu","type":"goddess","era":"MÖ 500","eraBucket":"ancient","description":"Wife of Rama, avatar of Lakshmi. Born from the earth. Abducted by Ravana and rescued. Embodiment of wifely devotion and moral purity.","imageUrl":"https://upload.wikimedia.org/wikipedia/commons/thumb/6/6b/Rama_with_Sita.jpg/440px-Rama_with_Sita.jpg","domains":"earth,purity,devotion,wifely-virtue","color":"#E74C3C"},"geometry":{"type":"Point","coordinates":[85.92,26.77]}},{"type":"Feature","id":"radha","properties":{"id":"radha","name":"Radha","mythologyId":"hindu","type":"goddess","era":"MS 1200","eraBucket":"medieval","description":"Supreme beloved of Krishna. Their love represents the soul's longing for the divine. Not mentioned in early texts but central to later bhakti devotion.","imageUrl":"https://upload.wikimedia.org/wikipedia/commons/thumb/5/5f/Taj_Mahal_2012.jpg/1280px-Taj_Mahal_2012.jpg","domains":"divine-love,devotion,beauty","color":"#E74C3C"},"geometry":{"type":"Point","coordinates":[77.68,27.49]}},{"type":"Feature","id":"kartikeya","properties":{"id":"kartikeya","name":"Kartikeya","mythologyId":"hindu","type":"god","era":"MS 200","eraBucket":"ancient","description":"God of war and son of Shiva. Six-faced, rides a peacock. Commander of the divine army. Extremely popular in South India as Murugan.","imageUrl":"https://upload.wikimedia.org/wikipedia/commons/thumb/5/5f/Taj_Mahal_2012.jpg/1280px-Taj_Mahal_2012.jpg","domains":"war,youth,valor,mountains","color":"#E74C3C"},"geometry":{"type":"Point","coordinates":[79.82,10.95]}},{"type":"Feature","id":"kama","properties":{"id":"kama","name":"Kama","mythologyId":"hindu","type":"god","era":"MÖ 500","eraBucket":"ancient","description":"God of love and desire. Shoots flower arrows from a sugarcane bow. Burned to ash by Shiva's third eye but later reborn as Krishna's son Pradyumna.","imageUrl":"https://upload.wikimedia.org/wikipedia/commons/thumb/5/5f/Taj_Mahal_2012.jpg/1280px-Taj_Mahal_2012.jpg","domains":"desire,love,spring,attraction","color":"#E74C3C"},"geometry":{"type":"Point","coordinates":[77.21,28.61]}}]}