{"type":"FeatureCollection","features":[{"type":"Feature","geometry":{"type":"Point","coordinates":[76.83,29.97]},"properties":{"id":"mahabharata-war","name":"Mahabharata — Kurukshetra War","mythologyId":"hindu","type":"war","era":"MÖ 400","eraBucket":"ancient","summary":"The great war between the Pandava and Kaurava cousins for the throne of Hastinapura lasted eighteen days. Krishna served as Arjuna's charioteer, delivering the Bhagavad Gita on the battlefield. The Pandavas won but at devastating cost, with almost all warriors dead. The epic addresses dharma, duty, and cosmic justice.","imageUrl":"https://upload.wikimedia.org/wikipedia/commons/thumb/b/ba/Kurukshetra.jpg/640px-Kurukshetra.jpg","themes":"war,duty,dharma,cosmic-justice,family-conflict"}},{"type":"Feature","geometry":{"type":"Point","coordinates":[80.33,26.45]},"properties":{"id":"ramayana","name":"Ramayana — Rama's Journey","mythologyId":"hindu","type":"quest","era":"MÖ 500","eraBucket":"ancient","summary":"Prince Rama was exiled for fourteen years with his wife Sita and brother Lakshmana. The demon king Ravana abducted Sita to Lanka. Rama allied with Hanuman and the monkey army, built a bridge across the ocean, and defeated Ravana. He returned to Ayodhya as king, celebrated as the festival Diwali.","imageUrl":"https://upload.wikimedia.org/wikipedia/commons/thumb/c/c2/R%C4%81ma_slays_R%C4%81va%E1%B9%87a.png/960px-R%C4%81ma_slays_R%C4%81va%E1%B9%87a.png","themes":"exile,rescue,devotion,duty,good-vs-evil"}},{"type":"Feature","geometry":{"type":"Point","coordinates":[77.21,28.61]},"properties":{"id":"samudra-manthan","name":"Churning of the Ocean of Milk","mythologyId":"hindu","type":"creation","era":"MÖ 400","eraBucket":"ancient","summary":"Devas and Asuras cooperated to churn the cosmic ocean using Mount Mandara as a churning rod and Vasuki the serpent as a rope. From the ocean emerged treasures: Lakshmi, the divine physician, the moon, and the elixir of immortality (amrita). Vishnu as Mohini tricked the Asuras to ensure only the Devas drank the amrita.","imageUrl":"https://upload.wikimedia.org/wikipedia/commons/thumb/b/b1/Kurma_avatar_of_Vishnu.jpg/440px-Kurma_avatar_of_Vishnu.jpg","themes":"creation,cooperation,trickery,immortality,cosmic-struggle"}},{"type":"Feature","geometry":{"type":"Point","coordinates":[77.21,28.61]},"properties":{"id":"manu-flood","name":"Manu and the Great Flood","mythologyId":"hindu","type":"cosmology","era":"MÖ 500","eraBucket":"ancient","summary":"Manu, the first man, found a small fish that was Vishnu's avatar Matsya. The fish warned of a coming flood and instructed Manu to build a boat. When the flood came, Matsya grew enormous and towed the boat to safety on a mountain peak. Manu repopulated the earth through sacrifice and prayer.","imageUrl":"","themes":"flood,divine-warning,survival,renewal,avatar"}},{"type":"Feature","geometry":{"type":"Point","coordinates":[77.68,27.49]},"properties":{"id":"krishna-lila","name":"Krishna's Divine Play (Lila)","mythologyId":"hindu","type":"love","era":"MÖ 400","eraBucket":"ancient","summary":"Born in a prison to defeat the tyrant Kamsa, Krishna was raised among cowherds. He performed miracles — lifting Mount Govardhana, dancing with the gopis, and playing enchanting flute. His love with Radha represents the soul's longing for the divine. He later served as Arjuna's charioteer in the Mahabharata.","imageUrl":"","themes":"divine-love,play,heroism,duty,enchantment"}},{"type":"Feature","geometry":{"type":"Point","coordinates":[77.21,28.61]},"properties":{"id":"hindu-pralaya","name":"Pralaya — Cosmic Dissolution","mythologyId":"hindu","type":"cosmology","era":"MÖ 300","eraBucket":"ancient","summary":"Hindu cosmology envisions vast cycles of creation and destruction. Each cosmic day of Brahma (kalpa) spans 4.32 billion years. At the end, Shiva dances the Tandava, dissolving the universe. Vishnu sleeps on the cosmic serpent Shesha in primordial waters. From his navel grows a lotus bearing Brahma, who creates anew.","imageUrl":"https://upload.wikimedia.org/wikipedia/commons/3/3b/Wisdom-of-manu-1916.jpg%21PinterestLarge.jpg","themes":"cycles,destruction,creation,time,cosmic-dance"}},{"type":"Feature","geometry":{"type":"Point","coordinates":[77.21,28.61]},"properties":{"id":"hindu-creation","name":"Purusha Sacrifice — Vedic Creation","mythologyId":"hindu","type":"creation","era":"MÖ 1200","eraBucket":"ancient","summary":"The cosmic being Purusha was sacrificed by the gods. From his body, the world was created: his mouth became brahmins, arms became warriors, thighs became merchants, feet became servants. From his mind came the moon, eyes the sun, breath the wind. This primordial sacrifice established cosmic and social order.","imageUrl":"","themes":"creation,sacrifice,social-order,cosmic-being,division"}},{"type":"Feature","geometry":{"type":"Point","coordinates":[78.47,17.36]},"properties":{"id":"hindu-narasimha","name":"Narasimha — The Man-Lion Avatar","mythologyId":"hindu","type":"hero","era":"MÖ 400","eraBucket":"ancient","summary":"The demon king Hiranyakashipu received a boon: he could not be killed by man or animal, inside or outside, by day or night. He terrorized his devoted son Prahlada who worshipped Vishnu. Vishnu appeared as Narasimha (half-man, half-lion) at twilight, on a threshold, and killed the demon on his lap.","imageUrl":"https://upload.wikimedia.org/wikipedia/commons/thumb/f/f3/South_India%2C_late_Chola_Period_-_Yoga_Narashimha%2C_Vishnu_in_his_Man-Lion_Avatar_-_1973.187_-_Cleveland_Museum_of_Art.tif/lossy-page1-960px-South_India%2C_late_Chola_Period_-_Yoga_Narashimha%2C_Vishnu_in_his_Man-Lion_Avatar_-_1973.187_-_Cleveland_Museum_of_Art.tif.jpg","themes":"avatar,loophole,devotion,divine-intervention,justice"}},{"type":"Feature","geometry":{"type":"Point","coordinates":[72.88,19.08]},"properties":{"id":"hindu-ganesha","name":"The Birth of Ganesha","mythologyId":"hindu","type":"creation","era":"MÖ 400","eraBucket":"ancient","summary":"Parvati created a boy from turmeric paste to guard her bath. When Shiva returned and the boy blocked him, Shiva beheaded him in rage. Parvati's grief was so great that Shiva promised to restore the child with the head of the first creature found — an elephant. Thus Ganesha was born, remover of obstacles and lord of beginnings.","imageUrl":"","themes":"creation,conflict,restoration,wisdom,beginnings"}},{"type":"Feature","geometry":{"type":"Point","coordinates":[79.13,10.78]},"properties":{"id":"hindu-shiva-tandava","name":"Shiva's Cosmic Dance (Nataraja)","mythologyId":"hindu","type":"cosmology","era":"MS 600","eraBucket":"medieval","summary":"Shiva performs the Tandava, the cosmic dance that creates, sustains, and destroys the universe. As Nataraja (Lord of the Dance), he dances within a ring of fire. One foot crushes the dwarf Apasmara (ignorance), while the other is raised in liberation. His drum sounds creation, his fire hand destruction.","imageUrl":"","themes":"cosmic-dance,creation,destruction,ignorance,liberation"}},{"type":"Feature","geometry":{"type":"Point","coordinates":[88.36,22.57]},"properties":{"id":"hindu-durga","name":"Durga Slays Mahishasura","mythologyId":"hindu","type":"war","era":"MS 400","eraBucket":"ancient","summary":"The buffalo demon Mahishasura received a boon that he could be killed by no god or man. He conquered the heavens. The gods combined their energies to create Durga, a goddess of supreme power. Each god gave her a weapon. After a nine-day battle, she slew Mahishasura, proving that divine feminine power surpasses all.","imageUrl":"","themes":"feminine-power,demon-slaying,divine-creation,war,triumph"}},{"type":"Feature","geometry":{"type":"Point","coordinates":[79.83,10.96]},"properties":{"id":"hindu-hanuman","name":"Hanuman's Leap to Lanka","mythologyId":"hindu","type":"hero","era":"MÖ 500","eraBucket":"ancient","summary":"The monkey god Hanuman, son of Vayu (Wind), volunteered to leap across the ocean to Lanka to find the captured Sita. He overcame Surasa, a sea demoness, and Simhika who tried to catch his shadow. He found Sita, delivered Rama's ring, set Lanka ablaze with his burning tail, and returned triumphant.","imageUrl":"","themes":"devotion,heroism,leap,strength,loyalty"}}]}
