{"type":"FeatureCollection","features":[{"type":"Feature","id":"varanasi","properties":{"id":"varanasi","name":"Varanasi — City of Light","mythologyId":"hindu","mythologyName":"Hindu Mythology","type":"city","era":"MÖ 1100","eraBucket":"ancient","description":"Oldest continuously inhabited city in the world. Sacred to Shiva. Dying here grants moksha (liberation). Ghats line the sacred Ganges.","imageUrl":"https://upload.wikimedia.org/wikipedia/commons/thumb/5/5f/Taj_Mahal_2012.jpg/1280px-Taj_Mahal_2012.jpg","country":"India","modernStatus":"Active pilgrimage city, millions of visitors annually","tags":"city,shiva,ganges,holy","color":"#E74C3C"},"geometry":{"type":"Point","coordinates":[83.01,25.32]}},{"type":"Feature","id":"mount-kailash","properties":{"id":"mount-kailash","name":"Mount Kailash","mythologyId":"hindu","mythologyName":"Hindu Mythology","type":"mountain","era":"ancient","eraBucket":"ancient","description":"Sacred to Hindus, Buddhists, Jains, and Bonpo. Believed to be Shiva's throne. No one has ever climbed it — considered too holy to touch.","imageUrl":"https://upload.wikimedia.org/wikipedia/commons/thumb/5/5f/Taj_Mahal_2012.jpg/1280px-Taj_Mahal_2012.jpg","country":"China (Tibet)","modernStatus":"Pilgrimage site, restricted access via China","tags":"mountain,axis-mundi,four-religions","color":"#E74C3C"},"geometry":{"type":"Point","coordinates":[81.31,31.07]}},{"type":"Feature","id":"angkor-wat","properties":{"id":"angkor-wat","name":"Angkor Wat","mythologyId":"hindu","mythologyName":"Hindu Mythology","type":"temple","era":"MS 1150","eraBucket":"medieval","description":"Largest religious monument ever built, originally Hindu (dedicated to Vishnu), later Buddhist. Represents Mount Meru, home of the gods.","imageUrl":"https://upload.wikimedia.org/wikipedia/commons/thumb/5/5f/Taj_Mahal_2012.jpg/1280px-Taj_Mahal_2012.jpg","country":"Cambodia","modernStatus":"UNESCO World Heritage Site, Cambodia's symbol","tags":"temple,vishnu,largest","color":"#E74C3C"},"geometry":{"type":"Point","coordinates":[103.87,13.41]}},{"type":"Feature","id":"konark-sun","properties":{"id":"konark-sun","name":"Konark Sun Temple","mythologyId":"hindu","mythologyName":"Hindu Mythology","type":"temple","era":"MS 1250","eraBucket":"medieval","description":"13th century temple shaped as a massive chariot of the sun god Surya, with 24 intricately carved wheels and seven horses. Considered a masterpiece.","imageUrl":"https://upload.wikimedia.org/wikipedia/commons/thumb/5/5f/Taj_Mahal_2012.jpg/1280px-Taj_Mahal_2012.jpg","country":"India","modernStatus":"UNESCO World Heritage Site","tags":"sun,chariot,temple","color":"#E74C3C"},"geometry":{"type":"Point","coordinates":[86.09,19.89]}},{"type":"Feature","id":"khajuraho","properties":{"id":"khajuraho","name":"Khajuraho Temples","mythologyId":"hindu","mythologyName":"Hindu Mythology","type":"temple","era":"MS 950","eraBucket":"medieval","description":"Medieval Hindu and Jain temples famous for erotic sculptures depicting the union of human and divine. 25 of original 85 temples survive.","imageUrl":"https://upload.wikimedia.org/wikipedia/commons/thumb/5/5f/Taj_Mahal_2012.jpg/1280px-Taj_Mahal_2012.jpg","country":"India","modernStatus":"UNESCO World Heritage Site","tags":"temple,erotic,divine","color":"#E74C3C"},"geometry":{"type":"Point","coordinates":[79.92,24.85]}},{"type":"Feature","id":"ellora-caves","properties":{"id":"ellora-caves","name":"Ellora Caves — Kailasa Temple","mythologyId":"hindu","mythologyName":"Hindu Mythology","type":"temple","era":"MS 760","eraBucket":"medieval","description":"The Kailasa Temple is carved from a single rock — the world's largest monolithic structure. Represents Mount Kailash, Shiva's abode.","imageUrl":"https://upload.wikimedia.org/wikipedia/commons/thumb/5/5f/Taj_Mahal_2012.jpg/1280px-Taj_Mahal_2012.jpg","country":"India","modernStatus":"UNESCO World Heritage Site","tags":"cave,monolith,shiva","color":"#E74C3C"},"geometry":{"type":"Point","coordinates":[75.18,20.03]}},{"type":"Feature","id":"puri-temple","properties":{"id":"puri-temple","name":"Jagannath Temple — Puri","mythologyId":"hindu","mythologyName":"Hindu Mythology","type":"temple","era":"MS 1161","eraBucket":"medieval","description":"One of the four sacred dhams. Home to annual Rath Yatra (chariot festival) when 500,000+ pull the massive chariot. Origin of the word 'juggernaut.'","imageUrl":"https://upload.wikimedia.org/wikipedia/commons/thumb/5/5f/Taj_Mahal_2012.jpg/1280px-Taj_Mahal_2012.jpg","country":"India","modernStatus":"Active Hindu temple, major pilgrimage site","tags":"chariot,festival,juggernaut","color":"#E74C3C"},"geometry":{"type":"Point","coordinates":[85.82,19.8]}},{"type":"Feature","id":"prambanan","properties":{"id":"prambanan","name":"Prambanan Temple","mythologyId":"hindu","mythologyName":"Hindu Mythology","type":"temple","era":"MS 850","eraBucket":"medieval","description":"Largest Hindu temple in Indonesia with 240 temples. Central temple dedicated to Shiva rises 47m. Ramayana reliefs circle the main temples.","imageUrl":"https://upload.wikimedia.org/wikipedia/commons/thumb/5/5f/Taj_Mahal_2012.jpg/1280px-Taj_Mahal_2012.jpg","country":"Indonesia","modernStatus":"UNESCO World Heritage Site","tags":"temple,shiva,ramayana","color":"#E74C3C"},"geometry":{"type":"Point","coordinates":[110.49,-7.75]}}]}