{"type":"FeatureCollection","features":[{"type":"Feature","id":"cuchulainn","properties":{"id":"cuchulainn","name":"Cú Chulainn","mythologyId":"celtic","type":"demigod","era":"MS 100","eraBucket":"ancient","description":"Greatest hero of the Ulster Cycle. Son of the god Lugh. His battle frenzy (ríastrad) transformed him into a terrifying creature. Died standing, tied to a pillar.","imageUrl":"https://upload.wikimedia.org/wikipedia/commons/thumb/3/3e/Cuchulainn_reborn.jpg/440px-Cuchulainn_reborn.jpg","domains":"war,heroism,defense","color":"#27AE60"},"geometry":{"type":"Point","coordinates":[-5.93,54.59]}},{"type":"Feature","id":"dagda","properties":{"id":"dagda","name":"The Dagda","mythologyId":"celtic","type":"god","era":"MÖ 500","eraBucket":"ancient","description":"Good god of the Tuatha Dé Danann. Wielded a club that could kill and resurrect, a cauldron of plenty, and a harp that controlled seasons and emotions.","imageUrl":"https://upload.wikimedia.org/wikipedia/commons/thumb/0/07/Cliffs_of_Moher_on_a_sunny_day.jpg/1280px-Cliffs_of_Moher_on_a_sunny_day.jpg","domains":"earth,abundance,magic,druidry","color":"#27AE60"},"geometry":{"type":"Point","coordinates":[-6.26,53.34]}},{"type":"Feature","id":"lugh","properties":{"id":"lugh","name":"Lugh","mythologyId":"celtic","type":"god","era":"MÖ 500","eraBucket":"ancient","description":"Master of all arts and skills. Father of Cú Chulainn. Led the Tuatha Dé Danann to victory. Lughnasadh harvest festival named after him.","imageUrl":"https://upload.wikimedia.org/wikipedia/commons/thumb/0/07/Cliffs_of_Moher_on_a_sunny_day.jpg/1280px-Cliffs_of_Moher_on_a_sunny_day.jpg","domains":"light,skill,craft,kingship","color":"#27AE60"},"geometry":{"type":"Point","coordinates":[-6.26,53.34]}},{"type":"Feature","id":"brigid","properties":{"id":"brigid","name":"Brigid","mythologyId":"celtic","type":"goddess","era":"MÖ 500","eraBucket":"ancient","description":"Triple goddess of fire, poetry, and healing. So beloved she was absorbed into Christianity as St. Brigid. Imbolc (February 1st) is her festival.","imageUrl":"https://upload.wikimedia.org/wikipedia/commons/thumb/0/07/Cliffs_of_Moher_on_a_sunny_day.jpg/1280px-Cliffs_of_Moher_on_a_sunny_day.jpg","domains":"fire,poetry,healing,smithcraft,spring","color":"#27AE60"},"geometry":{"type":"Point","coordinates":[-6.26,53.34]}}]}