{"type":"FeatureCollection","features":[{"type":"Feature","id":"cuchulainn-battle","properties":{"id":"cuchulainn-battle","name":"Cú Chulainn's Defense of Ulster","mythologyId":"celtic","type":"hero","era":"MS 100","eraBucket":"ancient","summary":"When Queen Medb of Connacht invaded Ulster to steal the Brown Bull, the teenage hero Cú Chulainn single-handedly defended the province at a ford, fighting champions in single combat for months due to a curse on the Ulster warriors. His battle frenzy (ríastrad) transformed him into a terrifying creature.","imageUrl":"https://upload.wikimedia.org/wikipedia/commons/thumb/3/3e/Cuchulainn_reborn.jpg/440px-Cuchulainn_reborn.jpg","themes":"heroism,defense,transformation,sacrifice,youth"},"geometry":{"type":"Point","coordinates":[-5.93,54.59]}},{"type":"Feature","id":"celtic-arthurian","properties":{"id":"celtic-arthurian","name":"The Quest for the Holy Grail","mythologyId":"celtic","type":"quest","era":"MS 1200","eraBucket":"medieval","summary":"King Arthur's knights of the Round Table embarked on the quest for the Holy Grail, the cup used by Christ at the Last Supper. Only the pure-hearted Galahad succeeded, while Lancelot was denied for his adultery with Guinevere. The quest reveals each knight's spiritual worth and the limits of martial valor.","imageUrl":"https://upload.wikimedia.org/wikipedia/commons/thumb/0/07/Cliffs_of_Moher_on_a_sunny_day.jpg/1280px-Cliffs_of_Moher_on_a_sunny_day.jpg","themes":"quest,purity,failure,holy-object,spiritual-worth"},"geometry":{"type":"Point","coordinates":[-1.83,51.18]}},{"type":"Feature","id":"celtic-tir-na-nog","properties":{"id":"celtic-tir-na-nog","name":"Oisín in Tír na nÓg","mythologyId":"celtic","type":"love","era":"MS 300","eraBucket":"ancient","summary":"The warrior Oisín fell in love with Niamh of the Golden Hair, who brought him to Tír na nÓg (Land of the Young). He lived there for what seemed three years but was actually 300. Returning to Ireland, he was forbidden to touch the ground. When he fell from his horse, he aged instantly into an old man.","imageUrl":"https://upload.wikimedia.org/wikipedia/commons/thumb/0/07/Cliffs_of_Moher_on_a_sunny_day.jpg/1280px-Cliffs_of_Moher_on_a_sunny_day.jpg","themes":"love,immortality,time,otherworld,loss"},"geometry":{"type":"Point","coordinates":[-6.26,53.34]}},{"type":"Feature","id":"celtic-morrigan","properties":{"id":"celtic-morrigan","name":"The Morrígan — Phantom Queen of Battle","mythologyId":"celtic","type":"war","era":"MÖ 300","eraBucket":"ancient","summary":"The Morrígan is a triple goddess of war, fate, and death. She appears as a crow over battlefields, selecting who will die. She offered Cú Chulainn her love, and when refused, became his enemy — yet also his protector. Before battles, she washed the armor of those fated to die at the ford.","imageUrl":"https://upload.wikimedia.org/wikipedia/commons/thumb/0/07/Cliffs_of_Moher_on_a_sunny_day.jpg/1280px-Cliffs_of_Moher_on_a_sunny_day.jpg","themes":"war,fate,death,sovereignty,shapeshifting"},"geometry":{"type":"Point","coordinates":[-6.26,53.34]}},{"type":"Feature","id":"celtic-salmon-knowledge","properties":{"id":"celtic-salmon-knowledge","name":"Fionn and the Salmon of Knowledge","mythologyId":"celtic","type":"transformation","era":"MS 300","eraBucket":"ancient","summary":"The druid Finnegas spent seven years fishing for the Salmon of Knowledge in the River Boyne. Young Fionn was tasked with cooking it but burned his thumb on the fish and instinctively sucked it. That taste gave him all the salmon's wisdom. Whenever he needed answers, he sucked his thumb to access infinite knowledge.","imageUrl":"https://upload.wikimedia.org/wikipedia/commons/thumb/0/07/Cliffs_of_Moher_on_a_sunny_day.jpg/1280px-Cliffs_of_Moher_on_a_sunny_day.jpg","themes":"wisdom,accident,knowledge,fish,transformation"},"geometry":{"type":"Point","coordinates":[-6.26,53.34]}}]}