{"type":"FeatureCollection","features":[{"type":"Feature","id":"newgrange","properties":{"id":"newgrange","name":"Newgrange (Sí an Bhrú)","mythologyId":"celtic","mythologyName":"Celtic Mythology","type":"temple","era":"MÖ 3200","eraBucket":"ancient","description":"Neolithic passage tomb older than the Pyramids. On winter solstice, sunlight illuminates the inner chamber through a roof box for 17 minutes.","imageUrl":"https://upload.wikimedia.org/wikipedia/commons/thumb/0/07/Cliffs_of_Moher_on_a_sunny_day.jpg/1280px-Cliffs_of_Moher_on_a_sunny_day.jpg","country":"Ireland","modernStatus":"UNESCO World Heritage Site, solstice lottery for visitors","tags":"tomb,solstice,neolithic","color":"#27AE60"},"geometry":{"type":"Point","coordinates":[-6.48,53.69]}},{"type":"Feature","id":"stonehenge","properties":{"id":"stonehenge","name":"Stonehenge","mythologyId":"celtic","mythologyName":"Celtic Mythology","type":"temple","era":"MÖ 3000","eraBucket":"ancient","description":"Neolithic stone circle aligned with solstices and equinoxes. Bluestones transported 240km from Wales. Associated with Merlin legends.","imageUrl":"https://upload.wikimedia.org/wikipedia/commons/thumb/0/07/Cliffs_of_Moher_on_a_sunny_day.jpg/1280px-Cliffs_of_Moher_on_a_sunny_day.jpg","country":"England","modernStatus":"UNESCO World Heritage Site","tags":"stone-circle,solstice,neolithic","color":"#27AE60"},"geometry":{"type":"Point","coordinates":[-1.83,51.18]}},{"type":"Feature","id":"glastonbury","properties":{"id":"glastonbury","name":"Glastonbury Tor","mythologyId":"celtic","mythologyName":"Celtic Mythology","type":"natural","era":"ancient","eraBucket":"ancient","description":"Terraced hill linked to Avalon, the Isle of Apples from Arthurian legend. Said to be King Arthur's burial site and the entry to Annwn (Celtic Otherworld).","imageUrl":"https://upload.wikimedia.org/wikipedia/commons/thumb/0/07/Cliffs_of_Moher_on_a_sunny_day.jpg/1280px-Cliffs_of_Moher_on_a_sunny_day.jpg","country":"England","modernStatus":"National Trust property","tags":"tor,avalon,arthurian","color":"#27AE60"},"geometry":{"type":"Point","coordinates":[-2.7,51.14]}}]}