{"type":"FeatureCollection","features":[{"type":"Feature","id":"vainamoinen","properties":{"id":"vainamoinen","name":"Väinämöinen","mythologyId":"finnish","type":"god","era":"MS 1835","eraBucket":"modern","description":"Eternal sage and singer-hero of the Kalevala. Born old. His songs literally shaped reality. Directly inspired Tolkien's Gandalf.","imageUrl":"https://upload.wikimedia.org/wikipedia/commons/thumb/9/9e/Aurora_borealis_above_Lyngen_Alps.jpg/1280px-Aurora_borealis_above_Lyngen_Alps.jpg","domains":"wisdom,song,magic,creation","color":"#5C6BC0"},"geometry":{"type":"Point","coordinates":[27.68,63.1]}},{"type":"Feature","id":"ilmarinen","properties":{"id":"ilmarinen","name":"Ilmarinen","mythologyId":"finnish","type":"god","era":"MS 1835","eraBucket":"modern","description":"The Eternal Hammerer, divine smith of the Kalevala. Forged the sky, the Sampo, and a golden bride. Greatest craftsman in Finnish mythology.","imageUrl":"https://upload.wikimedia.org/wikipedia/commons/thumb/9/9e/Aurora_borealis_above_Lyngen_Alps.jpg/1280px-Aurora_borealis_above_Lyngen_Alps.jpg","domains":"forge,sky,craft,creation","color":"#5C6BC0"},"geometry":{"type":"Point","coordinates":[27.68,63.1]}},{"type":"Feature","id":"louhi","properties":{"id":"louhi","name":"Louhi","mythologyId":"finnish","type":"goddess","era":"MS 1835","eraBucket":"modern","description":"Powerful sorceress, mistress of the dark north (Pohjola). Both enemy and necessary partner. Stole the sun and moon. Commanded frost and disease.","imageUrl":"https://upload.wikimedia.org/wikipedia/commons/thumb/9/9e/Aurora_borealis_above_Lyngen_Alps.jpg/1280px-Aurora_borealis_above_Lyngen_Alps.jpg","domains":"north,cold,witchcraft,darkness","color":"#5C6BC0"},"geometry":{"type":"Point","coordinates":[25.75,66.5]}}]}