{"type":"FeatureCollection","features":[{"type":"Feature","id":"kalevala-sampo","properties":{"id":"kalevala-sampo","name":"Forging of the Sampo","mythologyId":"finnish","type":"quest","era":"MS 1835","eraBucket":"modern","summary":"The eternal sage Väinämöinen commissioned the smith Ilmarinen to forge the Sampo, a magical artifact that produced flour, salt, and gold. It was given to Louhi, mistress of Pohjola (the North), as a bride-price. When Väinämöinen, Ilmarinen, and Lemminkäinen attempted to steal it back, the Sampo was shattered in a sea battle.","imageUrl":"https://upload.wikimedia.org/wikipedia/commons/thumb/9/9e/Aurora_borealis_above_Lyngen_Alps.jpg/1280px-Aurora_borealis_above_Lyngen_Alps.jpg","themes":"magic-artifact,quest,creation,loss,song-power"},"geometry":{"type":"Point","coordinates":[27.68,63.1]}},{"type":"Feature","id":"kalevala-vainamoinen","properties":{"id":"kalevala-vainamoinen","name":"Väinämöinen's Creation Song","mythologyId":"finnish","type":"creation","era":"MS 1835","eraBucket":"modern","summary":"The goddess Ilmatar lay floating on the primordial ocean. A teal laid seven eggs on her knee; they broke and formed the earth, sky, sun, and moon. From the waters Väinämöinen was born, an ancient sage who sang the world into being. His songs had the power to reshape reality itself.","imageUrl":"https://upload.wikimedia.org/wikipedia/commons/thumb/9/9e/Aurora_borealis_above_Lyngen_Alps.jpg/1280px-Aurora_borealis_above_Lyngen_Alps.jpg","themes":"creation,song,magic,primordial-ocean,bird"},"geometry":{"type":"Point","coordinates":[27.68,63.1]}},{"type":"Feature","id":"finnish-tuonela","properties":{"id":"finnish-tuonela","name":"Väinämöinen's Journey to Tuonela","mythologyId":"finnish","type":"afterlife","era":"MS 1835","eraBucket":"modern","summary":"Väinämöinen journeyed to Tuonela, the Finnish underworld, seeking magical knowledge. He crossed the dark river and was received by the death goddess Tuonetar, who offered him beer of forgetfulness. Iron nets were cast to trap him. Using his shape-shifting powers, Väinämöinen escaped as a snake, warning others never to visit Tuonela voluntarily.","imageUrl":"https://upload.wikimedia.org/wikipedia/commons/thumb/9/9e/Aurora_borealis_above_Lyngen_Alps.jpg/1280px-Aurora_borealis_above_Lyngen_Alps.jpg","themes":"underworld,knowledge,danger,escape,shape-shifting"},"geometry":{"type":"Point","coordinates":[23.79,61.5]}},{"type":"Feature","id":"finnish-lemminkainen","properties":{"id":"finnish-lemminkainen","name":"Lemminkäinen's Death and Resurrection","mythologyId":"finnish","type":"hero","era":"MS 1835","eraBucket":"modern","summary":"The reckless hero Lemminkäinen was killed trying to shoot the swan of Tuonela. His body was hacked to pieces and thrown into the river of the dead. His mother, sensing his death, raked the river with a copper rake, gathered every fragment, and sang him back to life — the power of a mother's love and magic defeating death.","imageUrl":"https://upload.wikimedia.org/wikipedia/commons/thumb/9/9e/Aurora_borealis_above_Lyngen_Alps.jpg/1280px-Aurora_borealis_above_Lyngen_Alps.jpg","themes":"death,resurrection,mother,song-magic,recklessness"},"geometry":{"type":"Point","coordinates":[23.79,61.5]}}]}