{"type":"FeatureCollection","features":[{"type":"Feature","id":"kalevala-land","properties":{"id":"kalevala-land","name":"Kalevala Region (Viena Karelia)","mythologyId":"finnish","mythologyName":"Finnish / Kalevala Mythology","type":"natural","era":"MS 1835","eraBucket":"modern","description":"The region where Elias Lönnrot collected the folk poems that became the Kalevala. Lakes, forests, and shamanistic sites preserve old songs.","imageUrl":"https://upload.wikimedia.org/wikipedia/commons/thumb/9/9e/Aurora_borealis_above_Lyngen_Alps.jpg/1280px-Aurora_borealis_above_Lyngen_Alps.jpg","country":"Finland/Russia","modernStatus":"Cultural landscape, UNESCO consideration","tags":"kalevala,folk-poetry,forests","color":"#5C6BC0"},"geometry":{"type":"Point","coordinates":[30,64.5]}}]}