{"type":"FeatureCollection","features":[{"type":"Feature","geometry":{"type":"Point","coordinates":[35.2,31.8]},"properties":{"id":"yahweh","name":"Yahweh","mythologyId":"biblical-hebrew","type":"god","era":"c. 1000 BCE","eraBucket":"ancient","description":"Central deity of Biblical Hebrew tradition, associated with covenant theology and later monotheistic consolidation.","imageUrl":"https://upload.wikimedia.org/wikipedia/commons/thumb/8/84/Zeus_Yahweh.jpg/960px-Zeus_Yahweh.jpg","domains":"creator,covenant,justice","color":"#8f7a52"}}]}
