{"type":"FeatureCollection","features":[{"type":"Feature","geometry":{"type":"Point","coordinates":[35.2,31.8]},"properties":{"id":"noah-flood","name":"Noah and the Great Flood","mythologyId":"biblical-hebrew","type":"creation","era":"c. 1000-500 BCE (textual formation)","eraBucket":"ancient","summary":"Human corruption leads to divine judgment through a world-flood. Noah receives warning, builds an ark, preserves life, and emerges into a renewed covenantal order.","imageUrl":"https://upload.wikimedia.org/wikipedia/commons/thumb/3/37/Edward_Hicks_-_Noah%27s_Ark.jpg/1280px-Edward_Hicks_-_Noah%27s_Ark.jpg","themes":"flood,covenant,judgment,renewal,survival"}}]}
