{"type":"FeatureCollection","features":[{"type":"Feature","geometry":{"type":"Point","coordinates":[46.1,31.3]},"properties":{"id":"inanna","name":"Inanna","mythologyId":"sumerian","type":"goddess","era":"c. 3000 BCE","eraBucket":"ancient","description":"Major Sumerian goddess associated with love, political power, fertility, and celestial authority.","imageUrl":"https://upload.wikimedia.org/wikipedia/commons/thumb/5/5c/Ishtar_on_an_Akkadian_seal.jpg/960px-Ishtar_on_an_Akkadian_seal.jpg","domains":"love,war,fertility","color":"#b9894a"}}]}
