{"type":"FeatureCollection","features":[{"type":"Feature","id":"teshub","properties":{"id":"teshub","name":"Teshub","mythologyId":"hittite","type":"god","era":"MÖ 1700","eraBucket":"ancient","description":"Storm god and king of the Hittite pantheon. Born from Kumarbi's swallowing of Anu's manhood. Defeated his father in cosmic battle.","imageUrl":"https://upload.wikimedia.org/wikipedia/commons/thumb/f/f2/Yazilikaya_A.jpg/1280px-Yazilikaya_A.jpg","domains":"storm,sky,war,kingship","color":"#FF9800"},"geometry":{"type":"Point","coordinates":[34.62,40.02]}},{"type":"Feature","id":"kumarbi","properties":{"id":"kumarbi","name":"Kumarbi","mythologyId":"hittite","type":"god","era":"MÖ 1700","eraBucket":"ancient","description":"Father of the gods in Hurrian-Hittite mythology. Overthrew Anu by biting off his genitals. Father of Teshub. Parallel to Greek Kronos.","imageUrl":"https://upload.wikimedia.org/wikipedia/commons/thumb/f/f2/Yazilikaya_A.jpg/1280px-Yazilikaya_A.jpg","domains":"agriculture,fatherhood,cosmic-succession","color":"#FF9800"},"geometry":{"type":"Point","coordinates":[34.62,40.02]}},{"type":"Feature","id":"hepat","properties":{"id":"hepat","name":"Hepat","mythologyId":"hittite","type":"goddess","era":"MÖ 1500","eraBucket":"ancient","description":"Sun goddess and queen of the gods in Hittite religion. Wife of Teshub. Most important female deity in the Hittite pantheon. Worshipped at Arinna.","imageUrl":"https://upload.wikimedia.org/wikipedia/commons/thumb/f/f2/Yazilikaya_A.jpg/1280px-Yazilikaya_A.jpg","domains":"sun,queenship,motherhood","color":"#FF9800"},"geometry":{"type":"Point","coordinates":[34.62,40.02]}}]}