{"type":"FeatureCollection","features":[{"type":"Feature","geometry":{"type":"Point","coordinates":[34.62,40.02]},"properties":{"id":"kumarbi-cycle","name":"Song of Kumarbi — Divine Succession","mythologyId":"hittite","type":"cosmology","era":"MÖ 1400","eraBucket":"ancient","summary":"Alalu was overthrown by Anu (heaven), who was overthrown by Kumarbi, who bit off and swallowed Anu's genitals. From this act, the storm god Teshub was born and eventually defeated Kumarbi. This divine succession myth closely parallels the Greek Theogony's account of Kronos and Zeus.","imageUrl":"","themes":"succession,cosmic-battle,generation,castration,kingship"}},{"type":"Feature","geometry":{"type":"Point","coordinates":[34.62,40.02]},"properties":{"id":"hittite-illuyanka","name":"The Dragon Illuyanka","mythologyId":"hittite","type":"war","era":"MÖ 1400","eraBucket":"ancient","summary":"The Storm God was defeated by the dragon Illuyanka, who stole his heart and eyes. The goddess Inaras seduced Illuyanka with a feast, getting him drunk so a mortal could bind him. In another version, the Storm God's son married Illuyanka's daughter and recovered the organs, allowing his father to triumph.","imageUrl":"","themes":"dragon-slaying,trickery,divine-recovery,storm,vengeance"}}]}
