{"type":"FeatureCollection","features":[{"type":"Feature","id":"hattusa","properties":{"id":"hattusa","name":"Hattusa — Hittite Capital","mythologyId":"hittite","mythologyName":"Hittite Mythology","type":"city","era":"MÖ 1650","eraBucket":"ancient","description":"Capital of the Hittite Empire with the famous Lion Gate. Archives here preserved the Kumarbi cycle and Illuyanka myths.","imageUrl":"https://upload.wikimedia.org/wikipedia/commons/thumb/f/f2/Yazilikaya_A.jpg/1280px-Yazilikaya_A.jpg","country":"Turkey","modernStatus":"UNESCO World Heritage Site","tags":"city,hittite,archives","color":"#FF9800"},"geometry":{"type":"Point","coordinates":[34.62,40.02]}},{"type":"Feature","id":"yazilikaya","properties":{"id":"yazilikaya","name":"Yazılıkaya Rock Sanctuary","mythologyId":"hittite","mythologyName":"Hittite Mythology","type":"temple","era":"MÖ 1250","eraBucket":"ancient","description":"Open-air rock sanctuary near Hattusa with 90 carved reliefs of gods in procession. Chamber B may be an astronomical calendar.","imageUrl":"https://upload.wikimedia.org/wikipedia/commons/thumb/f/f2/Yazilikaya_A.jpg/1280px-Yazilikaya_A.jpg","country":"Turkey","modernStatus":"UNESCO World Heritage Site","tags":"rock-sanctuary,reliefs,pantheon","color":"#FF9800"},"geometry":{"type":"Point","coordinates":[34.62,40.03]}},{"type":"Feature","id":"cappadocia","properties":{"id":"cappadocia","name":"Cappadocia Underground Cities","mythologyId":"hittite","mythologyName":"Hittite Mythology","type":"city","era":"MÖ 1200","eraBucket":"ancient","description":"Ancient underground cities carved into volcanic tuff, extending up to 85m deep. Used as refuges and sacred spaces for millennia.","imageUrl":"https://upload.wikimedia.org/wikipedia/commons/thumb/f/f2/Yazilikaya_A.jpg/1280px-Yazilikaya_A.jpg","country":"Turkey","modernStatus":"UNESCO World Heritage Site, tourist destination","tags":"underground,caves,volcanic","color":"#FF9800"},"geometry":{"type":"Point","coordinates":[34.83,38.63]}}]}