{"type":"FeatureCollection","features":[{"type":"Feature","id":"quetzalcoatl-deity","properties":{"id":"quetzalcoatl-deity","name":"Quetzalcoatl","mythologyId":"aztec","type":"god","era":"MS 1300","eraBucket":"medieval","description":"The Feathered Serpent, god of wind and learning. Created humanity from bones in the underworld. Associated with Venus as the morning star.","imageUrl":"https://upload.wikimedia.org/wikipedia/commons/thumb/e/e1/Piramide_del_Sol_072006.jpg/1280px-Piramide_del_Sol_072006.jpg","domains":"wind,learning,dawn,craft","color":"#1ABC9C"},"geometry":{"type":"Point","coordinates":[-97.06,19.84]}},{"type":"Feature","id":"huitzilopochtli-deity","properties":{"id":"huitzilopochtli-deity","name":"Huitzilopochtli","mythologyId":"aztec","type":"god","era":"MS 1300","eraBucket":"medieval","description":"Aztec war god and patron of Tenochtitlan. Required human blood to move the sun each day. Born fully armed to defend his mother.","imageUrl":"https://upload.wikimedia.org/wikipedia/commons/thumb/e/e1/Piramide_del_Sol_072006.jpg/1280px-Piramide_del_Sol_072006.jpg","domains":"war,sun,human-sacrifice","color":"#1ABC9C"},"geometry":{"type":"Point","coordinates":[-99.13,19.43]}},{"type":"Feature","id":"tezcatlipoca","properties":{"id":"tezcatlipoca","name":"Tezcatlipoca","mythologyId":"aztec","type":"god","era":"MS 1300","eraBucket":"medieval","description":"The Smoking Mirror — god of night, fate, and conflict. Rival of Quetzalcoatl. All-seeing through his obsidian mirror. Shape-shifter and cosmic antagonist.","imageUrl":"https://upload.wikimedia.org/wikipedia/commons/thumb/e/e1/Piramide_del_Sol_072006.jpg/1280px-Piramide_del_Sol_072006.jpg","domains":"night,fate,conflict,sorcery","color":"#1ABC9C"},"geometry":{"type":"Point","coordinates":[-99.13,19.43]}},{"type":"Feature","id":"tlaloc-deity","properties":{"id":"tlaloc-deity","name":"Tlaloc","mythologyId":"aztec","type":"god","era":"MÖ 400","eraBucket":"ancient","description":"Rain god who dwelt on mountain peaks. Both benevolent (rain) and destructive (storms, floods). Dead by drowning went to his paradise Tlalocan.","imageUrl":"https://upload.wikimedia.org/wikipedia/commons/thumb/e/e1/Piramide_del_Sol_072006.jpg/1280px-Piramide_del_Sol_072006.jpg","domains":"rain,fertility,water,agriculture","color":"#1ABC9C"},"geometry":{"type":"Point","coordinates":[-99.13,19.43]}},{"type":"Feature","id":"mictlantecuhtli","properties":{"id":"mictlantecuhtli","name":"Mictlantecuhtli","mythologyId":"aztec","type":"god","era":"MS 1300","eraBucket":"medieval","description":"Lord of Mictlan, the underworld. Skeletal figure adorned with eyeball necklace. Ruled the lowest level of the nine-layered underworld with his wife.","imageUrl":"https://upload.wikimedia.org/wikipedia/commons/thumb/e/e1/Piramide_del_Sol_072006.jpg/1280px-Piramide_del_Sol_072006.jpg","domains":"death,underworld,bones","color":"#1ABC9C"},"geometry":{"type":"Point","coordinates":[-99.13,19.43]}},{"type":"Feature","id":"coatlicue","properties":{"id":"coatlicue","name":"Coatlicue","mythologyId":"aztec","type":"goddess","era":"MS 1300","eraBucket":"medieval","description":"Earth mother with a skirt of serpents and a necklace of hearts, hands, and skulls. Mother of Huitzilopochtli. Both creator and devourer.","imageUrl":"https://upload.wikimedia.org/wikipedia/commons/thumb/e/e1/Piramide_del_Sol_072006.jpg/1280px-Piramide_del_Sol_072006.jpg","domains":"earth,creation,death,birth","color":"#1ABC9C"},"geometry":{"type":"Point","coordinates":[-99.13,19.43]}},{"type":"Feature","id":"xipe-totec","properties":{"id":"xipe-totec","name":"Xipe Totec","mythologyId":"aztec","type":"god","era":"MÖ 200","eraBucket":"ancient","description":"Aztec god of spring and renewal who wore flayed human skin representing new vegetation covering the earth. Patron of goldsmiths.","imageUrl":"https://upload.wikimedia.org/wikipedia/commons/thumb/e/e1/Piramide_del_Sol_072006.jpg/1280px-Piramide_del_Sol_072006.jpg","domains":"spring,agriculture,rebirth,goldsmiths","color":"#1ABC9C"},"geometry":{"type":"Point","coordinates":[-99.13,19.43]}}]}