{"type":"FeatureCollection","features":[{"type":"Feature","id":"aztec-five-suns","properties":{"id":"aztec-five-suns","name":"Five Suns — Aztec Creation Cycles","mythologyId":"aztec","type":"creation","era":"MS 1400","eraBucket":"medieval","summary":"The Aztec cosmos underwent five creations (Suns), each destroyed by a different cataclysm. The first by jaguars, second by wind, third by fire-rain, fourth by flood. In the fifth (current) Sun, the humble god Nanahuatzin sacrificed himself by jumping into fire to become the sun, requiring blood sacrifice to maintain its movement.","imageUrl":"https://upload.wikimedia.org/wikipedia/commons/thumb/7/79/Aztec_Sun_Stone_Replica_cropped.jpg/640px-Aztec_Sun_Stone_Replica_cropped.jpg","themes":"creation,destruction,sacrifice,cycles,blood"},"geometry":{"type":"Point","coordinates":[-98.84,19.69]}},{"type":"Feature","id":"quetzalcoatl","properties":{"id":"quetzalcoatl","name":"Quetzalcoatl's Exile","mythologyId":"aztec","type":"trickster","era":"MS 1100","eraBucket":"medieval","summary":"Quetzalcoatl, the Feathered Serpent, ruled as a wise priest-king of Tula. His rival Tezcatlipoca tricked him into drunkenness and sin. Ashamed, Quetzalcoatl exiled himself, sailing east on a raft of serpents, vowing to return. This prophecy later played into the Spanish conquest when Cortés was initially mistaken for the returning god.","imageUrl":"https://upload.wikimedia.org/wikipedia/commons/thumb/e/e1/Piramide_del_Sol_072006.jpg/1280px-Piramide_del_Sol_072006.jpg","themes":"exile,trickery,shame,prophecy,return"},"geometry":{"type":"Point","coordinates":[-97.06,19.84]}},{"type":"Feature","id":"aztec-tlaloc","properties":{"id":"aztec-tlaloc","name":"Tlaloc and the Rain Sacrifice","mythologyId":"aztec","type":"nature","era":"MS 1400","eraBucket":"medieval","summary":"Tlaloc, the rain god, dwelt atop mountain peaks and in caves where clouds formed. He brought sustaining rain but also destructive storms, hail, and floods. Child sacrifices were offered to Tlaloc, their tears believed to bring rain. His paradise, Tlalocan, received those who died by water or lightning.","imageUrl":"https://upload.wikimedia.org/wikipedia/commons/thumb/e/e1/Piramide_del_Sol_072006.jpg/1280px-Piramide_del_Sol_072006.jpg","themes":"rain,sacrifice,nature,death,duality"},"geometry":{"type":"Point","coordinates":[-99.13,19.43]}},{"type":"Feature","id":"aztec-mictlan","properties":{"id":"aztec-mictlan","name":"Journey to Mictlan","mythologyId":"aztec","type":"afterlife","era":"MS 1400","eraBucket":"medieval","summary":"After death, most Aztec souls traveled to Mictlan through nine challenging layers over four years. They crossed rivers of blood, passed between clashing mountains, endured razor-sharp winds, and finally stood before the death lord Mictlantecuhtli. A hairless dog (xoloitzcuintli) guided the soul through the underworld.","imageUrl":"https://upload.wikimedia.org/wikipedia/commons/thumb/e/e1/Piramide_del_Sol_072006.jpg/1280px-Piramide_del_Sol_072006.jpg","themes":"afterlife,journey,death,trials,dog-guide"},"geometry":{"type":"Point","coordinates":[-99.13,19.43]}},{"type":"Feature","id":"aztec-coyolxauhqui","properties":{"id":"aztec-coyolxauhqui","name":"Huitzilopochtli vs Coyolxauhqui","mythologyId":"aztec","type":"war","era":"MS 1400","eraBucket":"medieval","summary":"Coatlicue became pregnant from a ball of feathers. Her daughter Coyolxauhqui and 400 brothers plotted to kill her in shame. At the moment of attack, Huitzilopochtli was born fully armed, dismembering Coyolxauhqui and hurling her down Mount Coatepec. This battle is reenacted daily as the sun defeats the moon and stars.","imageUrl":"https://upload.wikimedia.org/wikipedia/commons/thumb/e/e1/Piramide_del_Sol_072006.jpg/1280px-Piramide_del_Sol_072006.jpg","themes":"birth,war,sacrifice,sun-moon,sibling-rivalry"},"geometry":{"type":"Point","coordinates":[-99.13,19.43]}}]}