{"type":"FeatureCollection","features":[{"type":"Feature","id":"teotihuacan","properties":{"id":"teotihuacan","name":"Teotihuacán — City of the Gods","mythologyId":"aztec","mythologyName":"Aztec Mythology","type":"city","era":"MÖ 200","eraBucket":"ancient","description":"Massive pre-Aztec city with the Pyramid of the Sun and Moon. The Aztecs believed the gods created the Fifth Sun here.","imageUrl":"https://upload.wikimedia.org/wikipedia/commons/thumb/e/e1/Piramide_del_Sol_072006.jpg/1280px-Piramide_del_Sol_072006.jpg","country":"Mexico","modernStatus":"UNESCO World Heritage Site, most visited ruin in Mexico","tags":"pyramid,city,fifth-sun","color":"#1ABC9C"},"geometry":{"type":"Point","coordinates":[-98.84,19.69]}},{"type":"Feature","id":"templo-mayor","properties":{"id":"templo-mayor","name":"Templo Mayor — Heart of Tenochtitlan","mythologyId":"aztec","mythologyName":"Aztec Mythology","type":"temple","era":"MS 1325","eraBucket":"medieval","description":"Twin pyramid temple in the center of the Aztec capital, dedicated to Huitzilopochtli and Tlaloc. Site of mass human sacrifices.","imageUrl":"https://upload.wikimedia.org/wikipedia/commons/thumb/e/e1/Piramide_del_Sol_072006.jpg/1280px-Piramide_del_Sol_072006.jpg","country":"Mexico","modernStatus":"Archaeological site and museum in Mexico City","tags":"pyramid,sacrifice,twin","color":"#1ABC9C"},"geometry":{"type":"Point","coordinates":[-99.13,19.43]}}]}