{"type":"FeatureCollection","features":[{"type":"Feature","geometry":{"type":"Point","coordinates":[11.78,43.07]},"properties":{"id":"tinia","name":"Tinia","mythologyId":"etruscan","type":"god","era":"MÖ 700","eraBucket":"ancient","description":"Supreme sky and thunder god of the Etruscans. Wielded three thunderbolts of increasing severity. His decisions were read through lightning.","imageUrl":"https://upload.wikimedia.org/wikipedia/commons/thumb/1/13/Tinia_Staatliche_Antikensammlungen_M%C3%BCnchen_2013.jpg/960px-Tinia_Staatliche_Antikensammlungen_M%C3%BCnchen_2013.jpg","domains":"sky,thunder,law","color":"#607D8B"}},{"type":"Feature","geometry":{"type":"Point","coordinates":[11.78,43.07]},"properties":{"id":"menrva","name":"Menrva","mythologyId":"etruscan","type":"goddess","era":"MÖ 700","eraBucket":"ancient","description":"Etruscan goddess of wisdom and war, part of the primary triad with Tinia and Uni. Directly became Roman Minerva. Patroness of artisans and healers.","imageUrl":"https://upload.wikimedia.org/wikipedia/commons/e/e9/Populonia_AR_20_BMC_74000021.jpg","domains":"wisdom,war,art,medicine","color":"#607D8B"}},{"type":"Feature","geometry":{"type":"Point","coordinates":[11.78,43.07]},"properties":{"id":"charun","name":"Charun","mythologyId":"etruscan","type":"spirit","era":"MÖ 500","eraBucket":"ancient","description":"Etruscan demon of death who guarded the underworld entrance. Blue-skinned with a hammer. Not evil but inevitable — he guided souls to their destination.","imageUrl":"https://upload.wikimedia.org/wikipedia/commons/thumb/0/09/Charun_dead_souls_Cdm_Paris_2783.jpg/960px-Charun_dead_souls_Cdm_Paris_2783.jpg","domains":"death,underworld,guardian","color":"#607D8B"}},{"type":"Feature","geometry":{"type":"Point","coordinates":[11.78,43.07]},"properties":{"id":"vanth","name":"Vanth","mythologyId":"etruscan","type":"spirit","era":"MÖ 400","eraBucket":"ancient","description":"Winged female death spirit of Etruscan mythology. Gentle guide of souls — unlike terrifying Charun, Vanth comforts the dying. Often depicted with torches.","imageUrl":"https://upload.wikimedia.org/wikipedia/commons/5/59/Vanth.jpg","domains":"death,escort,fate","color":"#607D8B"}}]}
