{"type":"FeatureCollection","features":[{"type":"Feature","geometry":{"type":"Point","coordinates":[11.78,42.22]},"properties":{"id":"etruscan-afterlife","name":"Etruscan Afterlife Banquet","mythologyId":"etruscan","type":"afterlife","era":"MÖ 600","eraBucket":"ancient","summary":"Etruscan tomb paintings depict joyful afterlife banquets where the deceased feast, dance, and enjoy music in the presence of guardian spirits. Vanth, a winged female figure, guided souls. Charun, with his hammer, guarded the underworld gate. The Etruscans viewed death as a transition to continued celebration.","imageUrl":"","themes":"afterlife,banquet,joy,transition,guardian-spirits"}},{"type":"Feature","geometry":{"type":"Point","coordinates":[11.78,43.07]},"properties":{"id":"etruscan-creation","name":"Tages Rises from the Furrow","mythologyId":"etruscan","type":"creation","era":"MÖ 700","eraBucket":"ancient","summary":"While plowing a field near Tarquinia, a farmer's plow uncovered a child with the wisdom of an elder. This was Tages, a divine being who taught the Etruscans the art of haruspicy (reading entrails), the interpretation of lightning, and the sacred laws (Etrusca disciplina). He then vanished.","imageUrl":"","themes":"divine-revelation,divination,plowing,wisdom,sacred-law"}}]}
