{"type":"FeatureCollection","features":[{"type":"Feature","geometry":{"type":"Point","coordinates":[11.77,42.25]},"properties":{"id":"tarquinia","name":"Tarquinia Necropolis","mythologyId":"etruscan","mythologyName":"Etruscan Mythology","type":"temple","era":"MÖ 600","eraBucket":"ancient","description":"Painted underground tombs depicting Etruscan afterlife beliefs. Vibrant frescoes show banquets, dancing, and the journey to the underworld.","imageUrl":"https://upload.wikimedia.org/wikipedia/commons/thumb/4/48/Tarquinia_town_square_AvL.JPG/960px-Tarquinia_town_square_AvL.JPG","country":"Italy","modernStatus":"UNESCO World Heritage Site","tags":"tombs,frescoes,afterlife","color":"#607D8B"}}]}
