{"type":"FeatureCollection","features":[{"type":"Feature","id":"olodumare","properties":{"id":"olodumare","name":"Olodumare","mythologyId":"yoruba","type":"god","era":"ancient","eraBucket":"ancient","description":"Supreme creator deity of Yoruba religion. Distant and transcendent. Acts through orishas (divine intermediaries).","imageUrl":"https://upload.wikimedia.org/wikipedia/commons/thumb/f/f4/Obalufon_mask_Ife.jpg/440px-Obalufon_mask_Ife.jpg","domains":"supreme-creator,life,destiny","color":"#E91E63"},"geometry":{"type":"Point","coordinates":[3.92,7.4]}},{"type":"Feature","id":"shango","properties":{"id":"shango","name":"Shango","mythologyId":"yoruba","type":"god","era":"MS 1400","eraBucket":"medieval","description":"Orisha of thunder, fire, and justice. Deified king of Oyo. Wields a double-headed axe. One of the most popular orishas worldwide.","imageUrl":"https://upload.wikimedia.org/wikipedia/commons/thumb/f/f4/Obalufon_mask_Ife.jpg/440px-Obalufon_mask_Ife.jpg","domains":"thunder,fire,justice,dance","color":"#E91E63"},"geometry":{"type":"Point","coordinates":[4.54,8.48]}},{"type":"Feature","id":"ogun-deity","properties":{"id":"ogun-deity","name":"Ogun","mythologyId":"yoruba","type":"god","era":"ancient","eraBucket":"ancient","description":"Orisha of iron, war, and technology. Patron of blacksmiths, warriors, and all who use metal tools. Cleared the path from heaven to earth.","imageUrl":"https://upload.wikimedia.org/wikipedia/commons/thumb/f/f4/Obalufon_mask_Ife.jpg/440px-Obalufon_mask_Ife.jpg","domains":"iron,war,technology,hunting","color":"#E91E63"},"geometry":{"type":"Point","coordinates":[3.92,7.4]}},{"type":"Feature","id":"yemoja","properties":{"id":"yemoja","name":"Yemoja","mythologyId":"yoruba","type":"goddess","era":"ancient","eraBucket":"ancient","description":"Mother of all orishas. Goddess of the ocean and rivers. Protector of women, especially pregnant women and children.","imageUrl":"https://upload.wikimedia.org/wikipedia/commons/thumb/f/f4/Obalufon_mask_Ife.jpg/440px-Obalufon_mask_Ife.jpg","domains":"ocean,motherhood,fertility,rivers","color":"#E91E63"},"geometry":{"type":"Point","coordinates":[3.92,7.4]}},{"type":"Feature","id":"eshu","properties":{"id":"eshu","name":"Eshu","mythologyId":"yoruba","type":"trickster","era":"ancient","eraBucket":"ancient","description":"Orisha of crossroads, messenger between humans and the divine. Trickster who tests and challenges. Must be honored first in all rituals.","imageUrl":"https://upload.wikimedia.org/wikipedia/commons/thumb/f/f4/Obalufon_mask_Ife.jpg/440px-Obalufon_mask_Ife.jpg","domains":"trickster,crossroads,communication,fate","color":"#E91E63"},"geometry":{"type":"Point","coordinates":[3.92,7.4]}},{"type":"Feature","id":"orunmila","properties":{"id":"orunmila","name":"Orunmila","mythologyId":"yoruba","type":"god","era":"ancient","eraBucket":"ancient","description":"Orisha of wisdom and divination. Witnessed creation and knows all destinies. Gave humanity the Ifa oracle system.","imageUrl":"https://upload.wikimedia.org/wikipedia/commons/thumb/f/f4/Obalufon_mask_Ife.jpg/440px-Obalufon_mask_Ife.jpg","domains":"wisdom,divination,destiny,knowledge","color":"#E91E63"},"geometry":{"type":"Point","coordinates":[3.92,7.4]}},{"type":"Feature","id":"oshun","properties":{"id":"oshun","name":"Oshun","mythologyId":"yoruba","type":"goddess","era":"ancient","eraBucket":"ancient","description":"Orisha of the Oshun River, love, fertility, and beauty. Youngest orisha. Her sweetness hides fierce power. One of Shango's wives.","imageUrl":"https://upload.wikimedia.org/wikipedia/commons/thumb/f/f4/Obalufon_mask_Ife.jpg/440px-Obalufon_mask_Ife.jpg","domains":"river,love,fertility,beauty,divination","color":"#E91E63"},"geometry":{"type":"Point","coordinates":[4.56,7.77]}},{"type":"Feature","id":"oya","properties":{"id":"oya","name":"Oya","mythologyId":"yoruba","type":"goddess","era":"ancient","eraBucket":"ancient","description":"Orisha of wind, lightning, and transformation. Guardian of the cemetery gates. Shango's most powerful wife. Fierce warrior goddess.","imageUrl":"https://upload.wikimedia.org/wikipedia/commons/thumb/f/f4/Obalufon_mask_Ife.jpg/440px-Obalufon_mask_Ife.jpg","domains":"wind,storms,death,transformation","color":"#E91E63"},"geometry":{"type":"Point","coordinates":[4.54,8.48]}},{"type":"Feature","id":"obatala","properties":{"id":"obatala","name":"Obatala","mythologyId":"yoruba","type":"god","era":"ancient","eraBucket":"ancient","description":"Father of all orishas, creator of human bodies. Associated with white, purity, and moral clarity. Got drunk on palm wine during creation.","imageUrl":"https://upload.wikimedia.org/wikipedia/commons/thumb/f/f4/Obalufon_mask_Ife.jpg/440px-Obalufon_mask_Ife.jpg","domains":"creation,purity,wisdom,justice","color":"#E91E63"},"geometry":{"type":"Point","coordinates":[3.92,7.4]}},{"type":"Feature","id":"anansi-deity","properties":{"id":"anansi-deity","name":"Anansi","mythologyId":"yoruba","type":"trickster","era":"ancient","eraBucket":"ancient","description":"The Spider trickster of Akan tradition. Owns all stories. Uses wit rather than strength. Traveled to the Americas through the slave trade.","imageUrl":"https://upload.wikimedia.org/wikipedia/commons/thumb/f/f4/Obalufon_mask_Ife.jpg/440px-Obalufon_mask_Ife.jpg","domains":"stories,trickery,wisdom,weaving","color":"#E91E63"},"geometry":{"type":"Point","coordinates":[-1.57,6.69]}}]}