{"type":"FeatureCollection","features":[{"type":"Feature","geometry":{"type":"Point","coordinates":[3.92,7.4]},"properties":{"id":"yoruba-creation","name":"Creation of the World (Yoruba)","mythologyId":"yoruba","type":"creation","era":"MÖ 500","eraBucket":"ancient","summary":"Olodumare sent Obatala to create land by pouring sand from a snail shell onto the primordial ocean. A chicken scratched the sand to spread it, forming land. Obatala shaped humans from clay but got drunk on palm wine, creating those with disabilities. Oduduwa completed the task, founding Ile-Ife, the sacred city.","imageUrl":"","themes":"creation,divine-imperfection,city-founding,responsibility"}},{"type":"Feature","geometry":{"type":"Point","coordinates":[4.54,8.48]},"properties":{"id":"shango-thunder","name":"Shango — Lord of Thunder","mythologyId":"yoruba","type":"hero","era":"MS 1400","eraBucket":"medieval","summary":"Shango was a powerful king of Oyo who wielded thunder and fire. Betrayed by his subjects, he hanged himself but was deified as the orisha of thunder and justice. His three wives — Oya (wind), Oba (river), and Oshun (fertility) — became powerful orishas themselves. He is invoked for justice and strength.","imageUrl":"https://upload.wikimedia.org/wikipedia/commons/thumb/1/14/Representa%C3%A7%C3%A3o_de_Xang%C3%B4_MN_01.jpg/960px-Representa%C3%A7%C3%A3o_de_Xang%C3%B4_MN_01.jpg","themes":"thunder,justice,kingship,death,deification"}},{"type":"Feature","geometry":{"type":"Point","coordinates":[-1.57,6.69]},"properties":{"id":"anansi","name":"Anansi the Spider","mythologyId":"yoruba","type":"trickster","era":"ancient","eraBucket":"ancient","summary":"Anansi the Spider wanted to own all stories. The sky god Nyame set impossible prices: capture Onini the python, Osebo the leopard, Mmoboro the hornets, and Mmoatia the invisible fairy. Through cunning rather than strength, Anansi captured them all. Nyame made all stories 'spider stories' (Anansesem).","imageUrl":"","themes":"trickster,cleverness,stories,ownership,wit"}},{"type":"Feature","geometry":{"type":"Point","coordinates":[3.92,7.4]},"properties":{"id":"yoruba-ifa","name":"Ifa Divination — Orunmila's Gift","mythologyId":"yoruba","type":"cosmology","era":"ancient","eraBucket":"ancient","summary":"Orunmila, the orisha of wisdom, witnessed creation and knows the destiny of all beings. He gave humanity the Ifa divination system — 256 odu (signs) containing stories, medicines, and wisdom for every life situation. A babalawo (priest) casts palm nuts or chains to read destiny. Eshu carries messages between humans and orishas.","imageUrl":"","themes":"divination,wisdom,destiny,knowledge,spiritual-practice"}},{"type":"Feature","geometry":{"type":"Point","coordinates":[3.92,7.4]},"properties":{"id":"yoruba-ogun","name":"Ogun Clears the Path to Earth","mythologyId":"yoruba","type":"hero","era":"ancient","eraBucket":"ancient","summary":"When the orishas descended from heaven to populate earth, the path was blocked by impenetrable forest. Only Ogun, god of iron, possessed the tools to cut through. He forged a machete and cleared the road. For this service, all orishas honored him. He became patron of blacksmiths, warriors, and all who use metal.","imageUrl":"","themes":"path-clearing,iron,service,technology,pioneering"}}]}
