{"type":"FeatureCollection","features":[{"type":"Feature","id":"ife","properties":{"id":"ife","name":"Ile-Ife — Birthplace of Humanity","mythologyId":"yoruba","mythologyName":"Yoruba Mythology","type":"city","era":"MÖ 500","eraBucket":"ancient","description":"Sacred city where Oduduwa descended from heaven and created dry land. Birthplace of the Yoruba people and all humanity in Yoruba belief.","imageUrl":"https://upload.wikimedia.org/wikipedia/commons/thumb/f/f4/Obalufon_mask_Ife.jpg/440px-Obalufon_mask_Ife.jpg","country":"Nigeria","modernStatus":"Historic city, active Yoruba spiritual center","tags":"city,creation,origin","color":"#E91E63"},"geometry":{"type":"Point","coordinates":[4.56,7.47]}},{"type":"Feature","id":"osun-grove","properties":{"id":"osun-grove","name":"Osun-Osogbo Sacred Grove","mythologyId":"yoruba","mythologyName":"Yoruba Mythology","type":"natural","era":"ancient","eraBucket":"ancient","description":"Dense forest along the Osun River, containing shrines, sculptures, and sacred spaces dedicated to the goddess Osun. Last remaining sacred grove.","imageUrl":"https://upload.wikimedia.org/wikipedia/commons/thumb/f/f4/Obalufon_mask_Ife.jpg/440px-Obalufon_mask_Ife.jpg","country":"Nigeria","modernStatus":"UNESCO World Heritage Site, annual festival","tags":"grove,river,goddess","color":"#E91E63"},"geometry":{"type":"Point","coordinates":[4.55,7.75]}},{"type":"Feature","id":"oshogbo-grove","properties":{"id":"oshogbo-grove","name":"Ogun Shrine (Ire-Ekiti)","mythologyId":"yoruba","mythologyName":"Yoruba Mythology","type":"temple","era":"ancient","eraBucket":"ancient","description":"Sacred shrine to Ogun, the orisha of iron. Annual festival involves fire-walking and iron demonstrations. Iron is placed at crossroads for protection.","imageUrl":"https://upload.wikimedia.org/wikipedia/commons/thumb/f/f4/Obalufon_mask_Ife.jpg/440px-Obalufon_mask_Ife.jpg","country":"Nigeria","modernStatus":"Active shrine with annual festival","tags":"iron,shrine,ogun","color":"#E91E63"},"geometry":{"type":"Point","coordinates":[5.46,7.77]}}]}