{"type":"FeatureCollection","features":[{"type":"Feature","geometry":{"type":"Point","coordinates":[51.68,32.66]},"properties":{"id":"ahura-mazda","name":"Ahura Mazda","mythologyId":"persian","type":"god","era":"MÖ 1500","eraBucket":"ancient","description":"Supreme creator god of Zoroastrianism. Embodiment of truth (asha) and light. Created the world from pure thought.","imageUrl":"https://upload.wikimedia.org/wikipedia/commons/thumb/9/96/Naqshe_Rostam_Darafsh_Ordibehesht_93_%2835%29.JPG/960px-Naqshe_Rostam_Darafsh_Ordibehesht_93_%2835%29.JPG","domains":"truth,light,creation,wisdom","color":"#9B59B6"}},{"type":"Feature","geometry":{"type":"Point","coordinates":[51.68,32.66]},"properties":{"id":"angra-mainyu","name":"Angra Mainyu","mythologyId":"persian","type":"spirit","era":"MÖ 1000","eraBucket":"ancient","description":"The cosmic adversary of Ahura Mazda. Source of all evil, disease, and death. Will ultimately be defeated at the end of time.","imageUrl":"https://upload.wikimedia.org/wikipedia/commons/thumb/e/e8/Ahrimane_%28Mythologie_pittoresque%2C_pl._18%29.jpg/960px-Ahrimane_%28Mythologie_pittoresque%2C_pl._18%29.jpg","domains":"evil,destruction,falsehood,darkness","color":"#9B59B6"}},{"type":"Feature","geometry":{"type":"Point","coordinates":[59.61,36.29]},"properties":{"id":"rostam-deity","name":"Rostam","mythologyId":"persian","type":"demigod","era":"MS 1010","eraBucket":"medieval","description":"Greatest hero of Persian mythology. Completed seven labors, served multiple kings. Tragically killed his own son Sohrab in combat.","imageUrl":"https://upload.wikimedia.org/wikipedia/commons/1/16/Rostam_and_the_White_Div_from_Baysanghar_Shahnameh.jpg","domains":"heroism,strength,loyalty,warfare","color":"#9B59B6"}},{"type":"Feature","geometry":{"type":"Point","coordinates":[51.42,35.7]},"properties":{"id":"simorgh-deity","name":"Simorgh","mythologyId":"persian","type":"spirit","era":"MÖ 1000","eraBucket":"ancient","description":"Benevolent mythical bird nesting atop the World Tree. Raised the hero Zal. Possesses all knowledge accumulated through three cosmic destructions.","imageUrl":"https://upload.wikimedia.org/wikipedia/commons/thumb/f/f2/Senmurv.svg/960px-Senmurv.svg.png","domains":"wisdom,healing,nurturing,immortality","color":"#9B59B6"}},{"type":"Feature","geometry":{"type":"Point","coordinates":[51.39,35.69]},"properties":{"id":"mithras","name":"Mithras","mythologyId":"persian","type":"god","era":"c. 100 BCE","eraBucket":"ancient","description":"Iranian deity later transformed in Roman mystery cult contexts, associated with oath and cosmic order.","imageUrl":"https://upload.wikimedia.org/wikipedia/commons/thumb/0/02/Mithra_sacrifiant_le_Taureau-005.JPG/960px-Mithra_sacrifiant_le_Taureau-005.JPG","domains":"covenant,light,warrior-protection","color":"#9B59B6"}}]}
