{"type":"FeatureCollection","features":[{"type":"Feature","id":"persepolis","properties":{"id":"persepolis","name":"Persepolis","mythologyId":"persian","mythologyName":"Persian / Zoroastrian Mythology","type":"temple","era":"MÖ 515","eraBucket":"ancient","description":"Ceremonial capital of the Achaemenid Empire. Apadana reliefs show tribute-bearers from all nations. New Year (Nowruz) celebrations were held here.","imageUrl":"https://upload.wikimedia.org/wikipedia/commons/thumb/2/2e/Persepolis_24.11.2009_11-12-14.jpg/1280px-Persepolis_24.11.2009_11-12-14.jpg","country":"Iran","modernStatus":"UNESCO World Heritage Site","tags":"palace,achaemenid,nowruz","color":"#9B59B6"},"geometry":{"type":"Point","coordinates":[52.89,29.93]}},{"type":"Feature","id":"fire-temple-yazd","properties":{"id":"fire-temple-yazd","name":"Atash Behram (Fire Temple of Yazd)","mythologyId":"persian","mythologyName":"Persian / Zoroastrian Mythology","type":"temple","era":"MS 470","eraBucket":"ancient","description":"Zoroastrian fire temple housing a flame said to have burned continuously since 470 CE. Sacred fire represents Ahura Mazda's truth.","imageUrl":"https://upload.wikimedia.org/wikipedia/commons/thumb/2/2e/Persepolis_24.11.2009_11-12-14.jpg/1280px-Persepolis_24.11.2009_11-12-14.jpg","country":"Iran","modernStatus":"Active Zoroastrian temple and museum","tags":"fire,zoroastrian,eternal","color":"#9B59B6"},"geometry":{"type":"Point","coordinates":[54.37,31.9]}},{"type":"Feature","id":"pasargadae","properties":{"id":"pasargadae","name":"Pasargadae — Tomb of Cyrus","mythologyId":"persian","mythologyName":"Persian / Zoroastrian Mythology","type":"temple","era":"MÖ 550","eraBucket":"ancient","description":"Capital of Cyrus the Great containing his austere stone tomb. Alexander the Great visited and ensured its protection.","imageUrl":"https://upload.wikimedia.org/wikipedia/commons/thumb/2/2e/Persepolis_24.11.2009_11-12-14.jpg/1280px-Persepolis_24.11.2009_11-12-14.jpg","country":"Iran","modernStatus":"UNESCO World Heritage Site","tags":"tomb,cyrus,capital","color":"#9B59B6"},"geometry":{"type":"Point","coordinates":[53.17,30.19]}}]}