{"type":"FeatureCollection","features":[{"type":"Feature","geometry":{"type":"Point","coordinates":[12.48,41.89]},"properties":{"id":"jupiter","name":"Jupiter","mythologyId":"roman","type":"god","era":"MÖ 500","eraBucket":"ancient","description":"King of Roman gods, supreme deity of the state religion. Protector of Rome and guarantor of law and social order.","imageUrl":"https://upload.wikimedia.org/wikipedia/commons/thumb/2/25/0_Jupiter_-_Louvre_MR_254_-_Louvre-Lens_%282%29.JPG/960px-0_Jupiter_-_Louvre_MR_254_-_Louvre-Lens_%282%29.JPG","domains":"sky,thunder,king,law","color":"#C0392B"}},{"type":"Feature","geometry":{"type":"Point","coordinates":[12.48,41.89]},"properties":{"id":"mars","name":"Mars","mythologyId":"roman","type":"god","era":"MÖ 500","eraBucket":"ancient","description":"Father of Romulus and Remus, second only to Jupiter. Unlike Greek Ares, Mars was respected as guardian of Rome and agriculture.","imageUrl":"https://upload.wikimedia.org/wikipedia/commons/thumb/9/97/0_Statue_de_Mars_%28Pyrrhus%29_-_Musei_Capitolini_-_MC0058_%282%29.JPG/960px-0_Statue_de_Mars_%28Pyrrhus%29_-_Musei_Capitolini_-_MC0058_%282%29.JPG","domains":"war,agriculture,guardianship","color":"#C0392B"}},{"type":"Feature","geometry":{"type":"Point","coordinates":[12.67,41.77]},"properties":{"id":"diana","name":"Diana","mythologyId":"roman","type":"goddess","era":"MÖ 500","eraBucket":"ancient","description":"Roman goddess of the hunt and moon. Guardian of the woods. Protector of the lower classes. Her temple at Nemi was one of Rome's most sacred sites.","imageUrl":"https://upload.wikimedia.org/wikipedia/commons/3/3a/Statue_of_Artemis%2C_fresco_from_Pompeii.jpg","domains":"hunt,moon,nature,crossroads","color":"#C0392B"}},{"type":"Feature","geometry":{"type":"Point","coordinates":[12.48,41.89]},"properties":{"id":"venus","name":"Venus","mythologyId":"roman","type":"goddess","era":"MÖ 300","eraBucket":"ancient","description":"Roman goddess of love and beauty. Mother of Aeneas, ancestor of the Julian family. More dignified than Greek Aphrodite — tied to state power.","imageUrl":"https://upload.wikimedia.org/wikipedia/commons/6/67/Aphrodite_Anadyomene_from_Pompeii_cropped.jpg","domains":"love,beauty,fertility,victory","color":"#C0392B"}},{"type":"Feature","geometry":{"type":"Point","coordinates":[12.48,41.89]},"properties":{"id":"mercury","name":"Mercury","mythologyId":"roman","type":"god","era":"MÖ 400","eraBucket":"ancient","description":"Roman messenger god and patron of merchants and thieves. More commercially oriented than Greek Hermes. Featured on Roman coinage.","imageUrl":"https://upload.wikimedia.org/wikipedia/commons/thumb/8/8e/Casa_dei_vettii%2C_vestibolo%2C_oechus_affrescato_sul_peristilio%2C_issione_legato_alla_ruota_da_vulcano_alla_presenza_di_giunone_02.jpg/960px-Casa_dei_vettii%2C_vestibolo%2C_oechus_affrescato_sul_peristilio%2C_issione_legato_alla_ruota_da_vulcano_alla_presenza_di_giunone_02.jpg","domains":"trade,messengers,thieves,eloquence","color":"#C0392B"}},{"type":"Feature","geometry":{"type":"Point","coordinates":[12.48,41.89]},"properties":{"id":"janus","name":"Janus","mythologyId":"roman","type":"god","era":"MÖ 700","eraBucket":"ancient","description":"Uniquely Roman two-faced god of beginnings and transitions. No Greek equivalent. January named after him. Guarded all doorways and passages.","imageUrl":"https://upload.wikimedia.org/wikipedia/commons/thumb/3/34/Double_herm_Chiaramonti_Inv1395.jpg/960px-Double_herm_Chiaramonti_Inv1395.jpg","domains":"beginnings,endings,doorways,transitions,time","color":"#C0392B"}},{"type":"Feature","geometry":{"type":"Point","coordinates":[12.48,41.89]},"properties":{"id":"juno","name":"Juno","mythologyId":"roman","type":"goddess","era":"MÖ 500","eraBucket":"ancient","description":"Queen of the Roman gods. June named after her. Protector of the state and women. Part of the Capitoline Triad with Jupiter and Minerva.","imageUrl":"https://upload.wikimedia.org/wikipedia/commons/thumb/f/f3/Juno_Sospita_Statue.jpg/960px-Juno_Sospita_Statue.jpg","domains":"marriage,childbirth,state,women","color":"#C0392B"}},{"type":"Feature","geometry":{"type":"Point","coordinates":[12.48,41.89]},"properties":{"id":"minerva","name":"Minerva","mythologyId":"roman","type":"goddess","era":"MÖ 500","eraBucket":"ancient","description":"Roman goddess of wisdom and strategic warfare. Part of the Capitoline Triad. Patron of artisans, doctors, and musicians.","imageUrl":"https://upload.wikimedia.org/wikipedia/commons/3/3a/Herculaneum_Collegio_degli_Augustali_Ercole_sull%27Olimpo_%28cropped%29.jpg","domains":"wisdom,strategic-warfare,arts,trade","color":"#C0392B"}},{"type":"Feature","geometry":{"type":"Point","coordinates":[14.48,40.63]},"properties":{"id":"pluto-god","name":"Pluto","mythologyId":"roman","type":"god","era":"MÖ 300","eraBucket":"ancient","description":"Roman god of the underworld and wealth. Less feared than Hades. Underground riches (metals, gems) were his domain. Abducted Proserpina.","imageUrl":"https://upload.wikimedia.org/wikipedia/commons/thumb/b/be/Statuette_of_Pluto%2C_front_-_Getty_Museum_%2871.AA.438%29.jpg/960px-Statuette_of_Pluto%2C_front_-_Getty_Museum_%2871.AA.438%29.jpg","domains":"underworld,wealth,death","color":"#C0392B"}},{"type":"Feature","geometry":{"type":"Point","coordinates":[14.25,37.5]},"properties":{"id":"ceres","name":"Ceres","mythologyId":"roman","type":"goddess","era":"MÖ 500","eraBucket":"ancient","description":"Roman goddess of agriculture and motherly love. Her grief over Proserpina's abduction caused the seasons. Cereal grains named after her.","imageUrl":"https://upload.wikimedia.org/wikipedia/commons/thumb/0/0b/Ceres_of_M%C3%A9rida_%28cropped%29.jpg/960px-Ceres_of_M%C3%A9rida_%28cropped%29.jpg","domains":"agriculture,harvest,fertility,motherly-love","color":"#C0392B"}},{"type":"Feature","geometry":{"type":"Point","coordinates":[12.48,41.89]},"properties":{"id":"saturn","name":"Saturn","mythologyId":"roman","type":"god","era":"MÖ 700","eraBucket":"ancient","description":"Ancient Roman god of time and agriculture. Ruled during the mythical Golden Age. The wild Saturnalia festival honored him each December.","imageUrl":"https://upload.wikimedia.org/wikipedia/commons/thumb/e/e2/Saturn_with_head_protected_by_winter_cloak%2C_holding_a_scythe_in_his_right_hand%2C_fresco_from_the_House_of_the_Dioscuri_at_Pompeii%2C_Naples_Archaeological_Museum_%2823497733210%29.jpg/960px-thumbnail.jpg","domains":"time,agriculture,golden-age,renewal","color":"#C0392B"}},{"type":"Feature","geometry":{"type":"Point","coordinates":[12.48,41.89]},"properties":{"id":"bacchus","name":"Bacchus","mythologyId":"roman","type":"god","era":"MÖ 300","eraBucket":"ancient","description":"Roman god of wine and ecstatic freedom. His cult (Bacchanalia) became so wild the Roman Senate banned it in 186 BCE.","imageUrl":"https://upload.wikimedia.org/wikipedia/commons/thumb/8/8a/Dionysos_Louvre_Ma87_n2.jpg/960px-Dionysos_Louvre_Ma87_n2.jpg","domains":"wine,ecstasy,freedom,theater","color":"#C0392B"}},{"type":"Feature","geometry":{"type":"Point","coordinates":[12.49,41.9]},"properties":{"id":"sol-invictus","name":"Sol Invictus","mythologyId":"roman","type":"god","era":"Late Roman Empire","eraBucket":"ancient","description":"Late Roman solar deity tied to imperial cult, unconquered light, and shared symbolic terrain with Mithraic worship.","imageUrl":"https://upload.wikimedia.org/wikipedia/commons/thumb/9/9a/Naiskos_with_relief_of_Sol_%28Lyon%2C_Mus_Gal-Rom_2001.0.326%29_01.jpg/960px-Naiskos_with_relief_of_Sol_%28Lyon%2C_Mus_Gal-Rom_2001.0.326%29_01.jpg","domains":"sun,light,imperial-protection","color":"#C0392B"}}]}
