{"type":"FeatureCollection","features":[{"type":"Feature","geometry":{"type":"Point","coordinates":[12.49,41.89]},"properties":{"id":"romulus-remus","name":"Romulus and Remus","mythologyId":"roman","type":"hero","era":"MÖ 753","eraBucket":"ancient","summary":"Twin sons of Mars and the Vestal Virgin Rhea Silvia, abandoned on the Tiber and raised by a she-wolf. As adults they founded a city, but quarreled over its location. Romulus killed Remus and named the city Rome. The fratricide shadowed Roman history with themes of necessary violence.","imageUrl":"https://upload.wikimedia.org/wikipedia/commons/thumb/6/6a/She-wolf_suckles_Romulus_and_Remus.jpg/800px-She-wolf_suckles_Romulus_and_Remus.jpg","themes":"foundation,fratricide,destiny,civilization,violence"}},{"type":"Feature","geometry":{"type":"Point","coordinates":[26.24,39.96]},"properties":{"id":"aeneid","name":"The Aeneid","mythologyId":"roman","type":"quest","era":"MÖ 29","eraBucket":"ancient","summary":"After Troy fell, the hero Aeneas journeyed to Italy guided by destiny. He loved and abandoned Queen Dido of Carthage, descended to the underworld, and fought wars in Latium. His descendants would found Rome. Virgil's epic connected Roman power to Trojan heritage and divine mandate.","imageUrl":"https://upload.wikimedia.org/wikipedia/commons/thumb/6/6e/Aeneas%27_Flight_from_Troy_by_Federico_Barocci.jpg/440px-Aeneas%27_Flight_from_Troy_by_Federico_Barocci.jpg","themes":"destiny,duty,sacrifice,empire,journey"}},{"type":"Feature","geometry":{"type":"Point","coordinates":[12.49,41.9]},"properties":{"id":"roman-metamorphoses","name":"Metamorphoses — Tales of Transformation","mythologyId":"roman","type":"transformation","era":"MS 8","eraBucket":"ancient","summary":"Ovid's Metamorphoses weaves 250 transformation myths into a continuous narrative from creation to Julius Caesar's apotheosis. Narcissus becomes a flower, Daphne a laurel tree, Arachne a spider, and Icarus falls from the sky. Each transformation reveals the consequences of hubris, desire, or divine whim.","imageUrl":"https://upload.wikimedia.org/wikipedia/commons/thumb/4/4e/Ovidius_Naso_-_Metamorphoses%2C_del_MCCCCLXXXXVII_Adi_X_del_mese_di_aprile_-_1583162_Carta_a1r.jpeg/960px-Ovidius_Naso_-_Metamorphoses%2C_del_MCCCCLXXXXVII_Adi_X_del_mese_di_aprile_-_1583162_Carta_a1r.jpeg","themes":"transformation,hubris,desire,divine-punishment,art"}},{"type":"Feature","geometry":{"type":"Point","coordinates":[12.49,41.9]},"properties":{"id":"roman-creation","name":"Roman Creation — Ages of Man","mythologyId":"roman","type":"creation","era":"MÖ 43","eraBucket":"ancient","summary":"The Roman creation myth describes four ages: the Golden Age under Saturn, when the earth yielded crops without labor; the Silver Age; the Bronze Age of warfare; and the Iron Age of suffering. Each age saw moral decline. Saturn's Golden Age became the model for the Saturnalia festival.","imageUrl":"","themes":"creation,ages,decline,golden-age,civilization"}},{"type":"Feature","geometry":{"type":"Point","coordinates":[15.09,37.5]},"properties":{"id":"roman-proserpina","name":"Proserpina and the Pomegranate","mythologyId":"roman","type":"nature","era":"MÖ 200","eraBucket":"ancient","summary":"Pluto abducted Proserpina to the underworld. Her mother Ceres caused all plants to die. Jupiter brokered a deal but Proserpina had eaten pomegranate seeds — binding her to six months below. Her annual return brings spring; her departure brings winter. The Eleusinian-style mysteries spread this cult across the Roman Empire.","imageUrl":"","themes":"seasons,abduction,pomegranate,mother-daughter,nature"}},{"type":"Feature","geometry":{"type":"Point","coordinates":[12.49,41.89]},"properties":{"id":"roman-sabine","name":"Rape of the Sabine Women","mythologyId":"roman","type":"war","era":"MÖ 750","eraBucket":"ancient","summary":"Early Rome had men but no women. Romulus invited the neighboring Sabines to a festival, then his men seized the women. War erupted between Romans and Sabines. The abducted women — now wives and mothers — threw themselves between the armies, demanding peace. The two peoples merged into one nation.","imageUrl":"https://upload.wikimedia.org/wikipedia/commons/7/7d/L._Titurius_L.f._Sabinus._denarius%2C_89_BC%2C_RRC_344-1a_%28cropped_reverse%29.jpg","themes":"abduction,war,peace,marriage,founding"}}]}
