{"type":"FeatureCollection","features":[{"type":"Feature","id":"colosseum","properties":{"id":"colosseum","name":"Colosseum","mythologyId":"roman","mythologyName":"Roman Mythology","type":"temple","era":"MS 80","eraBucket":"ancient","description":"Massive amphitheater where gladiatorial combats honored Mars and other war gods. Could seat 50,000 spectators.","imageUrl":"https://upload.wikimedia.org/wikipedia/commons/thumb/d/d8/Pantheon_Roma_2.jpg/1280px-Pantheon_Roma_2.jpg","country":"Italy","modernStatus":"UNESCO World Heritage Site, Rome's most iconic landmark","tags":"amphitheater,roman,gladiators","color":"#C0392B"},"geometry":{"type":"Point","coordinates":[12.49,41.89]}},{"type":"Feature","id":"pantheon-rome","properties":{"id":"pantheon-rome","name":"Pantheon — Temple of All Gods","mythologyId":"roman","mythologyName":"Roman Mythology","type":"temple","era":"MS 125","eraBucket":"ancient","description":"Temple dedicated to all Roman gods, rebuilt by Hadrian. Its unreinforced concrete dome remains the world's largest after nearly 2,000 years.","imageUrl":"https://upload.wikimedia.org/wikipedia/commons/thumb/d/d8/Pantheon_Roma_2.jpg/1280px-Pantheon_Roma_2.jpg","country":"Italy","modernStatus":"Active church, UNESCO World Heritage Site","tags":"temple,dome,all-gods","color":"#C0392B"},"geometry":{"type":"Point","coordinates":[12.48,41.9]}},{"type":"Feature","id":"pompeii","properties":{"id":"pompeii","name":"Pompeii","mythologyId":"roman","mythologyName":"Roman Mythology","type":"city","era":"MÖ 600","eraBucket":"ancient","description":"Roman city frozen in time by Vesuvius's eruption in 79 CE. Temples to Jupiter, Apollo, Isis, and Venus preserved exactly as they were.","imageUrl":"https://upload.wikimedia.org/wikipedia/commons/thumb/d/d8/Pantheon_Roma_2.jpg/1280px-Pantheon_Roma_2.jpg","country":"Italy","modernStatus":"UNESCO World Heritage Site, ongoing excavation","tags":"volcano,preserved,roman","color":"#C0392B"},"geometry":{"type":"Point","coordinates":[14.49,40.75]}}]}