{"type":"FeatureCollection","features":[{"type":"Feature","id":"odin","properties":{"id":"odin","name":"Odin","mythologyId":"norse","type":"god","era":"MS 200","eraBucket":"ancient","description":"Allfather of the Norse gods. Sacrificed an eye at Mimir's well for wisdom and hung on Yggdrasil for nine days to gain the runes.","imageUrl":"https://upload.wikimedia.org/wikipedia/commons/thumb/e/eb/Geirangerfjorden_from_Flydalsjuvet_2013.jpg/1280px-Geirangerfjorden_from_Flydalsjuvet_2013.jpg","domains":"wisdom,war,death,poetry,magic","color":"#2ECC71"},"geometry":{"type":"Point","coordinates":[10.75,59.91]}},{"type":"Feature","id":"thor","properties":{"id":"thor","name":"Thor","mythologyId":"norse","type":"god","era":"MS 200","eraBucket":"ancient","description":"God of thunder, protector of humanity and the gods. Wielded Mjölnir, the hammer. Strongest of the Aesir. Fated to die fighting Jörmungandr.","imageUrl":"https://upload.wikimedia.org/wikipedia/commons/thumb/e/eb/Geirangerfjorden_from_Flydalsjuvet_2013.jpg/1280px-Geirangerfjorden_from_Flydalsjuvet_2013.jpg","domains":"thunder,protection,strength,storms","color":"#2ECC71"},"geometry":{"type":"Point","coordinates":[10.75,59.91]}},{"type":"Feature","id":"loki","properties":{"id":"loki","name":"Loki","mythologyId":"norse","type":"trickster","era":"MS 200","eraBucket":"ancient","description":"The trickster god, blood-brother of Odin. Shape-shifter who caused mischief ranging from amusing to catastrophic. Father of Fenrir, Hel, and Jörmungandr.","imageUrl":"https://upload.wikimedia.org/wikipedia/commons/thumb/e/eb/Geirangerfjorden_from_Flydalsjuvet_2013.jpg/1280px-Geirangerfjorden_from_Flydalsjuvet_2013.jpg","domains":"trickery,fire,chaos,shapeshifting","color":"#2ECC71"},"geometry":{"type":"Point","coordinates":[-21.94,64.15]}},{"type":"Feature","id":"freyja","properties":{"id":"freyja","name":"Freyja","mythologyId":"norse","type":"goddess","era":"MS 200","eraBucket":"ancient","description":"Vanir goddess of love, fertility, and seiðr magic. Claimed half of battle-slain for her hall Fólkvangr. Most beautiful of the goddesses. Wept golden tears.","imageUrl":"https://upload.wikimedia.org/wikipedia/commons/thumb/e/eb/Geirangerfjorden_from_Flydalsjuvet_2013.jpg/1280px-Geirangerfjorden_from_Flydalsjuvet_2013.jpg","domains":"love,fertility,war,magic,death","color":"#2ECC71"},"geometry":{"type":"Point","coordinates":[11.97,57.72]}},{"type":"Feature","id":"fenrir","properties":{"id":"fenrir","name":"Fenrir","mythologyId":"norse","type":"monster","era":"MS 200","eraBucket":"ancient","description":"Monstrous wolf, son of Loki. Bound by the gods with magical chain Gleipnir. Destined to break free at Ragnarök and devour Odin.","imageUrl":"https://upload.wikimedia.org/wikipedia/commons/thumb/e/eb/Geirangerfjorden_from_Flydalsjuvet_2013.jpg/1280px-Geirangerfjorden_from_Flydalsjuvet_2013.jpg","domains":"destruction,fate,chaos","color":"#2ECC71"},"geometry":{"type":"Point","coordinates":[-21.94,64.15]}},{"type":"Feature","id":"jormungandr","properties":{"id":"jormungandr","name":"Jörmungandr","mythologyId":"norse","type":"monster","era":"MS 200","eraBucket":"ancient","description":"World-encircling sea serpent, child of Loki. Biting its own tail around Midgard. Will release at Ragnarök to fight Thor.","imageUrl":"https://upload.wikimedia.org/wikipedia/commons/thumb/e/eb/Geirangerfjorden_from_Flydalsjuvet_2013.jpg/1280px-Geirangerfjorden_from_Flydalsjuvet_2013.jpg","domains":"ocean,destruction,cosmic-boundary","color":"#2ECC71"},"geometry":{"type":"Point","coordinates":[-21.94,64.15]}},{"type":"Feature","id":"frigg","properties":{"id":"frigg","name":"Frigg","mythologyId":"norse","type":"goddess","era":"MS 200","eraBucket":"ancient","description":"Queen of the Aesir, wife of Odin. Goddess of marriage and motherhood. She knows all fates but tells none. Friday named after her.","imageUrl":"https://upload.wikimedia.org/wikipedia/commons/thumb/e/eb/Geirangerfjorden_from_Flydalsjuvet_2013.jpg/1280px-Geirangerfjorden_from_Flydalsjuvet_2013.jpg","domains":"marriage,motherhood,foresight,household","color":"#2ECC71"},"geometry":{"type":"Point","coordinates":[10.75,59.91]}},{"type":"Feature","id":"tyr","properties":{"id":"tyr","name":"Tyr","mythologyId":"norse","type":"god","era":"MS 200","eraBucket":"ancient","description":"God of law, justice, and honorable warfare. Sacrificed his hand to bind Fenrir. Tuesday named after him. Bravest of the gods.","imageUrl":"https://upload.wikimedia.org/wikipedia/commons/thumb/e/eb/Geirangerfjorden_from_Flydalsjuvet_2013.jpg/1280px-Geirangerfjorden_from_Flydalsjuvet_2013.jpg","domains":"law,justice,war,honor","color":"#2ECC71"},"geometry":{"type":"Point","coordinates":[12.57,55.68]}},{"type":"Feature","id":"hel","properties":{"id":"hel","name":"Hel","mythologyId":"norse","type":"goddess","era":"MS 200","eraBucket":"ancient","description":"Daughter of Loki, ruler of the realm of the dead (also called Hel). Half alive, half corpse. Received those who died of illness or old age.","imageUrl":"https://upload.wikimedia.org/wikipedia/commons/thumb/e/eb/Geirangerfjorden_from_Flydalsjuvet_2013.jpg/1280px-Geirangerfjorden_from_Flydalsjuvet_2013.jpg","domains":"death,underworld,disease","color":"#2ECC71"},"geometry":{"type":"Point","coordinates":[-21.94,64.15]}},{"type":"Feature","id":"balder","properties":{"id":"balder","name":"Balder","mythologyId":"norse","type":"god","era":"MS 200","eraBucket":"ancient","description":"Most beloved of the Norse gods, son of Odin and Frigg. Beautiful and pure. Killed by mistletoe. His death heralds Ragnarök.","imageUrl":"https://upload.wikimedia.org/wikipedia/commons/thumb/e/eb/Geirangerfjorden_from_Flydalsjuvet_2013.jpg/1280px-Geirangerfjorden_from_Flydalsjuvet_2013.jpg","domains":"light,beauty,joy,purity","color":"#2ECC71"},"geometry":{"type":"Point","coordinates":[10.75,59.91]}},{"type":"Feature","id":"heimdall","properties":{"id":"heimdall","name":"Heimdall","mythologyId":"norse","type":"god","era":"MS 200","eraBucket":"ancient","description":"Guardian of Bifrost, the rainbow bridge. Born of nine mothers. Can hear grass grow and see for hundreds of miles. Will blow Gjallarhorn at Ragnarök.","imageUrl":"https://upload.wikimedia.org/wikipedia/commons/thumb/e/eb/Geirangerfjorden_from_Flydalsjuvet_2013.jpg/1280px-Geirangerfjorden_from_Flydalsjuvet_2013.jpg","domains":"watchfulness,light,dawn,social-order","color":"#2ECC71"},"geometry":{"type":"Point","coordinates":[10.75,59.91]}},{"type":"Feature","id":"njord","properties":{"id":"njord","name":"Njörðr","mythologyId":"norse","type":"god","era":"MS 200","eraBucket":"ancient","description":"Vanir god of the sea, wind, and wealth. Father of Freyja and Freyr. Patron of sailors and fishermen. Married the giantess Skadi.","imageUrl":"https://upload.wikimedia.org/wikipedia/commons/thumb/e/eb/Geirangerfjorden_from_Flydalsjuvet_2013.jpg/1280px-Geirangerfjorden_from_Flydalsjuvet_2013.jpg","domains":"sea,wealth,fishing,wind","color":"#2ECC71"},"geometry":{"type":"Point","coordinates":[5.73,58.97]}},{"type":"Feature","id":"freyr","properties":{"id":"freyr","name":"Freyr","mythologyId":"norse","type":"god","era":"MS 200","eraBucket":"ancient","description":"Vanir god of fertility, sunshine, and rain. Twin brother of Freyja. Gave up his sword for love. Will be among the first to fall at Ragnarök.","imageUrl":"https://upload.wikimedia.org/wikipedia/commons/thumb/e/eb/Geirangerfjorden_from_Flydalsjuvet_2013.jpg/1280px-Geirangerfjorden_from_Flydalsjuvet_2013.jpg","domains":"fertility,sunshine,rain,peace","color":"#2ECC71"},"geometry":{"type":"Point","coordinates":[18.07,59.37]}}]}