{"type":"FeatureCollection","features":[{"type":"Feature","geometry":{"type":"Point","coordinates":[-21.94,64.15]},"properties":{"id":"ragnarok","name":"Ragnarök — Twilight of the Gods","mythologyId":"norse","type":"cosmology","era":"MS 1200","eraBucket":"medieval","summary":"Ragnarök is the prophesied end of the Norse cosmos. Loki breaks free, the Midgard Serpent rises from the sea, Fenrir devours Odin, and Thor and the serpent kill each other. The world sinks into the sea, only to rise again green and renewed. Two human survivors repopulate the earth.","imageUrl":"https://upload.wikimedia.org/wikipedia/commons/thumb/6/67/Battle_of_the_Doomed_Gods_by_Friedrich_Wilhelm_Heine.jpg/1280px-Battle_of_the_Doomed_Gods_by_Friedrich_Wilhelm_Heine.jpg","themes":"apocalypse,fate,rebirth,sacrifice,doom"}},{"type":"Feature","geometry":{"type":"Point","coordinates":[18.07,59.33]},"properties":{"id":"sigurd-dragon","name":"Sigurd and Fafnir","mythologyId":"norse","type":"hero","era":"MS 1200","eraBucket":"medieval","summary":"The hero Sigurd, guided by the smith Regin, slew the dragon Fafnir and bathed in its blood, gaining near-invulnerability. He tasted the dragon's heart and could understand bird speech. He woke the Valkyrie Brynhild from her enchanted sleep. His story ends in betrayal and tragedy at the Burgundian court.","imageUrl":"https://upload.wikimedia.org/wikipedia/commons/thumb/0/09/Sigurd_kills_Fafnir_by_Arthur_Rackham.jpg/440px-Sigurd_kills_Fafnir_by_Arthur_Rackham.jpg","themes":"dragon-slaying,treasure,betrayal,heroism,cursed-gold"}},{"type":"Feature","geometry":{"type":"Point","coordinates":[-18.53,64.96]},"properties":{"id":"norse-creation","name":"Norse Creation — Ginnungagap","mythologyId":"norse","type":"creation","era":"MS 1200","eraBucket":"medieval","summary":"In the beginning was Ginnungagap, the yawning void between fire (Muspelheim) and ice (Niflheim). The frost giant Ymir formed from melting ice, nourished by the cosmic cow Audhumla. Odin and his brothers slew Ymir and fashioned the world from his body: his flesh became earth, blood became seas, skull became sky.","imageUrl":"https://upload.wikimedia.org/wikipedia/commons/thumb/2/2d/AM_738_4to_Ginnungagap.png/440px-AM_738_4to_Ginnungagap.png","themes":"creation,sacrifice,cosmos,ice-fire,primordial-being"}},{"type":"Feature","geometry":{"type":"Point","coordinates":[10.4,63.43]},"properties":{"id":"thor-jormungandr","name":"Thor vs Jörmungandr","mythologyId":"norse","type":"war","era":"MS 1200","eraBucket":"medieval","summary":"Thor and the Midgard Serpent Jörmungandr are fated enemies. Thor once nearly caught the serpent while fishing with the giant Hymir, using an ox head as bait. At Ragnarök, they will fight to their mutual destruction — Thor slays the serpent but falls dead from its venom after nine steps.","imageUrl":"","themes":"fate,monster-slaying,mutual-destruction,fishing,cosmic-battle"}},{"type":"Feature","geometry":{"type":"Point","coordinates":[-21.94,64.15]},"properties":{"id":"loki-trickster","name":"Loki's Mischief and Punishment","mythologyId":"norse","type":"trickster","era":"MS 1200","eraBucket":"medieval","summary":"Loki, the trickster god, caused endless trouble — cutting Thor's wife's hair, tricking blind Höðr into killing the beloved Balder, and scheming against the gods. Finally bound with serpent venom dripping on his face, he will break free at Ragnarök to lead the forces of chaos.","imageUrl":"","themes":"trickery,chaos,punishment,transformation,betrayal"}},{"type":"Feature","geometry":{"type":"Point","coordinates":[10.75,59.91]},"properties":{"id":"balder-death","name":"Death of Balder","mythologyId":"norse","type":"afterlife","era":"MS 1200","eraBucket":"medieval","summary":"Balder, the most beloved god, had prophetic nightmares of death. Frigg extracted oaths from all things not to harm him — except mistletoe. Loki fashioned a mistletoe dart and guided blind Höðr to throw it, killing Balder. The gods tried to ransom him from Hel but Loki refused to weep, sealing Balder's death.","imageUrl":"","themes":"death,innocence,treachery,grief,doom"}},{"type":"Feature","geometry":{"type":"Point","coordinates":[-21.94,64.15]},"properties":{"id":"mead-poetry","name":"Theft of the Mead of Poetry","mythologyId":"norse","type":"quest","era":"MS 1200","eraBucket":"medieval","summary":"The Mead of Poetry was brewed from the blood of the wisest being, Kvasir. Odin infiltrated the giant Suttung's mountain by seducing his daughter Gunnlöð. He drank all three cauldrons of mead and escaped as an eagle, spitting the mead into vessels in Asgard. Some spilled to earth, giving mortals poetry.","imageUrl":"","themes":"poetry,theft,transformation,wisdom,seduction"}},{"type":"Feature","geometry":{"type":"Point","coordinates":[11.97,57.72]},"properties":{"id":"norse-freya-necklace","name":"Freyja and the Brísingamen","mythologyId":"norse","type":"quest","era":"MS 1200","eraBucket":"medieval","summary":"Freyja desired the Brísingamen, a necklace of incomparable beauty forged by four dwarves. She spent a night with each dwarf to obtain it. Loki stole it on Odin's orders, transforming into a flea to unpin the clasp. Heimdall fought Loki to recover it. The necklace became Freyja's most treasured possession.","imageUrl":"","themes":"desire,beauty,theft,transformation,divine-femininity"}},{"type":"Feature","geometry":{"type":"Point","coordinates":[-21.94,64.15]},"properties":{"id":"norse-valhalla","name":"Valhalla — Hall of the Slain","mythologyId":"norse","type":"afterlife","era":"MS 800","eraBucket":"medieval","summary":"Warriors who died bravely in battle were chosen by the Valkyries to feast in Odin's great hall Valhalla. Each day they fought to the death, each evening they were resurrected to feast on the boar Sæhrímnir and drink mead from the goat Heiðrún. They prepared for the final battle of Ragnarök.","imageUrl":"https://upload.wikimedia.org/wikipedia/commons/5/5f/Walhalla_%281896%29_by_Max_Br%C3%BCckner.jpg","themes":"afterlife,warriors,feast,preparation,glory"}}]}
