{"type":"FeatureCollection","features":[{"type":"Feature","id":"valhalla-site","properties":{"id":"valhalla-site","name":"Uppsala Temple (Gamla Uppsala)","mythologyId":"norse","mythologyName":"Norse Mythology","type":"temple","era":"MS 500","eraBucket":"medieval","description":"Ancient temple where Norse gods Thor, Odin, and Freyr were worshipped. Site of the greatest sacrificial festivals in Scandinavia.","imageUrl":"https://upload.wikimedia.org/wikipedia/commons/thumb/e/eb/Geirangerfjorden_from_Flydalsjuvet_2013.jpg/1280px-Geirangerfjorden_from_Flydalsjuvet_2013.jpg","country":"Sweden","modernStatus":"Archaeological site and museum","tags":"temple,norse,sacrifice","color":"#2ECC71"},"geometry":{"type":"Point","coordinates":[17.63,59.9]}},{"type":"Feature","id":"yggdrasil-well","properties":{"id":"yggdrasil-well","name":"Yggdrasil — The World Tree (Mythical)","mythologyId":"norse","mythologyName":"Norse Mythology","type":"natural","era":"MS 200","eraBucket":"ancient","description":"The cosmic ash tree connecting the nine worlds of Norse mythology. Its roots reach Niflheim, Jotunheim, and Asgard.","imageUrl":"https://upload.wikimedia.org/wikipedia/commons/thumb/e/eb/Geirangerfjorden_from_Flydalsjuvet_2013.jpg/1280px-Geirangerfjorden_from_Flydalsjuvet_2013.jpg","country":"Mythical","modernStatus":"Mythical — represented in Viking Age art and runestones","tags":"world-tree,cosmic,nine-worlds","color":"#2ECC71"},"geometry":{"type":"Point","coordinates":[10.4,63.43]}},{"type":"Feature","id":"asgard","properties":{"id":"asgard","name":"Asgard — Realm of the Gods (Mythical)","mythologyId":"norse","mythologyName":"Norse Mythology","type":"city","era":"MS 200","eraBucket":"ancient","description":"Mythical realm of the Aesir gods, connected to Midgard (Earth) by Bifrost, the rainbow bridge. Contains Valhalla, Gladsheim, and other divine halls.","imageUrl":"https://upload.wikimedia.org/wikipedia/commons/thumb/e/eb/Geirangerfjorden_from_Flydalsjuvet_2013.jpg/1280px-Geirangerfjorden_from_Flydalsjuvet_2013.jpg","country":"Mythical","modernStatus":"Mythical — no physical location","tags":"mythical,gods,rainbow-bridge","color":"#2ECC71"},"geometry":{"type":"Point","coordinates":[-21.94,64.15]}},{"type":"Feature","id":"thingvellir","properties":{"id":"thingvellir","name":"Þingvellir (Thingvellir)","mythologyId":"norse","mythologyName":"Norse Mythology","type":"natural","era":"MS 930","eraBucket":"medieval","description":"Where the Icelandic Althing (world's oldest parliament) met from 930 CE. A tectonic rift valley where the continents visibly separate.","imageUrl":"https://upload.wikimedia.org/wikipedia/commons/thumb/e/eb/Geirangerfjorden_from_Flydalsjuvet_2013.jpg/1280px-Geirangerfjorden_from_Flydalsjuvet_2013.jpg","country":"Iceland","modernStatus":"UNESCO World Heritage Site, Icelandic national park","tags":"parliament,rift,democratic","color":"#2ECC71"},"geometry":{"type":"Point","coordinates":[-21.13,64.26]}}]}