{"type":"FeatureCollection","features":[{"type":"Feature","geometry":{"type":"Point","coordinates":[42.7,42.27]},"properties":{"id":"amirani-deity","name":"Amirani","mythologyId":"georgian","type":"demigod","era":"MÖ 1000","eraBucket":"ancient","description":"Georgian Prometheus-figure. Son of a goddess. Stole fire from the gods. Chained to the Caucasus Mountains where an eagle eats his heart.","imageUrl":"","domains":"fire,defiance,heroism","color":"#26A69A"}},{"type":"Feature","geometry":{"type":"Point","coordinates":[41.68,42.16]},"properties":{"id":"medea-deity","name":"Medea","mythologyId":"georgian","type":"goddess","era":"MÖ 700","eraBucket":"ancient","description":"Granddaughter of Helios, divine sorceress of Colchis. In Georgian tradition, a powerful priestess of the sun cult. Her knowledge of plants was unmatched.","imageUrl":"https://upload.wikimedia.org/wikipedia/commons/thumb/d/d8/Relief_of_Medea_and_the_Peliades_Antikensammlung_Berlin.jpg/960px-Relief_of_Medea_and_the_Peliades_Antikensammlung_Berlin.jpg","domains":"magic,potions,vengeance,sun","color":"#26A69A"}},{"type":"Feature","geometry":{"type":"Point","coordinates":[44.8,42.7]},"properties":{"id":"dali-deity","name":"Dali","mythologyId":"georgian","type":"goddess","era":"MÖ 500","eraBucket":"ancient","description":"Georgian goddess of the hunt and mountains. Beautiful golden-haired deity who protects wild animals. Punishes hunters who kill without need.","imageUrl":"","domains":"hunt,mountains,beauty,animals","color":"#26A69A"}}]}
