{"type":"FeatureCollection","features":[{"type":"Feature","id":"amirani-fire","properties":{"id":"amirani-fire","name":"Amirani — Georgian Prometheus","mythologyId":"georgian","type":"hero","era":"MÖ 1000","eraBucket":"ancient","summary":"Amirani, son of a goddess, stole fire from the heavens and gave it to humanity. As punishment, he was chained to a rock in the Caucasus Mountains where an eagle eternally pecks at his heart. He still struggles to break free, causing earthquakes. The parallel with Prometheus is striking and ancient.","imageUrl":"https://upload.wikimedia.org/wikipedia/commons/thumb/e/e5/Gergeti_Trinity_Church.jpg/1280px-Gergeti_Trinity_Church.jpg","themes":"fire,sacrifice,defiance,punishment,earthquake"},"geometry":{"type":"Point","coordinates":[42.7,42.27]}},{"type":"Feature","id":"georgian-creation","properties":{"id":"georgian-creation","name":"The Golden Fleece in Colchis","mythologyId":"georgian","type":"quest","era":"MÖ 700","eraBucket":"ancient","summary":"In Georgian tradition, King Aeetes of Colchis guarded the Golden Fleece — the skin of a divine ram that had rescued children from sacrifice. The fleece hung in a sacred grove guarded by a dragon. When Jason came with the Argonauts, Aeetes' daughter Medea betrayed her father out of love. The story reflects Colchis's historical gold wealth.","imageUrl":"https://upload.wikimedia.org/wikipedia/commons/thumb/e/e5/Gergeti_Trinity_Church.jpg/1280px-Gergeti_Trinity_Church.jpg","themes":"quest,gold,betrayal,love,dragon-guardian"},"geometry":{"type":"Point","coordinates":[41.68,42.16]}}]}