{"type":"FeatureCollection","features":[{"type":"Feature","geometry":{"type":"Point","coordinates":[44.62,42.66]},"properties":{"id":"gergeti","name":"Gergeti Trinity Church","mythologyId":"georgian","mythologyName":"Georgian Mythology","type":"temple","era":"MS 1300","eraBucket":"medieval","description":"Medieval church perched at 2,170m beneath Mount Kazbek. Legend says the Ark's cross is buried here. Sacred to Georgian mythology and Christianity.","imageUrl":"https://upload.wikimedia.org/wikipedia/commons/thumb/4/4c/Gergeti_Trinity_Church_09.23.jpg/960px-Gergeti_Trinity_Church_09.23.jpg","country":"Georgia","modernStatus":"Active church, iconic Georgian landmark","tags":"church,mountain,caucasus","color":"#26A69A"}}]}
