{"type":"FeatureCollection","features":[{"type":"Feature","geometry":{"type":"Point","coordinates":[136.73,34.45]},"properties":{"id":"amaterasu","name":"Amaterasu","mythologyId":"japanese","type":"goddess","era":"MS 712","eraBucket":"medieval","description":"Sun goddess and supreme deity of the Shinto pantheon. Ancestor of the Japanese imperial family. Her mirror is one of the three imperial regalia.","imageUrl":"https://upload.wikimedia.org/wikipedia/commons/d/d1/Amaterasu_cave_crop.jpg","domains":"sun,universe,imperial-lineage","color":"#E74C3C"}},{"type":"Feature","geometry":{"type":"Point","coordinates":[132.75,35.37]},"properties":{"id":"susanoo","name":"Susanoo","mythologyId":"japanese","type":"god","era":"MS 712","eraBucket":"medieval","description":"God of storms and the sea. Wild and impetuous. Banished from heaven for his behavior. Slew the eight-headed serpent Yamata no Orochi.","imageUrl":"","domains":"storms,sea,valor","color":"#E74C3C"}},{"type":"Feature","geometry":{"type":"Point","coordinates":[135.17,34.23]},"properties":{"id":"tsukuyomi","name":"Tsukuyomi","mythologyId":"japanese","type":"god","era":"MS 712","eraBucket":"medieval","description":"Moon god, born from Izanagi's right eye. Banished from Amaterasu's presence for killing the food goddess Uke Mochi. Night exists because of their estrangement.","imageUrl":"","domains":"moon,night,time","color":"#E74C3C"}},{"type":"Feature","geometry":{"type":"Point","coordinates":[135.77,34.97]},"properties":{"id":"inari","name":"Inari","mythologyId":"japanese","type":"spirit","era":"MS 711","eraBucket":"medieval","description":"Kami of rice, fertility, and prosperity. Served by fox (kitsune) messengers. One of Japan's most popular deities — over 30,000 shrines.","imageUrl":"https://upload.wikimedia.org/wikipedia/commons/thumb/2/26/Blacksmith_Munechika%2C_helped_by_a_fox_spirit%2C_forging_the_blade_Ko-Gitsune_Maru%2C_by_Ogata_Gekk%C5%8D.jpg/960px-Blacksmith_Munechika%2C_helped_by_a_fox_spirit%2C_forging_the_blade_Ko-Gitsune_Maru%2C_by_Ogata_Gekk%C5%8D.jpg","domains":"rice,fertility,foxes,industry,prosperity","color":"#E74C3C"}},{"type":"Feature","geometry":{"type":"Point","coordinates":[135.17,34.23]},"properties":{"id":"izanagi","name":"Izanagi","mythologyId":"japanese","type":"god","era":"MS 712","eraBucket":"medieval","description":"Creator god who with Izanami formed the Japanese islands. Father of Amaterasu, Tsukuyomi, and Susanoo. His purification created the three noble children.","imageUrl":"https://upload.wikimedia.org/wikipedia/commons/8/84/Kobayashi_Izanami_and_Izanagi.jpg","domains":"creation,life,purification","color":"#E74C3C"}},{"type":"Feature","geometry":{"type":"Point","coordinates":[135.17,34.23]},"properties":{"id":"izanami","name":"Izanami","mythologyId":"japanese","type":"goddess","era":"MS 712","eraBucket":"medieval","description":"Creator goddess who died giving birth to fire. Became queen of Yomi (underworld). Her decay horrified Izanagi, binding her to death's realm.","imageUrl":"https://upload.wikimedia.org/wikipedia/commons/8/84/Kobayashi_Izanami_and_Izanagi.jpg","domains":"creation,death,underworld","color":"#E74C3C"}},{"type":"Feature","geometry":{"type":"Point","coordinates":[135.77,35.01]},"properties":{"id":"fujin","name":"Fūjin","mythologyId":"japanese","type":"god","era":"MS 712","eraBucket":"medieval","description":"God of wind, depicted carrying a bag of winds on his shoulders. One of the oldest Shinto deities. His companion is Raijin the thunder god.","imageUrl":"https://upload.wikimedia.org/wikipedia/commons/thumb/f/f4/F%C5%ABjin_at_Sanj%C5%ABsangen-d%C5%8D.jpg/960px-F%C5%ABjin_at_Sanj%C5%ABsangen-d%C5%8D.jpg","domains":"wind,storms,air","color":"#E74C3C"}},{"type":"Feature","geometry":{"type":"Point","coordinates":[135.77,35.01]},"properties":{"id":"raijin","name":"Raijin","mythologyId":"japanese","type":"god","era":"MS 712","eraBucket":"medieval","description":"God of thunder and lightning. Beats his ring of drums to create thunder. Often depicted alongside Fūjin at temple gates.","imageUrl":"https://upload.wikimedia.org/wikipedia/commons/thumb/9/98/Raijin_in_Sanj%C5%ABsangen-d%C5%8D._Mid-13th_century.jpg/960px-Raijin_in_Sanj%C5%ABsangen-d%C5%8D._Mid-13th_century.jpg","domains":"thunder,lightning,storms","color":"#E74C3C"}},{"type":"Feature","geometry":{"type":"Point","coordinates":[131.49,33.52]},"properties":{"id":"hachiman","name":"Hachiman","mythologyId":"japanese","type":"god","era":"MS 571","eraBucket":"medieval","description":"God of war and divine protector of Japan. Patron of the samurai class. Deified Emperor Ojin. Over 25,000 shrines across Japan.","imageUrl":"https://upload.wikimedia.org/wikipedia/commons/thumb/0/00/%E5%85%AB%E5%B9%A1%E7%A5%9E%E5%9D%90%E5%83%8F%2C_Hachiman.jpg/960px-%E5%85%AB%E5%B9%A1%E7%A5%9E%E5%9D%90%E5%83%8F%2C_Hachiman.jpg","domains":"war,archery,agriculture,divine-protection","color":"#E74C3C"}},{"type":"Feature","geometry":{"type":"Point","coordinates":[136.84,34.38]},"properties":{"id":"ryujin","name":"Ryūjin","mythologyId":"japanese","type":"god","era":"MS 712","eraBucket":"medieval","description":"Dragon King of the Sea. Lives in a coral palace (Ryūgū-jō) at the bottom of the ocean. Controls tides with magical jewels. Ancestor of the imperial line.","imageUrl":"https://upload.wikimedia.org/wikipedia/commons/thumb/1/15/The_Dragon_King_Ryujin_and_the_Tide-controlling_Jewels_beneath_the_sea.jpg/960px-The_Dragon_King_Ryujin_and_the_Tide-controlling_Jewels_beneath_the_sea.jpg","domains":"sea,storms,dragons","color":"#E74C3C"}}]}
