{"type":"FeatureCollection","features":[{"type":"Feature","geometry":{"type":"Point","coordinates":[135.77,34.97]},"properties":{"id":"fushimi-inari","name":"Fushimi Inari Taisha","mythologyId":"japanese","mythologyName":"Japanese Mythology","type":"temple","era":"MS 711","eraBucket":"medieval","description":"Head shrine of Inari with 10,000+ vermilion torii gates forming tunnels up Mount Inari. Foxes (kitsune) guard the shrine.","imageUrl":"https://upload.wikimedia.org/wikipedia/commons/thumb/0/0e/Torii_path_with_lantern_at_Fushimi_Inari_Taisha_Shrine%2C_Kyoto%2C_Japan.jpg/960px-Torii_path_with_lantern_at_Fushimi_Inari_Taisha_Shrine%2C_Kyoto%2C_Japan.jpg","country":"Japan","modernStatus":"Active Shinto shrine, most visited in Japan","tags":"torii,fox,shrine","color":"#E74C3C"}},{"type":"Feature","geometry":{"type":"Point","coordinates":[136.73,34.46]},"properties":{"id":"ise-jingu","name":"Ise Grand Shrine (Ise Jingū)","mythologyId":"japanese","mythologyName":"Japanese Mythology","type":"temple","era":"MÖ 4","eraBucket":"ancient","description":"Japan's most sacred Shinto shrine, dedicated to Amaterasu. Rebuilt every 20 years in an eternal cycle of renewal spanning 1,300+ years.","imageUrl":"","country":"Japan","modernStatus":"Active shrine, rebuilt every 20 years (most recent: 2013)","tags":"shrine,amaterasu,renewal","color":"#E74C3C"}},{"type":"Feature","geometry":{"type":"Point","coordinates":[132.32,34.3]},"properties":{"id":"itsukushima","name":"Itsukushima Shrine (Floating Torii)","mythologyId":"japanese","mythologyName":"Japanese Mythology","type":"temple","era":"MS 593","eraBucket":"medieval","description":"Shinto shrine with its iconic 'floating' torii gate rising from the Inland Sea. Built over water to separate the sacred from the profane.","imageUrl":"https://upload.wikimedia.org/wikipedia/commons/thumb/e/ef/Itsukushima_Shrine_Torii_Gate_%2813890465459%29.jpg/960px-Itsukushima_Shrine_Torii_Gate_%2813890465459%29.jpg","country":"Japan","modernStatus":"UNESCO World Heritage Site","tags":"torii,floating,shinto","color":"#E74C3C"}},{"type":"Feature","geometry":{"type":"Point","coordinates":[132.69,35.4]},"properties":{"id":"izumo-shrine","name":"Izumo Taisha (Grand Shrine)","mythologyId":"japanese","mythologyName":"Japanese Mythology","type":"temple","era":"ancient","eraBucket":"ancient","description":"Second most important Shinto shrine, dedicated to Ōkuninushi (god of nation-building and marriage). All gods gather here in October.","imageUrl":"https://upload.wikimedia.org/wikipedia/commons/thumb/e/e6/Izumo-taisha14bs4592.jpg/960px-Izumo-taisha14bs4592.jpg","country":"Japan","modernStatus":"Active Shinto shrine","tags":"shrine,gods-gathering,marriage","color":"#E74C3C"}},{"type":"Feature","geometry":{"type":"Point","coordinates":[138.73,35.36]},"properties":{"id":"mount-fuji","name":"Mount Fuji (Fujisan)","mythologyId":"japanese","mythologyName":"Japanese Mythology","type":"mountain","era":"ancient","eraBucket":"ancient","description":"Japan's highest peak (3,776m) and most sacred mountain. Home of Konohanasakuya-hime, goddess of flowering. Pilgrimage to the summit is a spiritual practice.","imageUrl":"https://upload.wikimedia.org/wikipedia/commons/thumb/f/f8/View_of_Mount_Fuji_from_%C5%8Cwakudani_20211202.jpg/960px-View_of_Mount_Fuji_from_%C5%8Cwakudani_20211202.jpg","country":"Japan","modernStatus":"UNESCO World Heritage Site, active pilgrimage","tags":"mountain,volcano,sacred","color":"#E74C3C"}},{"type":"Feature","geometry":{"type":"Point","coordinates":[135.84,34.69]},"properties":{"id":"nara-todaiji","name":"Tōdai-ji (Great Eastern Temple)","mythologyId":"japanese","mythologyName":"Japanese Mythology","type":"temple","era":"MS 752","eraBucket":"medieval","description":"Houses the world's largest bronze Buddha (15m tall). The wooden hall is the world's largest wooden structure, rebuilt smaller than the 752 original.","imageUrl":"https://upload.wikimedia.org/wikipedia/commons/thumb/2/2f/T%C5%8Ddai-ji_Kon-d%C5%8D.jpg/960px-T%C5%8Ddai-ji_Kon-d%C5%8D.jpg","country":"Japan","modernStatus":"UNESCO World Heritage Site, active Buddhist temple","tags":"temple,buddha,largest","color":"#E74C3C"}}]}
