{"type":"FeatureCollection","features":[{"type":"Feature","id":"jade-emperor","properties":{"id":"jade-emperor","name":"Jade Emperor","mythologyId":"chinese","type":"god","era":"MS 200","eraBucket":"ancient","description":"Supreme ruler of the celestial bureaucracy. Governs heaven and earth. All other gods report to him. Central to Chinese folk religion.","imageUrl":"https://upload.wikimedia.org/wikipedia/commons/thumb/1/10/Temple_of_Heaven.jpg/1280px-Temple_of_Heaven.jpg","domains":"heaven,creation,law,cosmos","color":"#E67E22"},"geometry":{"type":"Point","coordinates":[116.4,39.9]}},{"type":"Feature","id":"sun-wukong","properties":{"id":"sun-wukong","name":"Sun Wukong","mythologyId":"chinese","type":"demigod","era":"MS 1592","eraBucket":"modern","description":"Born from stone, achieved immortality, wreaked havoc in Heaven. Imprisoned under a mountain for 500 years. Redeemed as Xuanzang's protector.","imageUrl":"https://upload.wikimedia.org/wikipedia/commons/thumb/1/10/Temple_of_Heaven.jpg/1280px-Temple_of_Heaven.jpg","domains":"trickster,strength,transformation,rebellion","color":"#E67E22"},"geometry":{"type":"Point","coordinates":[108.94,34.26]}},{"type":"Feature","id":"nuwa-deity","properties":{"id":"nuwa-deity","name":"Nüwa","mythologyId":"chinese","type":"goddess","era":"MÖ 300","eraBucket":"ancient","description":"Creator of humanity from clay. Repaired the broken sky with five-colored stones. Established the institution of marriage.","imageUrl":"https://upload.wikimedia.org/wikipedia/commons/thumb/e/e5/Nuwa.jpg/440px-Nuwa.jpg","domains":"creation,humanity,repair,marriage","color":"#E67E22"},"geometry":{"type":"Point","coordinates":[108.94,34.26]}},{"type":"Feature","id":"guan-yu","properties":{"id":"guan-yu","name":"Guan Yu","mythologyId":"chinese","type":"god","era":"MS 220","eraBucket":"ancient","description":"Deified historical general from the Three Kingdoms period. God of war, loyalty, and brotherhood. Worshipped by police, triads, and businesses alike.","imageUrl":"https://upload.wikimedia.org/wikipedia/commons/thumb/1/10/Temple_of_Heaven.jpg/1280px-Temple_of_Heaven.jpg","domains":"war,loyalty,brotherhood,righteousness","color":"#E67E22"},"geometry":{"type":"Point","coordinates":[110.82,35.83]}},{"type":"Feature","id":"guanyin","properties":{"id":"guanyin","name":"Guanyin","mythologyId":"chinese","type":"goddess","era":"MS 400","eraBucket":"ancient","description":"Chinese form of Avalokiteshvara. Goddess of mercy and compassion. One of the most worshipped deities in East Asia. Hears all prayers.","imageUrl":"https://upload.wikimedia.org/wikipedia/commons/thumb/1/10/Temple_of_Heaven.jpg/1280px-Temple_of_Heaven.jpg","domains":"compassion,mercy,children,sailors","color":"#E67E22"},"geometry":{"type":"Point","coordinates":[91.17,29.66]}},{"type":"Feature","id":"mazu","properties":{"id":"mazu","name":"Mazu","mythologyId":"chinese","type":"goddess","era":"MS 987","eraBucket":"medieval","description":"Deified mortal who became goddess of the sea and protector of sailors. Over 1,500 temples worldwide. Patron of fishermen and navigators.","imageUrl":"https://upload.wikimedia.org/wikipedia/commons/thumb/1/10/Temple_of_Heaven.jpg/1280px-Temple_of_Heaven.jpg","domains":"sea,sailors,protection,storms","color":"#E67E22"},"geometry":{"type":"Point","coordinates":[119.34,25.09]}}]}