{"type":"FeatureCollection","features":[{"type":"Feature","id":"temple-heaven","properties":{"id":"temple-heaven","name":"Temple of Heaven (Tiantan)","mythologyId":"chinese","mythologyName":"Chinese Mythology","type":"temple","era":"MS 1420","eraBucket":"medieval","description":"Where the Emperor performed annual rituals to ensure heavenly blessing. The circular Hall of Prayer for Good Harvests symbolizes heaven.","imageUrl":"https://upload.wikimedia.org/wikipedia/commons/thumb/1/10/Temple_of_Heaven.jpg/1280px-Temple_of_Heaven.jpg","country":"China","modernStatus":"UNESCO World Heritage Site","tags":"temple,heaven,emperor","color":"#E67E22"},"geometry":{"type":"Point","coordinates":[116.41,39.88]}},{"type":"Feature","id":"mount-tai","properties":{"id":"mount-tai","name":"Mount Tai (Taishan)","mythologyId":"chinese","mythologyName":"Chinese Mythology","type":"mountain","era":"MÖ 2000","eraBucket":"ancient","description":"Most sacred of China's Five Sacred Mountains. 72 emperors made pilgrimages here. Starting point of the soul's journey after death.","imageUrl":"https://upload.wikimedia.org/wikipedia/commons/thumb/1/10/Temple_of_Heaven.jpg/1280px-Temple_of_Heaven.jpg","country":"China","modernStatus":"UNESCO World Heritage Site","tags":"mountain,emperor,pilgrimage","color":"#E67E22"},"geometry":{"type":"Point","coordinates":[117.1,36.25]}},{"type":"Feature","id":"wulingyuan","properties":{"id":"wulingyuan","name":"Wulingyuan Pillars (Zhangjiajie)","mythologyId":"chinese","mythologyName":"Chinese Mythology","type":"natural","era":"ancient","eraBucket":"ancient","description":"Over 3,000 sandstone pillars rising to 200m, resembling a celestial landscape. Associated with immortal xian and dragon legends.","imageUrl":"https://upload.wikimedia.org/wikipedia/commons/thumb/1/10/Temple_of_Heaven.jpg/1280px-Temple_of_Heaven.jpg","country":"China","modernStatus":"UNESCO World Heritage Site, national geopark","tags":"pillars,mountains,immortals","color":"#E67E22"},"geometry":{"type":"Point","coordinates":[110.43,29.32]}},{"type":"Feature","id":"forbidden-city","properties":{"id":"forbidden-city","name":"Forbidden City (Gugong)","mythologyId":"chinese","mythologyName":"Chinese Mythology","type":"temple","era":"MS 1420","eraBucket":"medieval","description":"Imperial palace with 980 buildings embodying Chinese cosmology. Central axis aligns north-south. Yellow roofs symbolize the emperor's celestial mandate.","imageUrl":"https://upload.wikimedia.org/wikipedia/commons/thumb/1/10/Temple_of_Heaven.jpg/1280px-Temple_of_Heaven.jpg","country":"China","modernStatus":"UNESCO World Heritage Site, Palace Museum","tags":"palace,imperial,axis","color":"#E67E22"},"geometry":{"type":"Point","coordinates":[116.39,39.92]}}]}