{"type":"FeatureCollection","features":[{"type":"Feature","id":"ra","properties":{"id":"ra","name":"Ra","mythologyId":"egyptian","type":"god","era":"MÖ 2600","eraBucket":"ancient","description":"Supreme sun god of Egypt. Sailed across the sky by day and through the underworld by night. All pharaohs were his sons.","imageUrl":"https://upload.wikimedia.org/wikipedia/commons/thumb/8/80/Re-Horakhty.svg/220px-Re-Horakhty.svg.png","domains":"sun,creation,kingship","color":"#F39C12"},"geometry":{"type":"Point","coordinates":[31.31,30.13]}},{"type":"Feature","id":"osiris","properties":{"id":"osiris","name":"Osiris","mythologyId":"egyptian","type":"god","era":"MÖ 2400","eraBucket":"ancient","description":"God of the afterlife, death, and resurrection. Murdered by Set and resurrected by Isis. Judge of the dead in the Hall of Two Truths.","imageUrl":"https://upload.wikimedia.org/wikipedia/commons/thumb/7/71/Standing_Osiris_edit1.svg/220px-Standing_Osiris_edit1.svg.png","domains":"afterlife,death,resurrection,agriculture","color":"#F39C12"},"geometry":{"type":"Point","coordinates":[32.9,26.12]}},{"type":"Feature","id":"isis","properties":{"id":"isis","name":"Isis","mythologyId":"egyptian","type":"goddess","era":"MÖ 2400","eraBucket":"ancient","description":"Goddess of magic, motherhood, and wisdom. Reassembled and resurrected Osiris. One of the most worshipped deities in the ancient world.","imageUrl":"https://upload.wikimedia.org/wikipedia/commons/thumb/e/e3/Kheops-Pyramid.jpg/1280px-Kheops-Pyramid.jpg","domains":"magic,motherhood,healing,wisdom","color":"#F39C12"},"geometry":{"type":"Point","coordinates":[31.24,30.04]}},{"type":"Feature","id":"anubis","properties":{"id":"anubis","name":"Anubis","mythologyId":"egyptian","type":"god","era":"MÖ 3100","eraBucket":"ancient","description":"Jackal-headed god of mummification and the afterlife. Guided souls to judgment and weighed hearts against Ma'at's feather.","imageUrl":"https://upload.wikimedia.org/wikipedia/commons/thumb/e/e3/Kheops-Pyramid.jpg/1280px-Kheops-Pyramid.jpg","domains":"death,mummification,afterlife","color":"#F39C12"},"geometry":{"type":"Point","coordinates":[31.19,27.18]}},{"type":"Feature","id":"thoth","properties":{"id":"thoth","name":"Thoth","mythologyId":"egyptian","type":"god","era":"MÖ 3000","eraBucket":"ancient","description":"Ibis-headed god of wisdom, writing, and magic. Inventor of hieroglyphics. Keeper of divine records. Mediator between cosmic forces.","imageUrl":"https://upload.wikimedia.org/wikipedia/commons/thumb/e/e3/Kheops-Pyramid.jpg/1280px-Kheops-Pyramid.jpg","domains":"wisdom,writing,magic,moon,knowledge","color":"#F39C12"},"geometry":{"type":"Point","coordinates":[30.8,27.78]}},{"type":"Feature","id":"sekhmet","properties":{"id":"sekhmet","name":"Sekhmet","mythologyId":"egyptian","type":"goddess","era":"MÖ 2600","eraBucket":"ancient","description":"Lion-headed goddess of war and destruction. Her bloodlust nearly destroyed humanity. Also goddess of healing — the one who wounds can heal.","imageUrl":"https://upload.wikimedia.org/wikipedia/commons/thumb/e/e3/Kheops-Pyramid.jpg/1280px-Kheops-Pyramid.jpg","domains":"war,destruction,healing,lions","color":"#F39C12"},"geometry":{"type":"Point","coordinates":[31.25,29.84]}},{"type":"Feature","id":"set-deity","properties":{"id":"set-deity","name":"Set","mythologyId":"egyptian","type":"god","era":"MÖ 3100","eraBucket":"ancient","description":"God of chaos, storms, and the desert. Murdered his brother Osiris. Complex deity — also protector of Ra against Apophis. Both villain and champion.","imageUrl":"https://upload.wikimedia.org/wikipedia/commons/thumb/e/e3/Kheops-Pyramid.jpg/1280px-Kheops-Pyramid.jpg","domains":"chaos,storms,desert,foreigners","color":"#F39C12"},"geometry":{"type":"Point","coordinates":[31.7,26.55]}},{"type":"Feature","id":"hathor","properties":{"id":"hathor","name":"Hathor","mythologyId":"egyptian","type":"goddess","era":"MÖ 2700","eraBucket":"ancient","description":"Cow-headed goddess of love, beauty, and joy. Gentle aspect of Sekhmet. Welcomed the dead to the afterlife. Nurse of pharaohs.","imageUrl":"https://upload.wikimedia.org/wikipedia/commons/thumb/e/e3/Kheops-Pyramid.jpg/1280px-Kheops-Pyramid.jpg","domains":"love,beauty,music,dance,motherhood","color":"#F39C12"},"geometry":{"type":"Point","coordinates":[32.65,25.72]}},{"type":"Feature","id":"horus","properties":{"id":"horus","name":"Horus","mythologyId":"egyptian","type":"god","era":"MÖ 3100","eraBucket":"ancient","description":"Falcon-headed god of the sky. Son of Osiris and Isis. Avenged his father by defeating Set. Living pharaohs were his embodiment.","imageUrl":"https://upload.wikimedia.org/wikipedia/commons/thumb/e/e3/Kheops-Pyramid.jpg/1280px-Kheops-Pyramid.jpg","domains":"sky,kingship,protection,war","color":"#F39C12"},"geometry":{"type":"Point","coordinates":[32.9,24.09]}},{"type":"Feature","id":"bastet","properties":{"id":"bastet","name":"Bastet","mythologyId":"egyptian","type":"goddess","era":"MÖ 2800","eraBucket":"ancient","description":"Cat-headed goddess of home, fertility, and protection. Once fierce (lioness), she became gentle (cat). Her festival at Bubastis was Egypt's largest.","imageUrl":"https://upload.wikimedia.org/wikipedia/commons/thumb/e/e3/Kheops-Pyramid.jpg/1280px-Kheops-Pyramid.jpg","domains":"cats,home,fertility,protection","color":"#F39C12"},"geometry":{"type":"Point","coordinates":[31.5,30.57]}},{"type":"Feature","id":"ptah","properties":{"id":"ptah","name":"Ptah","mythologyId":"egyptian","type":"god","era":"MÖ 3100","eraBucket":"ancient","description":"Creator god of Memphis. Created the world through speech and thought (logos). Patron of craftsmen and architects. Father of Nefertem.","imageUrl":"https://upload.wikimedia.org/wikipedia/commons/thumb/e/e3/Kheops-Pyramid.jpg/1280px-Kheops-Pyramid.jpg","domains":"creation,craftsmanship,architecture","color":"#F39C12"},"geometry":{"type":"Point","coordinates":[31.25,29.85]}},{"type":"Feature","id":"maat","properties":{"id":"maat","name":"Ma'at","mythologyId":"egyptian","type":"goddess","era":"MÖ 2600","eraBucket":"ancient","description":"Goddess of truth, justice, and cosmic order. Her feather weighed against the heart of the dead. Without Ma'at, the universe returns to chaos.","imageUrl":"https://upload.wikimedia.org/wikipedia/commons/thumb/e/e3/Kheops-Pyramid.jpg/1280px-Kheops-Pyramid.jpg","domains":"truth,justice,cosmic-order,balance","color":"#F39C12"},"geometry":{"type":"Point","coordinates":[32.65,25.72]}},{"type":"Feature","id":"nepthys","properties":{"id":"nepthys","name":"Nephthys","mythologyId":"egyptian","type":"goddess","era":"MÖ 2400","eraBucket":"ancient","description":"Goddess of death and mourning. Sister of Isis, Osiris, and Set. Protector of the dead. Together with Isis, she mourned Osiris and guided souls.","imageUrl":"https://upload.wikimedia.org/wikipedia/commons/thumb/e/e3/Kheops-Pyramid.jpg/1280px-Kheops-Pyramid.jpg","domains":"death,mourning,protection,night","color":"#F39C12"},"geometry":{"type":"Point","coordinates":[31.24,30.04]}},{"type":"Feature","id":"khepri","properties":{"id":"khepri","name":"Khepri","mythologyId":"egyptian","type":"god","era":"MÖ 2600","eraBucket":"ancient","description":"Scarab-headed god of the dawn and self-creation. Pushed the sun across the sky like a dung beetle rolls its ball. Embodiment of daily renewal.","imageUrl":"https://upload.wikimedia.org/wikipedia/commons/thumb/e/e3/Kheops-Pyramid.jpg/1280px-Kheops-Pyramid.jpg","domains":"dawn,creation,rebirth,transformation","color":"#F39C12"},"geometry":{"type":"Point","coordinates":[31.24,30.04]}}]}