{"type":"FeatureCollection","features":[{"type":"Feature","geometry":{"type":"Point","coordinates":[32.9,26.12]},"properties":{"id":"osiris-isis","name":"Osiris, Isis, and Set","mythologyId":"egyptian","type":"afterlife","era":"MÖ 2400","eraBucket":"ancient","summary":"Set murdered his brother Osiris, dismembering and scattering his body across Egypt. Isis gathered the pieces and resurrected Osiris long enough to conceive Horus. Osiris became lord of the dead. Horus grew up to challenge Set, eventually winning kingship. This myth established the pharaonic succession pattern.","imageUrl":"","themes":"murder,resurrection,revenge,kingship,afterlife"}},{"type":"Feature","geometry":{"type":"Point","coordinates":[32.65,25.72]},"properties":{"id":"book-of-dead","name":"Journey Through the Duat (Book of the Dead)","mythologyId":"egyptian","type":"afterlife","era":"MÖ 1550","eraBucket":"ancient","summary":"Each night Ra traveled through the twelve hours of the Duat (underworld), battling the serpent Apophis. Dead souls followed the same path, facing trials and gates guarded by demons. In the Hall of Two Truths, Anubis weighed the heart against Ma'at's feather. Ammit devoured those who failed.","imageUrl":"","themes":"afterlife,judgment,soul,journey,truth"}},{"type":"Feature","geometry":{"type":"Point","coordinates":[31.31,30.13]},"properties":{"id":"egyptian-creation","name":"Creation by Atum at Heliopolis","mythologyId":"egyptian","type":"creation","era":"MÖ 2400","eraBucket":"ancient","summary":"Atum emerged from the primordial waters of Nun atop the first mound (benben). Through self-creation, he produced Shu (air) and Tefnut (moisture). They bore Geb (earth) and Nut (sky), who were separated by their father Shu. This Ennead of nine gods formed the basis of Egyptian cosmology.","imageUrl":"","themes":"creation,self-generation,cosmic-order,separation"}},{"type":"Feature","geometry":{"type":"Point","coordinates":[31.24,30.04]},"properties":{"id":"egyptian-sekhmet","name":"The Destruction of Mankind (Sekhmet)","mythologyId":"egyptian","type":"war","era":"MÖ 2000","eraBucket":"ancient","summary":"Ra sent his eye (Hathor/Sekhmet) to punish disobedient humanity. The lioness goddess Sekhmet went on a blood-fueled rampage, threatening to destroy all humans. To stop her, the gods dyed beer red with ochre to resemble blood. Sekhmet drank it, became drunk, and fell asleep, transforming back into gentle Hathor.","imageUrl":"","themes":"destruction,feminine-fury,trickery,duality,salvation"}},{"type":"Feature","geometry":{"type":"Point","coordinates":[30.8,27.78]},"properties":{"id":"egyptian-thoth","name":"Thoth Wins Five Days from the Moon","mythologyId":"egyptian","type":"trickster","era":"MÖ 2000","eraBucket":"ancient","summary":"Ra cursed Nut that she could not give birth on any day of the year (then 360 days). Thoth, god of wisdom, gambled with the moon god Khonsu, winning moonlight to create five extra days outside the regular calendar. During these five intercalary days, Nut bore Osiris, Isis, Set, Nephthys, and Horus the Elder.","imageUrl":"","themes":"trickery,calendar,gambling,birth,cosmic-law"}},{"type":"Feature","geometry":{"type":"Point","coordinates":[32.65,25.72]},"properties":{"id":"egyptian-ra-journey","name":"Ra's Nightly Journey Through the Duat","mythologyId":"egyptian","type":"cosmology","era":"MÖ 2000","eraBucket":"ancient","summary":"Each night, Ra sailed his barque through the twelve hours of the Duat (underworld). In the seventh hour, the chaos serpent Apophis attacked, threatening to swallow the sun forever. Set defended Ra, spearing the serpent. At dawn, Ra emerged reborn as Khepri, the scarab, ensuring another day for the living.","imageUrl":"","themes":"solar-journey,battle,rebirth,serpent,cosmic-cycle"}}]}
