{"type":"FeatureCollection","features":[{"type":"Feature","geometry":{"type":"Point","coordinates":[31.63,22.34]},"properties":{"id":"abu-simbel","name":"Abu Simbel Temples","mythologyId":"egyptian","mythologyName":"Egyptian Mythology","type":"temple","era":"MÖ 1264","eraBucket":"ancient","description":"Four colossal statues of Ramesses II (20m tall) guard the entrance. Sun aligns to illuminate the inner sanctuary twice yearly.","imageUrl":"https://upload.wikimedia.org/wikipedia/commons/thumb/b/b5/Ramsis%2C_Aswan_Governorate%2C_Egypt_-_panoramio.jpg/960px-Ramsis%2C_Aswan_Governorate%2C_Egypt_-_panoramio.jpg","country":"Egypt","modernStatus":"UNESCO World Heritage Site, relocated from Aswan dam flooding","tags":"colossi,pharaoh,sun-alignment","color":"#F39C12"}},{"type":"Feature","geometry":{"type":"Point","coordinates":[31.13,29.98]},"properties":{"id":"giza-pyramids","name":"Great Pyramids of Giza","mythologyId":"egyptian","mythologyName":"Egyptian Mythology","type":"temple","era":"MÖ 2560","eraBucket":"ancient","description":"Monumental tombs of the pharaohs aligned with astronomical precision. The Great Pyramid (Khufu) was the tallest structure for 3,800 years.","imageUrl":"","country":"Egypt","modernStatus":"UNESCO World Heritage Site","tags":"pyramid,pharaoh,wonder","color":"#F39C12"}},{"type":"Feature","geometry":{"type":"Point","coordinates":[32.66,25.72]},"properties":{"id":"karnak","name":"Karnak Temple Complex","mythologyId":"egyptian","mythologyName":"Egyptian Mythology","type":"temple","era":"MÖ 2000","eraBucket":"ancient","description":"Largest ancient religious complex ever built. Dedicated primarily to Amun-Ra. Construction spanned 2,000 years.","imageUrl":"https://upload.wikimedia.org/wikipedia/commons/thumb/6/60/Temple_de_Louxor_68.jpg/960px-Temple_de_Louxor_68.jpg","country":"Egypt","modernStatus":"UNESCO World Heritage Site, major tourist destination","tags":"temple,amun,largest","color":"#F39C12"}},{"type":"Feature","geometry":{"type":"Point","coordinates":[32.64,25.7]},"properties":{"id":"luxor-temple","name":"Luxor Temple","mythologyId":"egyptian","mythologyName":"Egyptian Mythology","type":"temple","era":"MÖ 1400","eraBucket":"ancient","description":"Temple of Amun at ancient Thebes. Built over centuries by pharaohs including Amenhotep III and Ramesses II. Avenue of Sphinxes connects to Karnak.","imageUrl":"https://upload.wikimedia.org/wikipedia/commons/thumb/0/0e/1550_bis_1070_v._Chr._ca._wurde_der_Tempel_von_Luxor_erbaut._01.jpg/960px-1550_bis_1070_v._Chr._ca._wurde_der_Tempel_von_Luxor_erbaut._01.jpg","country":"Egypt","modernStatus":"UNESCO World Heritage Site","tags":"temple,amenhotep,sphinxes","color":"#F39C12"}},{"type":"Feature","geometry":{"type":"Point","coordinates":[32.6,25.74]},"properties":{"id":"valley-kings","name":"Valley of the Kings","mythologyId":"egyptian","mythologyName":"Egyptian Mythology","type":"natural","era":"MÖ 1539","eraBucket":"ancient","description":"Royal necropolis containing 63 tombs of New Kingdom pharaohs, including Tutankhamun. Walls inscribed with Book of the Dead.","imageUrl":"https://upload.wikimedia.org/wikipedia/commons/0/0c/Luxor%2C_Tal_der_K%C3%B6nige_%281995%2C_860x605%29.jpg","country":"Egypt","modernStatus":"UNESCO World Heritage Site, ongoing excavations","tags":"tomb,pharaoh,afterlife","color":"#F39C12"}}]}
