{"type":"FeatureCollection","features":[{"type":"Feature","geometry":{"type":"Point","coordinates":[-115.14,36.17]},"properties":{"id":"coyote-trickster","name":"Coyote Steals Fire","mythologyId":"native-american","type":"trickster","era":"ancient","eraBucket":"ancient","summary":"In many Native American traditions, Coyote stole fire from the Fire Spirits to give to humanity. Through cunning and relay races with other animals, the fire was passed until it reached humanity. Coyote's cleverness is balanced by his foolishness. He is both creator and destroyer, teacher and troublemaker.","imageUrl":"","themes":"trickster,fire,cleverness,transformation,teaching"}},{"type":"Feature","geometry":{"type":"Point","coordinates":[-134.42,58.3]},"properties":{"id":"raven-light","name":"Raven Steals the Light","mythologyId":"native-american","type":"trickster","era":"ancient","eraBucket":"ancient","summary":"In the beginning, the world was dark. The Sky Chief kept the sun, moon, and stars in bentwood boxes. Raven transformed into a pine needle, was swallowed by the chief's daughter, and was reborn as her grandson. As a child, he opened the boxes one by one, releasing light into the world.","imageUrl":"","themes":"trickster,light,transformation,theft,creation"}},{"type":"Feature","geometry":{"type":"Point","coordinates":[-102.34,43.88]},"properties":{"id":"white-buffalo","name":"White Buffalo Calf Woman","mythologyId":"native-american","type":"nature","era":"ancient","eraBucket":"ancient","summary":"Two Lakota warriors encountered a beautiful woman in white. One approached with desire and was reduced to bones. The other was respectful. She brought the sacred pipe (chanunpa), teaching seven sacred rites including the Sun Dance, vision quest, and sweat lodge. She transformed into a white buffalo calf and vanished.","imageUrl":"https://upload.wikimedia.org/wikipedia/commons/b/b0/Detail_from_%E2%80%9CApparition_of_the_Buffalo_Calf_Maiden%E2%80%9D_%281959%29_by_Frithjof_Schuon.jpg","themes":"sacred-gift,transformation,respect,ceremony,nature"}},{"type":"Feature","geometry":{"type":"Point","coordinates":[-68.52,63.75]},"properties":{"id":"sedna","name":"Sedna — Mistress of the Sea","mythologyId":"native-american","type":"nature","era":"ancient","eraBucket":"ancient","summary":"Sedna was a beautiful Inuit woman tricked into marrying a bird spirit. Her father Anguta rescued her by kayak, but a storm threatened to capsize them. He threw Sedna overboard; when she clung to the boat, he cut off her fingers. Her fingers became seals, walruses, and whales. She sank to rule the sea floor.","imageUrl":"","themes":"betrayal,transformation,sea,survival,sacrifice"}},{"type":"Feature","geometry":{"type":"Point","coordinates":[-109.62,36.17]},"properties":{"id":"navajo-creation","name":"Navajo Emergence — Four Worlds","mythologyId":"native-american","type":"creation","era":"ancient","eraBucket":"ancient","summary":"The Navajo people emerged through four colored worlds — Black, Blue, Yellow, and White. In each world, conflicts caused by Coyote forced migration upward. Spider Woman taught weaving; First Man and First Woman brought sacred medicine bundles. Through a reed, the people climbed into the Fifth World — the present glittering world.","imageUrl":"","themes":"creation,emergence,migration,worlds,sacred-bundle"}},{"type":"Feature","geometry":{"type":"Point","coordinates":[-70.26,43.66]},"properties":{"id":"native-american-corn-mother","name":"Corn Mother — Gift of Agriculture","mythologyId":"native-american","type":"nature","era":"ancient","eraBucket":"ancient","summary":"In Penobscot tradition, Corn Mother arose from corn silk and married First Father. When famine came, she instructed her sons to kill her and drag her body over bare ground. From her flesh grew corn; from her bones grew tobacco. She sacrificed herself so her people would never go hungry.","imageUrl":"","themes":"sacrifice,agriculture,mother,corn,gifts"}}]}
