{"type":"FeatureCollection","features":[{"type":"Feature","geometry":{"type":"Point","coordinates":[-103.42,44.48]},"properties":{"id":"bear-butte","name":"Bear Butte (Mato Paha)","mythologyId":"native-american","mythologyName":"Native American Mythology","type":"mountain","era":"ancient","eraBucket":"ancient","description":"Sacred mountain of the Lakota and Cheyenne. Where Crazy Horse received visions and Sweet Medicine brought the sacred arrows.","imageUrl":"https://upload.wikimedia.org/wikipedia/commons/thumb/7/7d/BEAR_BUTTE.jpg/960px-BEAR_BUTTE.jpg","country":"USA","modernStatus":"State park, active sacred site, prayer cloths visible","tags":"mountain,vision-quest,lakota","color":"#8D6E63"}},{"type":"Feature","geometry":{"type":"Point","coordinates":[-90.06,38.66]},"properties":{"id":"cahokia","name":"Cahokia Mounds","mythologyId":"native-american","mythologyName":"Native American Mythology","type":"temple","era":"MS 600","eraBucket":"medieval","description":"Largest pre-Columbian settlement north of Mexico. Monks Mound is the largest earthwork in the Americas. Wooden Stonehenge (Woodhenge) tracked solstices.","imageUrl":"https://upload.wikimedia.org/wikipedia/commons/thumb/a/a4/Monks_Mound_-_Summer_2024.jpg/960px-Monks_Mound_-_Summer_2024.jpg","country":"USA","modernStatus":"UNESCO World Heritage Site","tags":"mounds,mississippian,solstice","color":"#8D6E63"}},{"type":"Feature","geometry":{"type":"Point","coordinates":[-104.71,44.59]},"properties":{"id":"devils-tower","name":"Devils Tower (Bear Lodge)","mythologyId":"native-american","mythologyName":"Native American Mythology","type":"natural","era":"ancient","eraBucket":"ancient","description":"Massive rock formation sacred to multiple Native American nations. Lakota name means 'Bear Lodge.' Striations are claw marks from a giant bear.","imageUrl":"https://upload.wikimedia.org/wikipedia/commons/thumb/1/1b/Columnar-jointed_porphyritic_phonolite_%28Eocene%2C_49_Ma%3B_Devils_Tower%2C_Wyoming%2C_USA%29_48.jpg/960px-Columnar-jointed_porphyritic_phonolite_%28Eocene%2C_49_Ma%3B_Devils_Tower%2C_Wyoming%2C_USA%29_48.jpg","country":"USA","modernStatus":"National Monument, voluntary climbing ban in June","tags":"tower,bear,sacred","color":"#8D6E63"}},{"type":"Feature","geometry":{"type":"Point","coordinates":[-108.49,37.18]},"properties":{"id":"mesa-verde","name":"Mesa Verde Cliff Dwellings","mythologyId":"native-american","mythologyName":"Native American Mythology","type":"temple","era":"MS 600","eraBucket":"medieval","description":"Ancestral Puebloan cliff dwellings built into canyon walls. Kivas (circular ceremonial chambers) connected communities to the spirit world.","imageUrl":"","country":"USA","modernStatus":"UNESCO World Heritage Site","tags":"cliff-dwelling,kiva,pueblo","color":"#8D6E63"}},{"type":"Feature","geometry":{"type":"Point","coordinates":[-108.84,36.69]},"properties":{"id":"shiprock","name":"Shiprock (Tsé Bitʼaʼí)","mythologyId":"native-american","mythologyName":"Native American Mythology","type":"natural","era":"ancient","eraBucket":"ancient","description":"Volcanic rock 483m high, sacred to Navajo. Called 'Winged Rock' — legend says the Navajo once lived on top, carried there by a great bird.","imageUrl":"https://upload.wikimedia.org/wikipedia/commons/thumb/0/0b/Shiprock.snodgrass3.jpg/960px-Shiprock.snodgrass3.jpg","country":"USA","modernStatus":"Sacred site, climbing prohibited since 1970","tags":"rock,navajo,winged","color":"#8D6E63"}}]}
